id,name,contactType,favoriteEmail,description,emails,favoriteUrl,urls,favoritePhone,phones,favoriteAddress,addresses,groups,Countries of Investment,Stage of Investment
8639a8d2-6b37-4e7a-8eae-0d966f042c6e,2150,company,,,,https://www.2150.vc/,https://www.2150.vc/,,,,,"All VCs ,+100 best VC Funds in UK ğŸ‡¬ğŸ‡§","UK,USA,Denmark,Finland,Germany,France,Sweden,Spain","4. Scaling,3. Early Revenue,5. Growth"
6df29ec3-7658-4530-a0de-4e8b74701c4c,83North,company,,83North is a global venture capital firm with more than $1.8B million under management.,,https://www.83north.com/,https://www.83north.com/,,,UK,UK,"All VCs ,Top European VCs,+100 best VC Funds in UK ğŸ‡¬ğŸ‡§","Israel,UK",3. Early Revenue
ac143305-13ce-4ab1-a45c-a1eda08a6731,Abingworth,company,,,,https://www.abingworth.com,https://www.abingworth.com,,,,,"All VCs ,+100 best VC Funds in UK ğŸ‡¬ğŸ‡§","USA,UK",3. Early Revenue
9f42ce90-839c-4120-bf6a-42d5e40a5a27,Ada Ventures,company,,,,https://www.adaventures.com/,https://www.adaventures.com/,,,UK,UK,"Top European VCs,+100 best VC Funds in UK ğŸ‡¬ğŸ‡§",UK,3. Early Revenue
73f7b4f9-2745-4fba-bd3a-b7b686d01b76,ADV Accelerated Digital Ventures,company,,,,https://accelerated.ventures/,https://accelerated.ventures/,,,,,+100 best VC Funds in UK ğŸ‡¬ğŸ‡§,UK,3. Early Revenue
62e48533-ec2c-4d31-ab81-f3d5611aac4c,Agronomics,company,,,,https://agronomics.im/,https://agronomics.im/,,,,,+100 best VC Funds in UK ğŸ‡¬ğŸ‡§,UK,3. Early Revenue
813430ff-18d7-4478-9d19-0133158328c3,Ahren Innovation Capital,company,,,,http://www.ahreninnovationcapital.com/,http://www.ahreninnovationcapital.com/,,,,,"All VCs ,+100 best VC Funds in UK ğŸ‡¬ğŸ‡§","USA,UK","2. Prototype,3. Early Revenue"
0a09c962-d3f9-400b-89a6-6bceb59cbb6b,Air Street Capital,company,,,,https://www.airstreet.com/,https://www.airstreet.com/,,,UK,UK,"All VCs ,Top European VCs,+100 best VC Funds in UK ğŸ‡¬ğŸ‡§","USA,UK",2. Prototype
7dbfdf8b-e4fe-4a56-8e95-fe11f554dd96,AI Seed Fund,company,,,,https://aiseed.vc/,https://aiseed.vc/,,,,,+100 best VC Funds in UK ğŸ‡¬ğŸ‡§,UK,2. Prototype
39d19321-d85d-4537-89be-6dff23e42176,AlbionVC,company,marketing@albion.capital,AlbionVC supports visionary founders with long-term capital and scale-up expertise.,marketing@albion.capital,https://www.albion.vc/,https://www.albion.vc/,,,UK,UK,"Corporate Venture Arms,All VCs ,+100 best VC Funds in UK ğŸ‡¬ğŸ‡§","USA,UK",3. Early Revenue
7e015f08-efcf-4291-8b81-85a795f71048,Alchemy,company,,,,https://www.alchemysyndicate.com/,https://www.alchemysyndicate.com/,,,,,+100 best VC Funds in UK ğŸ‡¬ğŸ‡§,"USA,UK","2. Prototype,3. Early Revenue,1. Idea or Patent"
b29bb827-5cd7-43aa-b006-8bcde367e9b3,Alderley Park Ventures,company,,,,https://biocity.co.uk/investment/,https://biocity.co.uk/investment/,,,,,+100 best VC Funds in UK ğŸ‡¬ğŸ‡§,UK,3. Early Revenue
1e6c9b5b-1516-4264-84d3-a3d45690ca8f,Amadeus Capital Partners,company,,"Amadeus Capital Partners caters to the technology sector with seed, early, and later stage venture, and private equity investments.",,https://www.amadeuscapital.com/,https://www.amadeuscapital.com/,,,UK,UK,"All VCs ,Top European VCs,+100 best VC Funds in UK ğŸ‡¬ğŸ‡§",UK,3. Early Revenue
769da5e7-b56d-4a23-88de-e1c54d87d259,Anglo Scientific,company,,,,https://www.angloscientific.com/mission/,https://www.angloscientific.com/mission/,,,,,+100 best VC Funds in UK ğŸ‡¬ğŸ‡§,UK,3. Early Revenue
bf1dfce6-a083-49ec-abe7-08412caee760,Anthemis,company,,,,https://www.anthemis.com/,https://www.anthemis.com/,,,,,+100 best VC Funds in UK ğŸ‡¬ğŸ‡§,"USA,France,Germany,UK,Canada","1. Idea or Patent,2. Prototype,3. Early Revenue,4. Scaling"
59ac55e8-afca-4db2-9a32-236ba6bc96bb,Apax Partners,company,,Apax Partners is an independent global partnership focused solely on long-term investment in growth companies.,,https://www.apax.com/,https://www.apax.com/,,,,,+100 best VC Funds in UK ğŸ‡¬ğŸ‡§,"USA,Israel,Canada,UK",
bde1c554-4bf7-451c-a8c9-98aadd24164d,Apollo Ventures,company,,,,https://apollo.vc,https://apollo.vc,,,,,+100 best VC Funds in UK ğŸ‡¬ğŸ‡§,"USA,UK",3. Early Revenue
04d6434e-ae9f-4999-9b60-c1c161b34377,Aquarius Equity,company,,,,http://www.aquariusequity.com/,http://www.aquariusequity.com/,,,,,+100 best VC Funds in UK ğŸ‡¬ğŸ‡§,UK,3. Early Revenue
8f64442d-1e36-435d-9c2f-8928cf0c34d3,AV8,company,,,,https://av8.vc/,https://av8.vc/,,,,,+100 best VC Funds in UK ğŸ‡¬ğŸ‡§,"USA,UK",3. Early Revenue
931a1d9b-80fa-40f6-a8bf-b8706a511cd8,Balderton Capital,company,,Balderton Capital is a venture capital investor that supports technology businesses.,,balderton.com,balderton.com,,,UK,UK,"All VCs ,Top European VCs,Les VC Francais - 399 options pour lever des fonds ğŸ¤,+100 best VC Funds in UK ğŸ‡¬ğŸ‡§","UK,France","3. Early Revenue,4. Scaling"
c2ef4403-9806-435d-8bdc-2d2cbb2eda8c,Beast Ventures,company,,,,http://www.beast.vc/team/,http://www.beast.vc/team/,,,,,+100 best VC Funds in UK ğŸ‡¬ğŸ‡§,UK,2. Prototype
5c3fcdec-f2b0-45ed-920b-85369a694d8d,Begin Capital,company,,,,https://www.begincl.com/,https://www.begincl.com/,,,,,+100 best VC Funds in UK ğŸ‡¬ğŸ‡§,"USA,UK,Germany,France,Spain,Netherlands,Belgium,Poland,Italy,Austria,Ireland,Sweden,Finland,Denmark,Czech Republic,Norway,Switzerland,Hungary,Latvia,Estonia,Lithuania,Canada,Ukraine","3. Early Revenue,4. Scaling,5. Growth"
83762d54-ad32-4776-8588-f0a5f224cdff,Beringea,company,,,,https://www.beringea.com/,https://www.beringea.com/,,,,,"All VCs ,+100 best VC Funds in UK ğŸ‡¬ğŸ‡§","USA,UK",
f5e0882b-3f6f-449b-b814-10e49ec35051,BGV Bethnal Green Ventures,company,,,,https://bethnalgreenventures.com,https://bethnalgreenventures.com,,,,,+100 best VC Funds in UK ğŸ‡¬ğŸ‡§,UK,"3. Early Revenue,2. Prototype"
dfefd3b0-0974-4f01-86bf-ad0701c856ef,Boundary Capital,company,,,,https://www.boundarycapital.com/,https://www.boundarycapital.com/,,,,,+100 best VC Funds in UK ğŸ‡¬ğŸ‡§,UK,3. Early Revenue
21b4ea55-b8f8-465f-b663-9eed60c3a9ce,Break Off,company,,,,https://breakoff.com/,https://breakoff.com/,,,,,+100 best VC Funds in UK ğŸ‡¬ğŸ‡§,"Israel,USA,Canada,UK","2. Prototype,3. Early Revenue"
4599422d-cf4c-4715-ae29-3f69458ed3c3,Breed Reply,company,info@breedreply.com,Breed Reply is Europe's active operational investors for early-stage companies delivering 'internet of things' solutions.,info@breedreply.com,https://www.reply.com/breed-reply/en/,https://www.reply.com/breed-reply/en/,,,"38 Grosvenor Gardens London SW1W 0EB, UK","38 Grosvenor Gardens London SW1W 0EB, UK","Corporate Venture Arms,+100 best VC Funds in UK ğŸ‡¬ğŸ‡§","Austria,Belgium,Czech Republic,Denmark,Estonia,Bulgaria,Finland,France,Germany,Georgia,Greece,Hungary,Ireland,Italy,Latvia,Liechtenstein,Lithuania,Luxembourg,Netherlands,Norway,Portugal,Romania,Slovenia,Switzerland,Slovakia,Sweden,Spain,UK","3. Early Revenue,4. Scaling"
8bf7c11c-d1d0-4e85-8702-b61b444254d8,C4 Ventures,company,,C4 Ventures is a venture capital firm that focuses on early stage startups.,,https://c4v.com/home/,https://c4v.com/home/,,,"25 Eccleston Place, Eccleston Yards, London SW1W 9NF, UK","25 Eccleston Place, Eccleston Yards, London SW1W 9NF, UK","European Family Offices' Founders ,All VCs ,Top European VCs,+100 best VC Funds in UK ğŸ‡¬ğŸ‡§","Belgium,France,Germany,Israel,Italy,Netherlands,Poland,Portugal,Spain,Switzerland,UK,USA","2. Prototype,3. Early Revenue,4. Scaling"
cbc4c257-3687-4ee3-958c-71591f7d3e3c,Cambridge Angels,company,,,,https://cambridgeangels.com/aboutus/,https://cambridgeangels.com/aboutus/,,,,,+100 best VC Funds in UK ğŸ‡¬ğŸ‡§,UK,3. Early Revenue
b10fafe6-d60c-4810-8068-1bca5f64d70c,Cambridge Innovation Capital,company,,,,http://www.cic.vc/,http://www.cic.vc/,,,,,"All VCs ,+100 best VC Funds in UK ğŸ‡¬ğŸ‡§",UK,3. Early Revenue
dc25fd42-6a8f-4f1d-a8c1-aac01ecfab4b,Catapult Ventures (UK),company,,,,http://www.catapult-ventures.com/,http://www.catapult-ventures.com/,,,,,+100 best VC Funds in UK ğŸ‡¬ğŸ‡§,UK,3. Early Revenue
f9023b82-2f41-469a-bd7c-a80ff25220ea,Chord Capital,company,,,,http://www.chordcapital.co.uk,http://www.chordcapital.co.uk,,,,,+100 best VC Funds in UK ğŸ‡¬ğŸ‡§,"Israel,USA,Canada,UK",3. Early Revenue
0a3569b7-6b66-46c7-bfc1-d399af032bdf,Chrysalis VCT,company,,,,http://www.chrysalisvct.co.uk,http://www.chrysalisvct.co.uk,,,,,+100 best VC Funds in UK ğŸ‡¬ğŸ‡§,UK,3. Early Revenue
385a82b7-9e54-4311-86ed-89899915e05b,Circadia Ventures,company,,,,http://www.circadiaventures.com/about.asp,http://www.circadiaventures.com/about.asp,,,,,+100 best VC Funds in UK ğŸ‡¬ğŸ‡§,"USA,UK",3. Early Revenue
638a35a2-bed9-4004-a89d-b8d669b0d63a,Circularity Capital,company,,,,https://circularitycapital.com/,https://circularitycapital.com/,,,,,+100 best VC Funds in UK ğŸ‡¬ğŸ‡§,UK,3. Early Revenue
7050071b-dce4-4e6c-a52f-977f048dc4e6,Clean Growth Fund,company,,,,https://www.cleangrowthfund.com/,https://www.cleangrowthfund.com/,,,,,+100 best VC Funds in UK ğŸ‡¬ğŸ‡§,UK,"3. Early Revenue,2. Prototype,4. Scaling"
a3803a14-1667-4621-9827-c0725be319b0,Cylon,company,,,,https://cylonlab.com/,https://cylonlab.com/,,,,,+100 best VC Funds in UK ğŸ‡¬ğŸ‡§,UK,2. Prototype
60db18fb-fdab-42b0-b3ae-14cbc71d6fa1,D2 Double Down,company,,,,https://d2.fund/,https://d2.fund/,,,,,+100 best VC Funds in UK ğŸ‡¬ğŸ‡§,"UK,Germany,France,Belgium,Spain,Italy,Ireland,Switzerland,Portugal,Norway,Sweden,Turkey","2. Prototype,3. Early Revenue"
d4c74556-d5ef-40ff-bf04-f18432e0326f,Datainsight,company,,,,https://github.com/datainsightio/home,https://github.com/datainsightio/home,,,,,+100 best VC Funds in UK ğŸ‡¬ğŸ‡§,UK,"1. Idea or Patent,2. Prototype,3. Early Revenue"
a658bc12-b1b4-4ed6-91ab-4075146cb68a,Dawn Capital,company,,Dawn Capital is an early-stage venture fund that focuses on investing in the enterprise software and FinTech sectors.,,dawncapital.com,dawncapital.com,,,UK,UK,"All VCs ,Top European VCs,Les VC Francais - 399 options pour lever des fonds ğŸ¤,+100 best VC Funds in UK ğŸ‡¬ğŸ‡§","UK,France","2. Prototype,3. Early Revenue,4. Scaling"
68284003-4b7f-4b63-8c5b-3e61235c6f09,Deepbridge Capital,company,,,,https://www.deepbridgecapital.com/,https://www.deepbridgecapital.com/,,,,,+100 best VC Funds in UK ğŸ‡¬ğŸ‡§,UK,
34530508-c694-4d77-9fd1-8d77ac4af2c6,Delta Partners,company,,,,http://www.deltapartners.com/,http://www.deltapartners.com/,,,UK,UK,"Top European VCs,+100 best VC Funds in UK ğŸ‡¬ğŸ‡§","UK,Ireland",3. Early Revenue
f0cbccca-7ecf-4bd4-aa79-e091adbb7329,DIP Capital,company,,,,https://www.dip-capital.com/,https://www.dip-capital.com/,,,"5th Floor, 20 Old Bailey, London, EC4M 7AN, UK","5th Floor, 20 Old Bailey, London, EC4M 7AN, UK","Top European VCs,+100 best VC Funds in UK ğŸ‡¬ğŸ‡§","Belgium,Finland,UK,Denmark,Cyprus,Germany,Czech Republic,CÃ´te d'Ivoire,France,Latvia,Iceland,Hungary,Israel,Ireland,Italy,Austria,Monaco,Norway,Switzerland,Spain,Sweden,Slovenia,Slovakia,Poland,Netherlands,Luxembourg","3. Early Revenue,4. Scaling,5. Growth"
13ff9aca-2ff6-40ca-88d9-9066ad3f9ba4,Disruptive Capital,company,,,,https://www.disruptivecapital.com/,https://www.disruptivecapital.com/,,,,,+100 best VC Funds in UK ğŸ‡¬ğŸ‡§,UK,3. Early Revenue
3a566305-73d0-41ef-83f7-16664ac1143d,Downing Ventures,company,,,,https://www.downingventures.com/,https://www.downingventures.com/,,,,,"All VCs ,+100 best VC Funds in UK ğŸ‡¬ğŸ‡§",UK,3. Early Revenue
174abfe0-2c9c-4fa5-8f16-0a5263a40177,D Squared Capital,company,,,,https://www.dsquaredcap.com/,https://www.dsquaredcap.com/,,,,,+100 best VC Funds in UK ğŸ‡¬ğŸ‡§,"UK,Israel,USA","3. Early Revenue,4. Scaling,5. Growth,6. Pre-IPO"
c6f5a4c6-c5ee-4de6-b64d-6bcb94b08d6a,Eight Roads,company,,,,https://eightroads.com/en/,https://eightroads.com/en/,,,UK,UK,"VC investing in India ,+100 best VC Funds in UK ğŸ‡¬ğŸ‡§","UK,USA,France,China,Japan,India,Israel,Canada",3. Early Revenue
59964ebe-a258-41cc-8800-58d7a2e8d4e2,Enso Ventures,company,,,,https://www.ensoventures.com/,https://www.ensoventures.com/,,,,,+100 best VC Funds in UK ğŸ‡¬ğŸ‡§,"USA,UK",3. Early Revenue
b34ca6a2-d60e-47e8-a71a-6229809af7ee,EntrÃ©e Capital,company,,EntrÃ©e Capital is a venture capital firm that funds multi-stage startups and companies all over the world.,,https://www.entreecap.com/we,https://www.entreecap.com/we,,,UK,UK,"All VCs ,Top European VCs,+100 best VC Funds in UK ğŸ‡¬ğŸ‡§","USA,Israel,UK","2. Prototype,3. Early Revenue"
44448f69-3709-48c1-aa7e-83969878abc5,Epidarex,company,,,,http://www.epidarex.com/,http://www.epidarex.com/,,,,,+100 best VC Funds in UK ğŸ‡¬ğŸ‡§,"UK,USA",3. Early Revenue
b9d2e0c9-98f3-467c-adaa-818ee573ecd6,ETF Partners,company,,,,https://etfpartners.capital/,https://etfpartners.capital/,,,UK,UK,"Top European VCs,+100 best VC Funds in UK ğŸ‡¬ğŸ‡§","UK,France","3. Early Revenue,4. Scaling"
c015dd33-6fa5-432f-be31-6218e5fbd0e5,Excalibur Fund Managers,company,,,,http://excalibur-group.co.uk/portfolio,http://excalibur-group.co.uk/portfolio,,,,,+100 best VC Funds in UK ğŸ‡¬ğŸ‡§,"USA,UK",3. Early Revenue
455d3ad0-25b0-4497-8aec-8fe0efedf7a3,First Imagine,company,,,,http://www.firstimagine.com,http://www.firstimagine.com,,,,,+100 best VC Funds in UK ğŸ‡¬ğŸ‡§,"Israel,UK",3. Early Revenue
6e5c98e6-43c7-49a3-bf1a-714608f9f36b,FirstMinute Capital,company,,,,https://www.firstminute.capital/,https://www.firstminute.capital/,,,,,+100 best VC Funds in UK ğŸ‡¬ğŸ‡§,"USA,Israel,UK,France",3. Early Revenue
c8e92758-2b9b-47c8-a9cb-ad04425caf14,Force Over Mass,company,,,,http://www.fomcap.com/,http://www.fomcap.com/,,,UK,UK,"Top European VCs,+100 best VC Funds in UK ğŸ‡¬ğŸ‡§","USA,UK",3. Early Revenue
e9aa08ed-9d18-4f81-ba45-49549d72cdd7,Fountain Healthcare,company,,,,http://www.fh-partners.com/,http://www.fh-partners.com/,,,,,+100 best VC Funds in UK ğŸ‡¬ğŸ‡§,"USA,UK",3. Early Revenue
a1a62675-6bc6-4b79-bfe4-b67978bb71ae,Frog Capital,company,,,,https://frogcapital.com/,https://frogcapital.com/,,,,,"European Family Offices' Founders ,All VCs ,+100 best VC Funds in UK ğŸ‡¬ğŸ‡§",UK,3. Early Revenue
50c15a3b-6a52-4773-8007-9e0f3396c542,Fuel Ventures,company,,,,https://fuel.ventures/,https://fuel.ventures/,,,"145 City Rd, Hoxton, London, EC1V 1AZ, UK","145 City Rd, Hoxton, London, EC1V 1AZ, UK","Top European VCs,+100 best VC Funds in UK ğŸ‡¬ğŸ‡§",UK,"3. Early Revenue,4. Scaling,1. Idea or Patent,2. Prototype"
91be3bc9-bec3-47ef-bd12-6f8071263f0f,GPI Global Partners Investments,company,,,,https://www.gpiuk.com/,https://www.gpiuk.com/,,,"E16 2DQ, London, UK","E16 2DQ, London, UK","VC investing in India ,+100 best VC Funds in UK ğŸ‡¬ğŸ‡§","Algeria,Argentina,Australia,Austria,Bahamas,Bahrain,Bangladesh,Barbados,Belgium,Brazil,Bulgaria,Canada,Chile,China,Croatia,Cyprus,Denmark,Egypt,Estonia,Finland,Germany,Greece,Hong Kong,India,Ireland,Japan,Italy,Kuwait,Lebanon,Liechtenstein,Luxembourg,Mexico,Morocco,Netherlands,New Zealand,Norway,Oman,Pakistan,Palestine,Philippines,Portugal,Saudi Arabia,Singapore,South Korea,Spain,Sweden,Switzerland,Taiwan,Thailand,Trinidad and Tobago,Tunisia,Turkey,UK,Ukraine,UAE,USA,Vietnam","1. Idea or Patent,3. Early Revenue,4. Scaling,5. Growth,6. Pre-IPO,2. Prototype"
4a94229c-85f8-459c-9fae-017d8f5749bf,Ground Floor Ventures,company,,,,https://groundfloor.ventures/,https://groundfloor.ventures/,,,,,+100 best VC Funds in UK ğŸ‡¬ğŸ‡§,"USA,UK","2. Prototype,3. Early Revenue,1. Idea or Patent"
f7730232-fdfe-4e91-ac8a-0f019ea5f5c1,Hoxton Ventures,company,,,,https://www.hoxtonventures.com/,https://www.hoxtonventures.com/,,,UK,UK,"All VCs ,Top European VCs,VC investing in India ,+100 best VC Funds in UK ğŸ‡¬ğŸ‡§","India,USA,UK",3. Early Revenue
7f88053b-0dc9-474a-9f2e-ec19856c927e,HSBC Corporate Ventures,company,,,,https://www.ventures.hsbc.com/,https://www.ventures.hsbc.com/,,,,,+100 best VC Funds in UK ğŸ‡¬ğŸ‡§,"USA,UK",3. Early Revenue
773f1746-007a-4266-8959-52e66a4c18f3,Impact Ventures,company,,,,http://www.impactventure.com/,http://www.impactventure.com/,,,,,+100 best VC Funds in UK ğŸ‡¬ğŸ‡§,"USA,Israel,Canada,UK","2. Prototype,3. Early Revenue"
deea2ae2-63a3-4ac7-91eb-6a9e2e16d914,Imprimatur Capital,company,,,,http://www.imprimaturcapital.com/about/,http://www.imprimaturcapital.com/about/,,,,,+100 best VC Funds in UK ğŸ‡¬ğŸ‡§,"USA,Israel,Canada,UK,Singapore",3. Early Revenue
029f6550-04bd-437d-a6db-f5d0fbb5b68c,Infinium Partners,company,,,,https://www.infiniumpartners.com/,https://www.infiniumpartners.com/,,,,,+100 best VC Funds in UK ğŸ‡¬ğŸ‡§,"UK,France,Germany,Australia,USA,Italy,Spain","1. Idea or Patent,2. Prototype,3. Early Revenue,4. Scaling"
e8e05596-7d68-4cf8-a1ca-f3d848ff8d71,InMotion Ventures by Jaguar Land Rover,company,,,,https://www.inmotionventures.com/,https://www.inmotionventures.com/,,,,,+100 best VC Funds in UK ğŸ‡¬ğŸ‡§,"USA,Israel,Canada,UK",3. Early Revenue
795d6695-8efd-4433-a9a1-5a10a33eeea3,Invoke Capital,company,,,,http://www.invokecapital.com/,http://www.invokecapital.com/,,,,,+100 best VC Funds in UK ğŸ‡¬ğŸ‡§,UK,3. Early Revenue
61c99a91-d4e5-4918-b51e-57a389626b41,IP Group,company,,"IP Group's core business is the creation of value for its shareholders and partners through the commercialisation of intellectual property originating from research intensive institutions. Their strength lies in managing this process from finding suitable intellectual property to commercialise to either helping develop businesses and create value out of them, or identifying and establishing appropriate commercial partnerships to do so. IP Group's extensive expertise in this area combined with its inside knowledge of both industry and finance have enabled the group to create a formidable track record of consistently delivering excellent results for their companies, for their partners and for their shareholders.",,https://www.ipgroupplc.com/,https://www.ipgroupplc.com/,,,,,+100 best VC Funds in UK ğŸ‡¬ğŸ‡§,"USA,Canada,Australia,New Zealand,UK",3. Early Revenue
fcf98460-5fd1-406c-9ceb-ae10ff1ddfdd,Kohli Ventures,company,,,,https://www.kohliventures.com,https://www.kohliventures.com,,,UK,UK,"Top European VCs,+100 best VC Funds in UK ğŸ‡¬ğŸ‡§","Israel,USA,Canada,UK",3. Early Revenue
dfe2d5d6-455f-41f5-9f86-12c1468a6337,Lansdowne Partners,company,,,,https://www.lansdownepartners.com/,https://www.lansdownepartners.com/,,,,,+100 best VC Funds in UK ğŸ‡¬ğŸ‡§,UK,
f91daf73-ac40-4eed-9aa7-25d31ca381ea,Local Globe,company,,,,https://localglobe.vc/,https://localglobe.vc/,,,,,+100 best VC Funds in UK ğŸ‡¬ğŸ‡§,"UK,France",3. Early Revenue
56fe9b7e-f35e-431f-a121-f5bc53e7c850,Longwall Venture Partners,company,,,,http://www.longwallventures.com/,http://www.longwallventures.com/,,,,,+100 best VC Funds in UK ğŸ‡¬ğŸ‡§,UK,3. Early Revenue
7a73e909-5c82-48c5-a850-b94f6c54fb0e,Luminous Ventures,company,,,,https://www.luminous.vc/,https://www.luminous.vc/,,,UK,UK,"Top European VCs,+100 best VC Funds in UK ğŸ‡¬ğŸ‡§","USA,Canada,UK",3. Early Revenue
f2563c19-615f-447d-9a71-5f78696e4aad,Matador Ventures,company,,,,https://matador-ventures.com/our-manifesto/,https://matador-ventures.com/our-manifesto/,,,,,+100 best VC Funds in UK ğŸ‡¬ğŸ‡§,"Israel,USA,UK",3. Early Revenue
94c747fb-468d-47e2-a1af-3529ba884b13,Medicxi Ventures,company,,,,https://www.medicxiventures.com/,https://www.medicxiventures.com/,,,,,+100 best VC Funds in UK ğŸ‡¬ğŸ‡§,UK,"2. Prototype,3. Early Revenue"
e9d5ff25-44a9-4bbe-baef-0259b8e961c8,Mercia Tech,company,,,,https://www.merciatech.co.uk/,https://www.merciatech.co.uk/,,,,,+100 best VC Funds in UK ğŸ‡¬ğŸ‡§,UK,3. Early Revenue
a6f8e70b-abb8-452e-aaf9-25a3b3341920,Midven,company,,,,https://midven.co.uk,https://midven.co.uk,,,,,+100 best VC Funds in UK ğŸ‡¬ğŸ‡§,UK,
d65ebe56-7d39-47e5-b924-12fc26518380,MMC Ventures,company,,"Finance, Financial Services, Venture Capital",,https://www.mmcventures.com,https://www.mmcventures.com,,,UK,UK,"All VCs ,VC Founds - Seed - US/Europe,Top European VCs,+100 best VC Funds in UK ğŸ‡¬ğŸ‡§",UK,3. Early Revenue
87485c4c-7db1-4be6-b374-051071f51a19,Mustard Seed,company,,,,http://mustardseed.vc/investors,http://mustardseed.vc/investors,,,,,+100 best VC Funds in UK ğŸ‡¬ğŸ‡§,UK,2. Prototype
14702d5a-4d89-4697-a214-42491c2a5090,Nauta Capital,company,,,,nautacapital.com,nautacapital.com,,,ğŸ‡¬ğŸ‡§ UK,ğŸ‡¬ğŸ‡§ UK,"Top European VCs,+100 best VC Funds in UK ğŸ‡¬ğŸ‡§","UK,Spain,Portugal,Germany,Austria,Switzerland,Ireland,Finland,Sweden","3. Early Revenue,4. Scaling"
9e75ba04-a9d3-4237-976a-4e3117537dc7,NEON Adventures,company,,"NEON Adventures is a single family office with interests across technology, property, lifestyle and philanthropy.",,https://neon.com,https://neon.com,,,,,+100 best VC Funds in UK ğŸ‡¬ğŸ‡§,"UK,USA","3. Early Revenue,4. Scaling"
18384fd2-9901-4d12-aa49-8d83105562f6,North West Fund,company,,,,http://www.thenorthwestfund.co.uk/about-the-fund/funds/energy-environmental/,http://www.thenorthwestfund.co.uk/about-the-fund/funds/energy-environmental/,,,,,+100 best VC Funds in UK ğŸ‡¬ğŸ‡§,UK,3. Early Revenue
f82963a9-d9e7-4ec2-ab7c-e5c92c14ea6a,Northzone,company,,"Business Development, Finance, FinTech, Venture Capital",,https://northzone.com/,https://northzone.com/,,,UK,UK,"All VCs ,VC Founds - Seed - US/Europe,Top European VCs,+100 best VC Funds in UK ğŸ‡¬ğŸ‡§","USA,UK,Germany,Spain,Sweden,Finland,Norway,Denmark,France,Italy","3. Early Revenue,4. Scaling,5. Growth"
9f38e95b-0b02-416f-a183-7bd4486318c0,Notion Capital,company,,,,https://notion.vc/,https://notion.vc/,,,UK,UK,"All VCs ,Top European VCs,+100 best VC Funds in UK ğŸ‡¬ğŸ‡§","UK,France",3. Early Revenue
11162df5-61ee-4585-bbce-d61009f061e6,Nova,company,,"Nova puts the power of AI to work for you, enabling a more continuousâ€¦",,novastream.com.au,novastream.com.au,,,,,+100 best VC Funds in UK ğŸ‡¬ğŸ‡§,UK,"1. Idea or Patent,2. Prototype"
fd23a0f3-c216-4452-a962-9e706dad9254,Odey Asset Management,company,,,,https://www.odey.com/,https://www.odey.com/,,,,,+100 best VC Funds in UK ğŸ‡¬ğŸ‡§,"USA,Israel,Canada,UK",
463e9e23-cb23-4077-858d-c0b135168b80,Ombu,company,,,,http://www.ombugroup.com/,http://www.ombugroup.com/,,,,,+100 best VC Funds in UK ğŸ‡¬ğŸ‡§,"USA,Canada,UK",3. Early Revenue
f224f98b-aabf-43c6-81e4-beca6753ae99,Optum Ventures by UHG,company,,,,https://www.optumventures.com/,https://www.optumventures.com/,,,,,+100 best VC Funds in UK ğŸ‡¬ğŸ‡§,"Israel,USA,Canada,UK",3. Early Revenue
1d3775f8-b193-4b87-b5f8-12445cab7fdf,Oxford Capital Partners,company,,,,http://www.oxcp.com/,http://www.oxcp.com/,,,,,+100 best VC Funds in UK ğŸ‡¬ğŸ‡§,"USA,UK",3. Early Revenue
60ed0494-6ca4-4a90-a659-7c6fa51a39d0,Panacea Stars,company,,,,http://panacea-stars.com/,http://panacea-stars.com/,,,,,+100 best VC Funds in UK ğŸ‡¬ğŸ‡§,UK,"2. Prototype,3. Early Revenue"
e9a5ee53-2f61-4b3f-8414-583ba460782e,Pario Ventures,company,,"Pario works with entrepreneurs, CEOs, to identify and implement an exit strategy for the founder or shareholders including investment",,https://www.parioventures.com/,https://www.parioventures.com/,,,,,+100 best VC Funds in UK ğŸ‡¬ğŸ‡§,"UK,USA","3. Early Revenue,4. Scaling,5. Growth"
99e56888-0c4a-41c1-8822-8f4f3383adcf,Parkwalk Advisors,company,,"Finance, Financial Services, Venture Capital",,https://parkwalkadvisors.com/,https://parkwalkadvisors.com/,,,UK,UK,"VC Founds - Seed - US/Europe,+100 best VC Funds in UK ğŸ‡¬ğŸ‡§",UK,3. Early Revenue
bb216667-2ec8-48c6-9367-ae3d65bc063e,Passion Capital Management,company,,,,https://www.passioncapital.com/,https://www.passioncapital.com/,,,,,+100 best VC Funds in UK ğŸ‡¬ğŸ‡§,UK,3. Early Revenue
06c8311a-b2e8-46ba-a96b-1082e8623fb3,Piton Capital,company,,"Piton Capital is a venture capital and growth equity firm headquartered in London, United Kingdom.",,https://www.pitoncap.com/,https://www.pitoncap.com/,,,,,+100 best VC Funds in UK ğŸ‡¬ğŸ‡§,"UK,France",3. Early Revenue
48cd5e8e-459e-4ff8-a2ac-1369c9f50bce,Playfair Capital,company,,,,https://playfaircapital.com/,https://playfaircapital.com/,,,UK,UK,"European Family Offices' Founders ,Top European VCs,+100 best VC Funds in UK ğŸ‡¬ğŸ‡§",UK,"2. Prototype,3. Early Revenue"
a2284f8d-3b12-4446-8ee6-c4dbc52a3bdd,Praetura Ventures,company,,,,https://www.praeturaventures.com/,https://www.praeturaventures.com/,,,"Manchester, UK","Manchester, UK","Top European VCs,+100 best VC Funds in UK ğŸ‡¬ğŸ‡§",UK,"3. Early Revenue,4. Scaling,5. Growth"
c329588f-f0c1-418d-a851-e9509b335cee,Redline Capital,company,,"Redline Capital Management manages a Luxembourg based, regulated fund, investing in Tech companies across North America, Europe & Israel.",,https://www.redline-capital.com/,https://www.redline-capital.com/,,,,,"All VCs ,+100 best VC Funds in UK ğŸ‡¬ğŸ‡§","USA,Israel,Canada,UK",3. Early Revenue
e5aa4d88-49de-465a-8b83-5a0edfe989ea,Rivers Capital Partners,company,,,,http://www.riverscap.com/about/about-us/,http://www.riverscap.com/about/about-us/,,,,,+100 best VC Funds in UK ğŸ‡¬ğŸ‡§,UK,3. Early Revenue
22ba86af-1408-4fe5-8d8d-7b31b3369bcf,Ruffena Capital,company,,,,https://www.ruffena.co.uk/,https://www.ruffena.co.uk/,,,,,+100 best VC Funds in UK ğŸ‡¬ğŸ‡§,"USA,UK",3. Early Revenue
06df19d6-4a7c-4c2c-ab12-309bb5bf2c43,Saola Ventures,company,,,,https://www.saola.ventures/,https://www.saola.ventures/,,,,,+100 best VC Funds in UK ğŸ‡¬ğŸ‡§,"UK,USA,Germany,France",3. Early Revenue
e99a75ff-a38f-47c0-a0ee-d6c306b04028,Scottish Equity Partners,company,,,,https://www.sep.co.uk/,https://www.sep.co.uk/,,,UK,UK,"Top European VCs,+100 best VC Funds in UK ğŸ‡¬ğŸ‡§",UK,
085d7dc9-23af-4ced-8893-3ceb5825ad0b,SC Ventures Fintech Bridge by Standard Chartered,company,,,,https://fintechbridge.scventures.io/public/homepage,https://fintechbridge.scventures.io/public/homepage,,,,,+100 best VC Funds in UK ğŸ‡¬ğŸ‡§,"USA,Israel,Canada,UK",3. Early Revenue
4e5fe84f-ccad-49c1-9e70-8623488c60c4,SeedReady,company,,,,https://www.seedready.org,https://www.seedready.org,,,,,+100 best VC Funds in UK ğŸ‡¬ğŸ‡§,UK,1. Idea or Patent
f2b8004e-b41f-4218-beef-d1872ef561e7,Simsan Ventures,company,,,,https://simsan.vc,https://simsan.vc,,,"83 Baker Street, London, W1U6AG, UK","83 Baker Street, London, W1U6AG, UK","VC investing in India ,+100 best VC Funds in UK ğŸ‡¬ğŸ‡§","UK,France,Germany,Spain,Netherlands,India,South Korea,Sweden,Estonia,Switzerland,Denmark","1. Idea or Patent,2. Prototype,3. Early Revenue,4. Scaling"
8cceb7c8-4a92-4460-bcc8-5f5ab2108d30,Sova VC,company,,,,https://sova.vc/,https://sova.vc/,,,"88 Wood Street, London, EC@V 7RS, UK","88 Wood Street, London, EC@V 7RS, UK","All VCs ,Top European VCs,+100 best VC Funds in UK ğŸ‡¬ğŸ‡§","UK,Sweden,Norway,Denmark,Ireland,Estonia,Finland","3. Early Revenue,4. Scaling,5. Growth"
282e5852-f94d-4b18-978d-3e85318646ff,SuperCharger Ventures,company,,SuperCharger Ventures is a EdTech accelerator dedicated to business development.,,https://www.superchargerventures.com/,https://www.superchargerventures.com/,,,"London, UK","London, UK","VC investing in India ,+100 best VC Funds in UK ğŸ‡¬ğŸ‡§","UK,Hong Kong,USA,Singapore,India,Brazil,UAE,Finland,France,Iceland,Sweden,Switzerland,Saudi Arabia,Qatar,Canada,Belarus,Russia,Ukraine,Italy,Greece,Spain,Portugal,Belgium,Kuwait,Denmark,Czech Republic,Egypt,Kazakhstan,Japan,Vietnam,Indonesia,Laos,Mexico,Lithuania,Estonia,Latvia,Norway,Colombia,Georgia,Germany,Hungary,Israel,Ireland,Turkey,South Korea,Albania,Algeria,Argentina,Armenia,Australia,Austria,Bangladesh,Cyprus,El Salvador,Jordan,Kenya,Nigeria,Pakistan","1. Idea or Patent,2. Prototype,3. Early Revenue,4. Scaling"
f3d4b1fa-2a5a-437e-ae96-1c8f8f4cc78f,Sweet Capital,company,,"Consumer, Mobile, Venture Capital",,https://sweetcapital.com/,https://sweetcapital.com/,,,"London, UK","London, UK","VC Founds - Seed - US/Europe,+100 best VC Funds in UK ğŸ‡¬ğŸ‡§","USA,Finland,France,Germany,Sweden,UK","2. Prototype,3. Early Revenue"
178bbc77-76a4-4d0f-9a71-e6d42cf61b5d,Syncona,company,,,,https://www.synconaltd.com/,https://www.synconaltd.com/,,,,,+100 best VC Funds in UK ğŸ‡¬ğŸ‡§,UK,3. Early Revenue
f46c6211-81b5-4c96-96b5-b7ac5757e444,Talis Capital,company,,"Finance, Financial Services, FinTech, Venture Capital",,https://www.taliscapital.com,https://www.taliscapital.com,,,UK,UK,"VC Founds - Seed - US/Europe,Top European VCs,+100 best VC Funds in UK ğŸ‡¬ğŸ‡§","USA,UK,Germany,Spain,France,Norway,Denmark","3. Early Revenue,4. Scaling"
cbe42064-c8de-4c94-82c3-a56738798b73,Techstart Ventures,company,,,,https://www.techstart.vc/,https://www.techstart.vc/,,,,,+100 best VC Funds in UK ğŸ‡¬ğŸ‡§,UK,"2. Prototype,1. Idea or Patent,3. Early Revenue"
a273f4d8-c19c-46e2-b6be-6db918dfefcb,The Net Street Capital,company,,,,https://thenetstreet.com/,https://thenetstreet.com/,,,,,+100 best VC Funds in UK ğŸ‡¬ğŸ‡§,"France,Spain,Germany,Italy,UK,Israel,China,Mexico,Brazil,Chile,Ecuador,Netherlands","5. Growth,4. Scaling,3. Early Revenue"
9209ce92-8746-47e4-ad4e-c0abb55d8368,TwinklHive,company,,TwinklHive provides seed funding and supportive services to tech startups.,,https://www.twinkl.co.uk/hive,https://www.twinkl.co.uk/hive,,,,,+100 best VC Funds in UK ğŸ‡¬ğŸ‡§,"UK,USA",3. Early Revenue
9f8c312f-663f-467b-8cb9-ca534c339b47,UCL Technology Fund,company,,,,https://www.ucltf.co.uk/,https://www.ucltf.co.uk/,,,UK,UK,"Top European VCs,+100 best VC Funds in UK ğŸ‡¬ğŸ‡§",UK,3. Early Revenue
b749676e-14dc-427f-834d-8522e7ca5b45,Ufi Ventures,company,,,,https://ufi.co.uk/ufi-ventures/,https://ufi.co.uk/ufi-ventures/,,,,,+100 best VC Funds in UK ğŸ‡¬ğŸ‡§,UK,3. Early Revenue
7216e1e6-d39c-44f8-b8f1-e92a1495ff59,VentureFounders,company,,,,https://www.venturefounders.co.uk/,https://www.venturefounders.co.uk/,,,,,+100 best VC Funds in UK ğŸ‡¬ğŸ‡§,UK,3. Early Revenue
379f5e17-5a5a-4aa6-840c-4aa4ec2ed184,Vitruvian Partners,company,,"Vitruvian Partners is an equity firm that specializes in middle-market buyouts, growth buyouts, and growth capital investments.",,http://www.vitruvianpartners.com,http://www.vitruvianpartners.com,,,,,+100 best VC Funds in UK ğŸ‡¬ğŸ‡§,"Canada,Israel,UK,USA",4. Scaling
6abbaa3f-7e3c-4eb0-a7ec-ebbcb6e2578f,Vodafone Ventures,company,,"Vodafone Ventures firm specializes in investments in seed/start up, early stage, and mid stage in wireless and Internet sectors.",,https://www.vodafone.com/business/why-vodafone/vodafone-business-ventures,https://www.vodafone.com/business/why-vodafone/vodafone-business-ventures,,,,,+100 best VC Funds in UK ğŸ‡¬ğŸ‡§,"USA,Israel,Canada,UK","2. Prototype,3. Early Revenue,4. Scaling"
4cb1919f-7126-4aa5-9a7a-0fd4785bacb1,Wellcome,company,,,,https://wellcome.ac.uk/news/directors-update-taking-risks-bold-ideas,https://wellcome.ac.uk/news/directors-update-taking-risks-bold-ideas,,,,,+100 best VC Funds in UK ğŸ‡¬ğŸ‡§,"Israel,USA,Canada,UK","3. Early Revenue,4. Scaling"
977b0513-10d7-44ab-b35d-eefc1a23ec4f,Wren Capital,company,,,,https://www.wrencapital.co.uk/,https://www.wrencapital.co.uk/,,,,,+100 best VC Funds in UK ğŸ‡¬ğŸ‡§,UK,3. Early Revenue
