id,name,contactType,favoriteEmail,description,emails,favoriteUrl,urls,favoritePhone,phones,favoriteAddress,addresses,groups,Fund size,Last fund,Notable LPs
2d38a487-4fd2-46b0-a6fa-e1acb3954305,10D,company,,,,https://www.10d.vc/,https://www.10d.vc/,,,"28 HaArbaâ€™a Street. Northern Tower, 11th Floor. Tel Aviv, Israel","28 HaArbaâ€™a Street. Northern Tower, 11th Floor. Tel Aviv, Israel",Top European VCs,,,
3d74ab14-82b3-4649-a154-d89c49a42e9f,10x Founders,company,,,,,,,,ğŸ‡©ğŸ‡ª Germany,ğŸ‡©ğŸ‡ª Germany,Top European VCs,"â‚¬160,000,000",2022,
9da12e5a-1d9c-436b-82d3-b06e5a042bbd,12 Angels,company,,,,,,,,ğŸ‡®ğŸ‡± Israel,ğŸ‡®ğŸ‡± Israel,Top European VCs,,,
724ec897-b1fd-4d09-a20c-ea4bc4721e41,200M,company,,,,,,,,ğŸ‡µğŸ‡¹ Portugal,ğŸ‡µğŸ‡¹ Portugal,Top European VCs,"â‚¬200,000,000",2016,Portuguese government
aa151ba8-3b35-4fd4-bdb3-918ad59c7ee3,20VC Early,company,,,,,,,,ğŸ‡¬ğŸ‡§ UK,ğŸ‡¬ğŸ‡§ UK,Top European VCs,"â‚¬27,800,000",2021,"MIT, RIT Capital Partners, Shakil Khan, Daniel Ek"
327d7f3e-4f53-4e16-937c-c3326daefdd3,20VC Explorer,company,,,,,,,,ğŸ‡¬ğŸ‡§ UK,ğŸ‡¬ğŸ‡§ UK,Top European VCs,"â‚¬90,200,000",2021,"MIT, RIT Capital Partners, Shakil Khan, Daniel Ek"
453f039f-8565-4f83-b63a-313847f92eb6,'212,company,,,,,,,,ğŸ‡¹ğŸ‡· Turkey,ğŸ‡¹ğŸ‡· Turkey,Top European VCs,"â‚¬26,000,000",2019,
bbf8340d-ebe3-491b-9c52-9e5483e025fa,2150VC,company,,,,,,,,ğŸ‡¬ğŸ‡§ UK,ğŸ‡¬ğŸ‡§ UK,Top European VCs,"â‚¬268,000,000",2021,"Chr. Augustinus Fabrikker, Green Future Fund, Novo Holdings, NREP"
d8cf2ead-b335-4831-a8db-b46c4e6f1da0,360 Capital Partners,company,,,,,,,,ğŸ‡«ğŸ‡· France,ğŸ‡«ğŸ‡· France,Top European VCs,"â‚¬90,000,000",2020,
fa91c043-1535-407a-88d0-05065048eaf9,360CP [France],company,,,,,,,,ğŸ‡«ğŸ‡· France,ğŸ‡«ğŸ‡· France,Top European VCs,"â‚¬45,000,000",2022,
95aab685-516b-4f0b-ba2f-a881ed6294aa,3VC,company,,,,https://www.three.vc/,https://www.three.vc/,,,"Peter-Behrens-Platz 10, Linz, Austria","Peter-Behrens-Platz 10, Linz, Austria","All VCs ,Top European VCs","â‚¬150,000,000",2022,
7a1095a8-9def-43fc-aecd-aae6b6cf4eb6,468 Capital,company,,,,,,,,ğŸ‡©ğŸ‡ª Germany,ğŸ‡©ğŸ‡ª Germany,"All VCs ,Top European VCs","â‚¬354,000,000",2022,
f1735525-a316-4d8d-98f1-95f91612daff,4impact Capital,company,,,,,,,,ğŸ‡³ğŸ‡± Netherlands,ğŸ‡³ğŸ‡± Netherlands,Top European VCs,,,
cb982636-725f-422d-8b30-8a514f853f78,70 Ventures Accel,company,,,,,,,,ğŸ‡±ğŸ‡¹ Lithuania,ğŸ‡±ğŸ‡¹ Lithuania,Top European VCs,"â‚¬4,800,000",2019,Invega
b23636ed-8e8c-407c-bee7-9fc6bd394013,70 Ventures Seed,company,,,,,,,,ğŸ‡±ğŸ‡¹ Lithuania,ğŸ‡±ğŸ‡¹ Lithuania,Top European VCs,"â‚¬3,000,000",2019,Invega
37be81a0-9d23-4892-aed3-05324975eecb,7percent Ventures,company,,,,http://www.7percent.vc,http://www.7percent.vc,,,"207 Regent Street, London, United Kingdom","207 Regent Street, London, United Kingdom","All VCs ,Top European VCs","â‚¬43,000,000",2019,"British Patient Capital (BPC), Multiple Capital , Nenad Marovac"
6df29ec3-7658-4530-a0de-4e8b74701c4c,83North,company,,83North is a global venture capital firm with more than $1.8B million under management.,,https://www.83north.com/,https://www.83north.com/,,,UK,UK,"All VCs ,Top European VCs","â‚¬400,000,000",2022,
384d536a-8183-4ffe-b863-2193407823c2,ABN Amro Ventures,company,,,,,,,,ğŸ‡³ğŸ‡± Netherlands,ğŸ‡³ğŸ‡± Netherlands,Top European VCs,"â‚¬50,000,000",2020,ABN Amro
4474944b-ed53-46e7-b1e4-90a36504e6aa,Accelerated Digital Ventures,company,,,,,,,,ğŸ‡¬ğŸ‡§ UK,ğŸ‡¬ğŸ‡§ UK,Top European VCs,"â‚¬176,115,000",2016,"British Business Bank (BBB), Legal & General, Woodford Investment Management"
202f9f61-44ac-4b04-8c20-35a09041e2ae,Accel Partners,company,,,,https://www.accel.com/,https://www.accel.com/,,,"1 New Burlington Pl, Mayfair, London W1S 2HR, United Kingdom","1 New Burlington Pl, Mayfair, London W1S 2HR, United Kingdom",Top European VCs,"â‚¬510,000,000",2019,
610dcaf4-47e1-4bde-9388-2d23b54d4f93,ACE Management (Brienne),company,,,,,,,,ğŸ‡«ğŸ‡· France,ğŸ‡«ğŸ‡· France,Top European VCs,"â‚¬80,000,000",2019,"Tikehau Capital, Bpifrance, EDF Pulse Croissance, Naval Group, Sopra Steria"
952d6c6c-63ab-4cae-baa8-fe21ca873a39,ACF Investors - Delta Fund,company,,,,,,,,ğŸ‡¬ğŸ‡§ UK,ğŸ‡¬ğŸ‡§ UK,Top European VCs,"â‚¬34,200,000",2021,
cb0dedd3-6590-46ff-98fb-2c08ed51e609,Acrobator Ventures,company,,,,https://acrobator.vc/,https://acrobator.vc/,,,"Weesperplein 4A, 1018XA Amsterdam, the Netherlands","Weesperplein 4A, 1018XA Amsterdam, the Netherlands",Top European VCs,"â‚¬30,000,000",2022,"Isomer Capital, RussMedia Equity Partners, TeamGlobal, OneWay Ventures, Speedinvest."
7c00b8fd-c0f9-4ecf-9617-bf0e244c76dd,Acton Capital,company,,,,https://actoncapital.com/,https://actoncapital.com/,,,"Widenmayerstrasse 29, Munich, 80538, DE","Widenmayerstrasse 29, Munich, 80538, DE",Top European VCs,,2022,
cf444490-7eea-4df6-9c88-1f63de7293bc,Act Venture Capital,company,,,,https://www.actventure.capital,https://www.actventure.capital,,,"6 Richview Office Park, Dublin 14, Dublin 14, IE","6 Richview Office Park, Dublin 14, Dublin 14, IE","All VCs ,Top European VCs","â‚¬140,000,000",2022,"European Investment Fund (EIF), Ireland Strategic Investment Fund (ISIF), Enterprise Ireland (EI), AIB"
53775a26-c2a0-47a6-9b6a-bc21718166a7,ACT Venture Capital,company,,,,,,,,ğŸ‡®ğŸ‡ª Ireland,ğŸ‡®ğŸ‡ª Ireland,Top European VCs,,,
642f0b18-61e8-4a38-90af-f8f755166df2,Adara Ventures,company,,,,www.adara.vc,www.adara.vc,,,ğŸ‡ªğŸ‡¸ Spain,ğŸ‡ªğŸ‡¸ Spain,Top European VCs,"â‚¬65,000,000",2019,"European Investment Fund (EIF), FondICO Global, Institut CatalÃ  de Finances (ICF), Prosegur, Draper Esprit."
602aacb6-fbff-4299-869f-8182c5200045,AENU,company,,,,,,,,ğŸ‡©ğŸ‡ª Germany,ğŸ‡©ğŸ‡ª Germany,Top European VCs,"â‚¬100,000,000",2022,
72eef2da-329f-4ec8-a706-db45b06e6059,AglaÃ© Ventures,company,,AglaÃ© Ventures funds and supports passionate entrepreneurs who are committed to building transformational products and services.,,http://aglaeventures.com/,http://aglaeventures.com/,,,ğŸ‡«ğŸ‡· France,ğŸ‡«ğŸ‡· France,Top European VCs,"â‚¬40,000,000",2017,Groupe Arnault
34e72703-fef5-45dc-bdaa-4e3cb01bb187,Agrolimen Ventures,company,,,,,,,,ğŸ‡ªğŸ‡¸ Spain,ğŸ‡ªğŸ‡¸ Spain,Top European VCs,,2020,Agrolimen
c60bc4ab-c8f6-4271-8109-ae777dd738ef,Ahren,company,,,,,,,,ğŸ‡¬ğŸ‡§ UK,ğŸ‡¬ğŸ‡§ UK,Top European VCs,"â‚¬223,000,000",2019,"Sky, Aviva, Unilever, AndrÃ© Desmarais, Carlos Rodriguez-Pastor"
06d26aa4-931d-4fc2-a21c-da1967121569,AIB Start-up Accelerator,company,,,,,,,,ğŸ‡®ğŸ‡ª Ireland,ğŸ‡®ğŸ‡ª Ireland,Top European VCs,"â‚¬15,000,000",2017,Enterprise Ireland
ff7320b8-7a75-4655-86af-85b09df071b8,AIP Seed,company,,,,,,,,ğŸ‡µğŸ‡± Poland,ğŸ‡µğŸ‡± Poland,Top European VCs,"â‚¬25,000,000",2022,
0a09c962-d3f9-400b-89a6-6bceb59cbb6b,Air Street Capital,company,,,,https://www.airstreet.com/,https://www.airstreet.com/,,,UK,UK,"All VCs ,Top European VCs","â‚¬21,300,000",2020,"Twitter, Vitruvian Partners, Jeff Dean, Ilkka Paananen, David Helgason, Christoph Janz, Robin Klein, Saul Klein, Shakil Khan, Prima Materia"
71e22f24-c29a-4432-9042-a545d49ffaed,Aleph,company,,Aleph is an early-stage VC focused on partnering with Israeli entrepreneurs to build large companies and impactful global brands.,,http://aleph.vc,http://aleph.vc,,,ğŸ‡®ğŸ‡± Israel,ğŸ‡®ğŸ‡± Israel,Top European VCs,"â‚¬180,000,000",2019,
284627a2-9dbb-4edb-9527-0c8dcf897d6a,Allegion Ventures,company,,Allegion Ventures makes things that keep people and their property safe.,,https://www.allegion.com/corp/en/ventures.html,https://www.allegion.com/corp/en/ventures.html,,,"11819 N Pennsylvania St, Carmel, IN 46032","11819 N Pennsylvania St, Carmel, IN 46032","Corporate Venture Arms,Top European VCs","â‚¬40,000,000",2018,Allegion Plc
dfd72f4d-36f1-4372-9915-57e4b3478aea,Allianz X,company,allianzx@allianz.com,Allianz X is the digital investment unit of the Allianz Group that invests in digital growth companies related to insurance.,allianzx@allianz.com,https://www.allianzx.com/,https://www.allianzx.com/,,,"MÃ¼nchen, Bayern, Germany","MÃ¼nchen, Bayern, Germany","Corporate Venture Arms,Top European VCs","â‚¬570,000,000",2019,Allianz SE
6ea79211-d5c2-4b11-a0d8-4c3f7c0936c3,All Iron Ventures,company,,,,https://www.alliron.vc/,https://www.alliron.vc/,,,"Bilbao, Spain","Bilbao, Spain",Top European VCs,"â‚¬43,500,000",2020,
0aca87c7-7e01-44df-a975-34525dd9946e,Almi Invest,company,,,,https://www.almi.se/en/in-english/,https://www.almi.se/en/in-english/,,,"Stockholm, Sweden","Stockholm, Sweden",Top European VCs,"â‚¬60,000,000",2019,"Swedish Agency for Economic and Regional Growth, European Regional Development Fund"
6339dcc2-ea96-466e-a2d7-02c7be2c3eec,Alpha Intelligence Capital,company,,,,,,,,ğŸ‡±ğŸ‡º Luxemburg,ğŸ‡±ğŸ‡º Luxemburg,"All VCs ,Top European VCs","â‚¬96,000,000",2022,
8cf3ffaa-358f-4675-84d3-6a33ca4afec9,Alpine Space Ventures,company,,,,,,,,ğŸ‡©ğŸ‡ª Germany,ğŸ‡©ğŸ‡ª Germany,Top European VCs,"â‚¬100,000,000",2023,"European Investment Fund (EIF), European Recovery Programme (ERP), InvestEU, CASSINI"
fbaaf156-fd3e-4b67-a494-4204e5fd2585,Alven Capital,company,,,,,,,,ğŸ‡«ğŸ‡· France,ğŸ‡«ğŸ‡· France,Top European VCs,"â‚¬350,000,000",2022,
3b8320e4-a7a8-4ad6-8df2-1ef4ccf566a0,Amadeus Apex,company,,,,,,,,ğŸ‡¬ğŸ‡§ UK,ğŸ‡¬ğŸ‡§ UK,Top European VCs,"â‚¬28,000,000",2023,
1e6c9b5b-1516-4264-84d3-a3d45690ca8f,Amadeus Capital Partners,company,,"Amadeus Capital Partners caters to the technology sector with seed, early, and later stage venture, and private equity investments.",,https://www.amadeuscapital.com/,https://www.amadeuscapital.com/,,,UK,UK,"All VCs ,Top European VCs","â‚¬125,000,000",2021,British Patient Capital (BPC)
575c75b7-10ba-4dd0-b342-93bcff23ad54,Amaranthine,company,,,,https://amaranthine.com/,https://amaranthine.com/,,,ğŸ‡®ğŸ‡ª Ireland,ğŸ‡®ğŸ‡ª Ireland,Top European VCs,"â‚¬20,000,000",2022,"Molten Ventures, Sarah Friar"
0497953f-afd4-4ae6-8c9e-9fedd488c4db,AMAVI Capital,company,,,,,,,,ğŸ‡§ğŸ‡ª Belgium,ğŸ‡§ğŸ‡ª Belgium,Top European VCs,"â‚¬30,000,000",2021,
a1b9c356-ff4c-42e0-831e-6e3c9e71eb5a,Anamcara,company,,,,,,,,ğŸ‡¬ğŸ‡§ UK,ğŸ‡¬ğŸ‡§ UK,Top European VCs,"â‚¬9,800,000",2023,
8a2eac4d-1b39-4274-8f87-4403d78c3d91,Ananda Impact Ventures,company,,,,https://ananda.vc/,https://ananda.vc/,,,Germany,Germany,Top European VCs,"â‚¬108,000,000",2021,"European Investment Fund (EIF), KfW Capital, Investcorp-Tag, Candriam"
ba438676-e1a5-4eda-807c-e74ae445a3bd,AnD Ventures,company,,,,https://www.and-ventures.com/,https://www.and-ventures.com/,,,"Arik Einstein St 3, Herzliya, Israel","Arik Einstein St 3, Herzliya, Israel",Top European VCs,"â‚¬65,000,000",2023,
89cdd323-1eb5-4ee3-969c-faf7ba8dd4d6,Angel Invest,company,,,,https://angelinvest.ventures,https://angelinvest.ventures,,,"Berlin, Germany","Berlin, Germany","All VCs ,Top European VCs","â‚¬5,000,000",2018,
f0c3235b-15ca-41c9-851c-6e0aedf85dfa,Anterra Capital,company,,,,http://www.anterracapital.com/#about,http://www.anterracapital.com/#about,,,Netherlands,Netherlands,"All VCs ,Top European VCs","â‚¬150,000,000",2021,"Eight Roads Ventures, Rabo Investments, Novo Holdings, Tattarang"
b5eb3c1b-bcfc-41da-9e48-53f89ef3dc74,Anthemis Group,company,,,,http://anthemis.com,http://anthemis.com,,,ğŸ‡¨ğŸ‡­ Switzerland,ğŸ‡¨ğŸ‡­ Switzerland,"All VCs ,Top European VCs","â‚¬95,000,000",2016,"European Investment Fund (EIF), Unicredit, Legal & General, Aviva"
2ca94ef4-c425-478f-858f-d7f8d462f4d3,Anthemis Insurance Venture Growth,company,,,,,,,,ğŸ‡¨ğŸ‡­ Switzerland,ğŸ‡¨ğŸ‡­ Switzerland,Top European VCs,"â‚¬82,000,000",2020,"Aflac Global Ventures, Sumitomo Life, NÃ¼rnberger"
fdda7a77-dd74-4b25-845d-43589ef9f308,Antler Nordics,company,,,,,,,,ğŸ‡¸ğŸ‡ª Sweden,ğŸ‡¸ğŸ‡ª Sweden,Top European VCs,"â‚¬30,000,000",2021,"VÃ¦kstfonden, Investinor, Draper Esprit, Kistefos AS"
7e21d9a3-8033-4803-8026-4cfee208dcdc,A/O ProPtech,company,,,,,,,,ğŸ‡¬ğŸ‡§ UK,ğŸ‡¬ğŸ‡§ UK,Top European VCs,"â‚¬250,000,000",2020,
4b249e40-548c-4864-89c6-99e62d0c9c8f,APX,company,,,,https://apx.vc/,https://apx.vc/,,,"ZimmerstraÃŸe 50, 10969 Berlin, Germany","ZimmerstraÃŸe 50, 10969 Berlin, Germany",Top European VCs,"â‚¬55,000,000",2021,"Porsche, Axel Springer"
3a44c8b3-11df-46ea-9c82-c874b3ca7145,Aristagora,company,,,,https://aristagoravc.com/,https://aristagoravc.com/,,,ğŸ‡®ğŸ‡± Israel,ğŸ‡®ğŸ‡± Israel,Top European VCs,"â‚¬51,500,000",2020,
f3a33ad4-f7bc-4271-92d8-296aa2bfbd1d,Armilar NOS 5G,company,,,,,,,,ğŸ‡µğŸ‡¹ Portugal,ğŸ‡µğŸ‡¹ Portugal,Top European VCs,"â‚¬10,000,000",2020,NOS
9ea73fac-ea98-4738-914e-e9bc1d375ff5,Armilar Venture Partners,company,,,,https://www.armilar.com/en/,https://www.armilar.com/en/,,,Portugal,Portugal,Top European VCs,,,
853be46d-944e-4170-8ecb-9e7e6b35fb28,Astanor Ventures,company,,,,astanor.com,astanor.com,,,ğŸ‡§ğŸ‡ª Belgium,ğŸ‡§ğŸ‡ª Belgium,"All VCs ,Top European VCs","â‚¬275,000,000",2020,European Investment Fund (EIF)
40c3f9ef-ac64-493a-b84d-d482fafca106,A&T Capital,company,,,,,,,,ğŸ‡©ğŸ‡ª Germany,ğŸ‡©ğŸ‡ª Germany,Top European VCs,,2021,Ant Group
131626da-97ff-49cb-acf2-3a1b3c420105,Atlantic Bridge Capital,company,,,,,,,,ğŸ‡®ğŸ‡ª Ireland,ğŸ‡®ğŸ‡ª Ireland,Top European VCs,"â‚¬140,000,000",2016,"Ireland Strategic Investment Fund (ISIF), Enterprise Ireland (EI), EIF, British Business Bank"
d719a470-659f-4f36-974e-8cc557c2072b,Atlantic Foodlabs,company,,,,,,,,ğŸ‡©ğŸ‡ª Germany,ğŸ‡©ğŸ‡ª Germany,Top European VCs,"â‚¬100,000,000",2021,European Investment Fund (EIF)
e733fb8a-aefa-4c5c-92bf-18f10320b806,Atomico,company,,Atomico is an international investment firm that focuses on helping disruptive technology companies scale globally.,,https://www.atomico.com/,https://www.atomico.com/,,,"29 Rathbone Street, London, England W1T 1NJ, GB","29 Rathbone Street, London, England W1T 1NJ, GB","All VCs ,Top European VCs","â‚¬750,000,000",2020,"European Investment Fund (EIF), AP3, Founders of Adyen, Klarna, Transferwise, Spotify, Skype, Supercell and Zoopla"
3c732bb2-e9bb-4061-b08a-d0142e9827a1,Auxxo,company,,,,,,,,ğŸ‡©ğŸ‡ª Germany,ğŸ‡©ğŸ‡ª Germany,Top European VCs,"â‚¬12,000,000",2021,
f66461b5-db92-4eff-835e-fbda9b275359,AV8 Ventures,company,,,,,,,,ğŸ‡¬ğŸ‡§ UK,ğŸ‡¬ğŸ‡§ UK,"All VCs ,Seed & Series A US VC's ,Top European VCs","â‚¬150,000,000",2019,Allianz
2ad4a631-bfff-4618-aae3-2a215f1741f1,Aviva Ventures,company,,,,,,,,ğŸ‡¬ğŸ‡§ UK,ğŸ‡¬ğŸ‡§ UK,Top European VCs,"â‚¬175,000,000",2023,Aviva
2fc0ba30-fbf2-4aeb-8302-1a4fff22bc43,AXA Venture Partners,company,,,,https://www.axavp.com/,https://www.axavp.com/,,,"Copenhagen, Denmark","Copenhagen, Denmark","All VCs ,Top European VCs","â‚¬130,000,000",2019,AXA Group
4b0493db-2d23-47f8-bef2-800bb988a8cb,AXA Venture Partners [growth],company,,,,,,,,ğŸ‡«ğŸ‡· France,ğŸ‡«ğŸ‡· France,Top European VCs,"â‚¬250,000,000",2021,
bd72fbb2-7af9-4644-84b9-d8f314bc1319,Axeleo Proptech,company,,,,,,,,ğŸ‡«ğŸ‡· France,ğŸ‡«ğŸ‡· France,Top European VCs,"â‚¬35,000,000",2020,"Banque des Territoires, RTE, Vinci Energies, Allianz France, Groupe VYV, Ãle-de-France Region"
29675662-0577-49f6-b6e3-8174d44c17e9,Backed,company,,,,,,,,ğŸ‡¬ğŸ‡§ UK,ğŸ‡¬ğŸ‡§ UK,Top European VCs,"â‚¬75,000,000",2022,"Groupe Bruxelles Lambert, Wilshire Associates"
5e42a880-3cc3-49d6-93be-0a75a6c1c24a,Backed.vc,company,,,,,,,,ğŸ‡¬ğŸ‡§ UK,ğŸ‡¬ğŸ‡§ UK,Top European VCs,"â‚¬30,000,000",2016,
bc5fefd1-1293-4c6d-a1d9-c37e169de49b,Backingminds,company,,,,,,,,ğŸ‡¸ğŸ‡ª Sweden,ğŸ‡¸ğŸ‡ª Sweden,Top European VCs,"â‚¬49,150,000",2021,"lkka Paananen, Persson family, Martin Lorentzon, EQT, Nordic Capital, Thomas Hartwig, Robert Gerstmann, Kristian Mannik, Olsson family"
931a1d9b-80fa-40f6-a8bf-b8706a511cd8,Balderton Capital,company,,Balderton Capital is a venture capital investor that supports technology businesses.,,balderton.com,balderton.com,,,UK,UK,"All VCs ,Top European VCs","â‚¬530,000,000",2021,
b5dee0c8-41d1-4518-908e-59f00c4e9910,Balderton Growth,company,,,,,,,,ğŸ‡¬ğŸ‡§ UK,ğŸ‡¬ğŸ‡§ UK,Top European VCs,"â‚¬575,000,000",2021,
49139866-3267-4c76-a221-914aa46fc15a,Baltic Sandbox Ventures,company,,Baltic Sandbox Ventures is a venture capital business that only invests in early-stage deep technology and life science solutions.,,https://balticsandbox.ventures/,https://balticsandbox.ventures/,,,ğŸ‡±ğŸ‡¹ Lithuania,ğŸ‡±ğŸ‡¹ Lithuania,Top European VCs,"â‚¬10,000,000",2022,"INVEGA, Vytautas KaÅ¡Ä—ta, Pijus MakareviÄius"
44233166-7d59-44c9-9861-e34b2d3e8391,Barcamper Ventures,company,,,,,,,,ğŸ‡®ğŸ‡¹ Italy,ğŸ‡®ğŸ‡¹ Italy,Top European VCs,"â‚¬30,000,000",2016,"Fondo Italiano dâ€™Investimento, Banca Sella Holding, Unindustria Bologna, Fondazione Puglia, SocietÃ  Reale Mutua di Assicurazioni"
ef903efe-5c67-43b1-8009-35eca012c1cb,Basinghall Partners,company,,,,https://www.basinghallpartners.com/,https://www.basinghallpartners.com/,,,ğŸ‡¬ğŸ‡§ UK,ğŸ‡¬ğŸ‡§ UK,Top European VCs,"â‚¬100,000,000",2019,
7d07eaaf-21c1-4af0-8ae3-13789d498898,BayernKapital,company,,,,https://bayernkapital.de/,https://bayernkapital.de/,,,ğŸ‡©ğŸ‡ª Germany,ğŸ‡©ğŸ‡ª Germany,Top European VCs,"â‚¬115,000,000",2020,LfA FÃ¶rderbank Bayern
27e86c32-8af0-4140-b25f-08862d347582,BeAble,company,,,,,,,,ğŸ‡ªğŸ‡¸ Spain,ğŸ‡ªğŸ‡¸ Spain,Top European VCs,"â‚¬50,000,000",2023,"CDTI/Innvierte, BBVA"
a2ecc109-90fc-4029-882f-901932122242,Behold Ventures,company,,,,,,,,ğŸ‡¸ğŸ‡ª Sweden,ğŸ‡¸ğŸ‡ª Sweden,Top European VCs,,,
1e8e49b9-9278-401b-b3c5-e90ee30d23bc,Benson Oak Ventures,company,,,,http://bensonoakventures.com,http://bensonoakventures.com,,,ğŸ‡®ğŸ‡± Israel,ğŸ‡®ğŸ‡± Israel,Top European VCs,"â‚¬20,000,000",2018,Benson Oak
9038ea38-89df-43c4-adb9-67bd01efdb73,Beringea ProVen VCT,company,,,,https://provenvcts.co.uk/,https://provenvcts.co.uk/,,,ğŸ‡¬ğŸ‡§ UK,ğŸ‡¬ğŸ‡§ UK,Top European VCs,,,
04cfc8f6-1b9c-4021-81e7-50d16f95c4a8,Bethnal Green Ventures,company,,Bethnal Green Ventures (BGV) is Europeâ€™s leading early stage tech for good VC.,,https://bethnalgreenventures.com/apply,https://bethnalgreenventures.com/apply,,,ğŸ‡¬ğŸ‡§ UK,ğŸ‡¬ğŸ‡§ UK,"All VCs ,Top European VCs","â‚¬1,500,000",2017,"Big Society Capital, Nominet Trust, Nesta"
ca046eb6-1dfd-44e3-933e-45b23b6f744b,Beyond Capital,company,,,,,,,,ğŸ‡©ğŸ‡ª Germany,ğŸ‡©ğŸ‡ª Germany,Top European VCs,"â‚¬21,500,000",2023,"founders from large scaleups such as Personio, Kry, Stripe, Coinbase and WhatsApp"
d20bb5a6-3bb4-490a-b7c3-323354de975b,BITKRAFT Esports Ventures,company,,,,,,,,ğŸ‡©ğŸ‡ª Germany,ğŸ‡©ğŸ‡ª Germany,Top European VCs,"â‚¬140,000,000",2020,"Adidas, Declaration Partners, Logitech, Carolwood, JS Capital"
3065b51a-c055-4df2-a2bf-1dc551ba6f10,BitStone Capital,company,,,,https://www.bitstonecapital.com/,https://www.bitstonecapital.com/,,,ğŸ‡©ğŸ‡ª Germany,ğŸ‡©ğŸ‡ª Germany,Top European VCs,,2020,"Goldbeck, GC Group, Zech Group, Art-Invest Real Estate, FMC Real Tech, the Knauf family, Landmarken AG, Deutsche Reihenhaus, Jan Bettink, Alexander Hesse, JÃ¼rgen Probst, Mario Caroli"
4c333c4c-a6ad-4c88-b674-bd786988b064,Blackfinch Spring VCT,company,,,,,,,,ğŸ‡¬ğŸ‡§ UK,ğŸ‡¬ğŸ‡§ UK,Top European VCs,"â‚¬3,500,000",2020,
599eed97-ce80-4ada-8298-4bd415f44e60,Blackfin Tech Fund,company,,,,,,,,ğŸ‡«ğŸ‡· France,ğŸ‡«ğŸ‡· France,Top European VCs,,,
62d2a45d-8823-4e7c-b424-917a810a36ca,BlackFin Tech Fund,company,,,,,,,,ğŸ‡«ğŸ‡· France,ğŸ‡«ğŸ‡· France,Top European VCs,"â‚¬350,000,000",2022,
8f99905e-72a7-439d-b1a2-366d4e2f42c2,Black Seed,company,,,,,,,,ğŸ‡¬ğŸ‡§ UK,ğŸ‡¬ğŸ‡§ UK,Top European VCs,"â‚¬6,650,000",2022,
55d7def0-90b6-4886-a0a9-be3cd9551279,BlackSheep Ventures,company,,,,,,,,ğŸ‡®ğŸ‡¹ Italy,ğŸ‡®ğŸ‡¹ Italy,Top European VCs,"â‚¬40,000,000",2021,CdP Venture Capital SGR
bd4ea525-12bd-487b-ba05-959d83e66ab4,Black Swan Fund,company,,,,,,,,ğŸ‡µğŸ‡± Poland,ğŸ‡µğŸ‡± Poland,Top European VCs,"â‚¬6,500,000",2018,PFR Ventures
4098151f-66e4-4f7b-820c-ed134a8e1d99,Blisce,company,,Blisce is an investment firm co-headquartered in Paris and New York.,,http://blisce.com,http://blisce.com,,,ğŸ‡«ğŸ‡· France,ğŸ‡«ğŸ‡· France,"All VCs ,Top European VCs","â‚¬232,000,000",2023,"Bpifrance, SWEN Capital Partners, Seb Group, BNP Paribas Cardif, L'OreÌal Group"
3e37095a-af4e-4f00-b81e-0dbc401471e2,Blockchain Founders Capital,company,,Blockchain Founders Capital is a venture capital firm investing in early-stage companies.,,https://www.bfc.vc,https://www.bfc.vc,,,ğŸ‡©ğŸ‡ª Germany,ğŸ‡©ğŸ‡ª Germany,Top European VCs,"â‚¬15,000,000",2023,
9304bf46-cdab-4d18-8569-a887f6aa0810,Bloc Ventures,company,,,,https://www.blocventures.com/,https://www.blocventures.com/,,,London,London,Top European VCs,"â‚¬24,000,000",2020,"IPGL, Warren East, Christopher Miller, Gavyn Davies, Stuart Roden, Stephen Catlin"
1d29af8d-79b3-49e9-86a1-5d8c22844203,Blossom Capital,company,,Blossom Capital is a Series A venture capital firm that invests in European founders building global businesses.,,https://www.blossomcap.com/,https://www.blossomcap.com/,,,"27 Bush Lane, London, England GB","27 Bush Lane, London, England GB","All VCs ,Top European VCs","â‚¬380,000,000",2022,
77e57305-a68a-4c2c-af02-0ffb022e013a,Blq Invest,company,,,,https://blqinvest.com/,https://blqinvest.com/,,,ğŸ‡¸ğŸ‡ª Sweden,ğŸ‡¸ğŸ‡ª Sweden,Top European VCs,"â‚¬20,000,000",2020,"SEB, Lena Apler, Lars Backsell and Noel Abdayem"
3450071d-62a2-4df4-a142-fe06b56cc090,Blue Horizon Ventures,company,,,,http://bluehorizon.com,http://bluehorizon.com,,,ğŸ‡¨ğŸ‡­ Switzerland,ğŸ‡¨ğŸ‡­ Switzerland,Top European VCs,"â‚¬183,000,000",2019,"European Investment Fund (EIF), Wire Groupâ€™s Private Markets Funds, Givaudan"
558f559f-e0e2-40c5-b451-c406a0eab042,Blue Ocean (SWEN),company,,,,,,,,ğŸ‡«ğŸ‡· France,ğŸ‡«ğŸ‡· France,Top European VCs,"â‚¬150,000,000",2021,"MACIF, MAIF, CrÃ©dit Mutuel ArkÃ©a, Bpifrance, Builders Vision, Ferd, the Planet Ocean Fund, Ifremer"
0036b951-d380-4a47-9dee-49205e17c03f,BlueYard Crypto,company,,,,,,,,ğŸ‡©ğŸ‡ª Germany,ğŸ‡©ğŸ‡ª Germany,Top European VCs,"â‚¬61,300,000",2021,
7e217e18-cff0-446f-8380-f11a15aa79e0,Bold Business Opportunities for Lâ€™OrÃ©al Development,company,,,,,,,,ğŸ‡«ğŸ‡· France,ğŸ‡«ğŸ‡· France,Top European VCs,,2018,L'Oreal
301f43c9-e65b-4acd-a57a-721879726596,Bolsa Social Impacto,company,,,,https://bolsasocial.com/,https://bolsasocial.com/,,,ğŸ‡ªğŸ‡¸ Spain,ğŸ‡ªğŸ‡¸ Spain,Top European VCs,"â‚¬10,000,000",2020,
3899b4d6-31b7-4d07-844b-59a9bb9c72f6,BonVenture,company,,,,https://bonventure.de/,https://bonventure.de/,,,ğŸ‡©ğŸ‡ª Germany,ğŸ‡©ğŸ‡ª Germany,Top European VCs,"â‚¬20,000,000",2020,
1259b7c2-e17a-4d03-8653-df70b5ed3019,Borski Fund,company,,,,https://borskifund.com/,https://borskifund.com/,,,ğŸ‡³ğŸ‡± Netherlands,ğŸ‡³ğŸ‡± Netherlands,Top European VCs,"â‚¬21,000,000",2019,"ABN Amro, ING, Rabobank, Van Lanschot"
6c69253c-463f-4530-a384-30b336ed55cd,Breega,company,,Breega is a European venture capital fund designed to finance startups in the digital economy.,,https://www.breega.com/,https://www.breega.com/,,,"France,Spain,UK,Portugal,Germany,Belgium,Switzerland","France,Spain,UK,Portugal,Germany,Belgium,Switzerland",Top European VCs,"â‚¬250,000,000",2022,"European Investment Fund (EIF), Bpifrance, Group CrÃ©dit Agricole, Amundi, LCL, Isomer Capital"
a0dd490d-d3b8-4e2b-9f96-0a7ee415c3f1,Breega Capital,company,,,,,,,,ğŸ‡«ğŸ‡· France,ğŸ‡«ğŸ‡· France,Top European VCs,"â‚¬110,000,000",2019,"European Investment Fund (EIF), Isomer Capital, BPI France"
dd25a560-9633-4694-ac85-8ed33b72f1aa,Brighteye Ventures,company,,,,https://www.brighteyevc.com/,https://www.brighteyevc.com/,,,"France,UK,Spain,Portugal,Italy,Andorra,Germany,Ireland,Switzerland,Sweden,Austria,Czech Republic,Denmark,Norway,Lithuania,Netherlands,Belgium,USA,Poland,Finland,Israel,Slovenia,Slovakia,Ukraine,Romania,Greece,Croatia,Latvia,Estonia,Iceland,Luxembourg,Malta,Monaco,Montenegro,Bulgaria,Bosnia-H,Liechtenstein,North Macedonia","France,UK,Spain,Portugal,Italy,Andorra,Germany,Ireland,Switzerland,Sweden,Austria,Czech Republic,Denmark,Norway,Lithuania,Netherlands,Belgium,USA,Poland,Finland,Israel,Slovenia,Slovakia,Ukraine,Romania,Greece,Croatia,Latvia,Estonia,Iceland,Luxembourg,Malta,Monaco,Montenegro,Bulgaria,Bosnia-H,Liechtenstein,North Macedonia",Top European VCs,"â‚¬46,000,000",2020,
2538b6b4-f3ce-4c7f-8c7a-4d0d738633f8,Brightlands VentureÂ Partners,company,,,,,,,,ğŸ‡³ğŸ‡± Netherlands,ğŸ‡³ğŸ‡± Netherlands,Top European VCs,,,
8a7b3e91-e183-48d5-8e18-1a95f42b95e3,Brilliance Ventures,company,,"Brilliance Ventures is a Venture Capital fund, which invests in core technology in growth stages.",,https://brillianceventures.com/,https://brillianceventures.com/,,,ğŸ‡®ğŸ‡± Israel,ğŸ‡®ğŸ‡± Israel,Top European VCs,"â‚¬18,500,000",2020,
e0c9e57f-4897-47d5-a37d-9f2876aa2c17,Brunnur Ventures,company,,,,,,,,ğŸ‡®ğŸ‡¸ Iceland,ğŸ‡®ğŸ‡¸ Iceland,Top European VCs,"â‚¬54,000,000",2021,Landsbanki
adede2bb-29ff-476a-be21-ec3e9702bc12,btov Industrial Technologies Fund,company,,,,,,,,ğŸ‡©ğŸ‡ª Germany,ğŸ‡©ğŸ‡ª Germany,Top European VCs,"â‚¬100,000,000",2018,"European Investment Fund (EIF), LfA FÃ¶rderbank Bayern, NRW Bank"
dbd70a96-8e8a-4924-be02-0018a64d3959,Bullnet Capital,company,,,,http://www.bullnetcapital.com/,http://www.bullnetcapital.com/,,,Spain,Spain,Top European VCs,"â‚¬40,000,000",2023,"Centro para el Desarrollo TecnolÃ³gico Industrial (CDTI), Bruno Entrecanales"
c4ce0159-e2b2-434f-9204-c1c5530815c0,Butterfly Venture,company,,,,,,,,ğŸ‡«ğŸ‡® Finland,ğŸ‡«ğŸ‡® Finland,Top European VCs,"â‚¬13,000,000",2017,"Tekes Venture Capital Ltd, Elo Mutual Pension Insurance Company, Fennia Mutual Insurance Company, Tradeka-invest Ltd, AI- Partners Ltd, LocalTapiola Pohjoinen Mutual Insurance Company, Gerako Ltd."
1f0d2baf-c22a-4d2a-9a42-cc773797039a,Butterfly Ventures,company,,,,https://butterfly.vc/about-us/,https://butterfly.vc/about-us/,,,Finland,Finland,Top European VCs,"â‚¬47,000,000",2022,"Tesi, Saminvest AB"
5b59a701-f565-45bc-a2f7-5cbd5cb93d3d,bValue,company,,,,,,,,ğŸ‡µğŸ‡± Poland,ğŸ‡µğŸ‡± Poland,Top European VCs,"â‚¬72,000,000",2022,European Investment Fund (EIF)
b18fc968-0d96-4338-91fb-8bce5b9cc500,byFounders,company,,,,,,,,ğŸ‡©ğŸ‡° Denmark,ğŸ‡©ğŸ‡° Denmark,"All VCs ,Top European VCs","â‚¬100,000,000",2017,"VÃ¦kstfonden, founders of Skype, Zendesk, Kahoot, Unity, Tradeshift, Sitecore, Vivino, Danish Growth Fund, Isomer Capital, Draper Esprit, Digital Garage, Danske Bank"
c2b4594d-0ace-428c-b565-8d69977dadc0,Bynd Venture Capital,company,,,,https://www.bynd.vc/en,https://www.bynd.vc/en,,,ğŸ‡µğŸ‡¹ Portugal,ğŸ‡µğŸ‡¹ Portugal,Top European VCs,"â‚¬10,000,000",2019,
84ded03a-7154-441c-bd04-1795e06e6893,Caesar Ventures,company,,,,,,,,ğŸ‡©ğŸ‡ª Germany,ğŸ‡©ğŸ‡ª Germany,Top European VCs,"â‚¬80,000,000",2023,"Oliver Merkel, Jessica Holzbach, Martina Pfeifer, Prof. Dr. Andreas Pfeifer"
fe308afe-8b5f-4ac9-8646-796561cea3c5,Cambridge Innovation Capital plc,company,,,,,,,,ğŸ‡¬ğŸ‡§ UK,ğŸ‡¬ğŸ‡§ UK,Top European VCs,"â‚¬175,000,000",2019,University of Cambridge and Cambridge University Endowment Fund
878826a0-5588-47dd-84bf-f4af77670c9f,Capagro,company,,,,capagro.fr,capagro.fr,,,ğŸ‡«ğŸ‡· France,ğŸ‡«ğŸ‡· France,Top European VCs,"â‚¬200,000,000",2022,"Avril Group, LSDH, Terrena, Bel Group, CrÃ©dit Agricole Group (IDIA), Bpifrance, Euralis"
26a03da6-ed54-48af-a32c-a15d557654f2,Capdecisif,company,,,,,,,,ğŸ‡«ğŸ‡· France,ğŸ‡«ğŸ‡· France,Top European VCs,"â‚¬40,000,000",2018,"Bpifrance, Lâ€™Occitane, Philips, Vivalto, Pradeyrol Developpement, BNP Paribas, Caisse dâ€™Epargne dâ€™Ile-de-France"
dae73222-1072-48a9-a89b-77b932d6d596,Caphorn Invest,company,,,,,,,,ğŸ‡«ğŸ‡· France,ğŸ‡«ğŸ‡· France,Top European VCs,"â‚¬130,000,000",2016,"European Investment Fund (EIF), Bpifrance, Econocom VP France VÃ©ronique Di Benedetto, Chantal Baudron, SFR board member Bernard Attali, former Truffaut CEO Bruno Lanthier, former Danone COO Jacques Vincent and Qosmos CEO Thibaut Bechetoille"
999531ce-a1a8-47d6-8f24-a22408d18a3c,CapHorn Invest,company,,CapHorn Invest is a French VC firm investing in B2B digital companies.,,https://caphorn.vc/,https://caphorn.vc/,,,ğŸ‡«ğŸ‡· France,ğŸ‡«ğŸ‡· France,Top European VCs,"â‚¬100,000,000",2016,European Investment Fund (EIF)
3b3bdb7d-114b-427f-a3d8-37c2c155e6d5,Capital Energy Quantum,company,,Capital Energy Quantum are into promotion of wind & photovoltaic energy and also renewable energy.,,https://capitalenergy-quantum.com/,https://capitalenergy-quantum.com/,,,"Torre Serrano C/ MarquÃ©s de Villamagna 3 , Madrid, Spain","Torre Serrano C/ MarquÃ©s de Villamagna 3 , Madrid, Spain",Top European VCs,"â‚¬20,000,000",2020,Capital Energy
f486cda8-39bb-49dc-8ce9-0d325f27a76f,CapitalT,company,,,,,,,,ğŸ‡³ğŸ‡± Netherlands,ğŸ‡³ğŸ‡± Netherlands,Top European VCs,"â‚¬40,000,000",2020,"Founders of TomTom, Booking and Adyen"
ed140180-d19d-44ff-b563-cf9ee3dcfa8a,Capnamic,company,,,,https://capnamic.com/,https://capnamic.com/,,,"Kaiser-Wilhelm-Ring 26, Cologne, NRW 50672, DE","Kaiser-Wilhelm-Ring 26, Cologne, NRW 50672, DE","All VCs ,Top European VCs","â‚¬190,000,000",2022,"Evonik, Neue ZÃ¼rcher Zeitung, Fressnapf, Sparkassen Finanzgruppe, Rheinische Post, CEWE, JÃ¶rg Gerbig, Dirk Graber, Verena Pausder"
d6cb8cb5-4c45-4809-ab41-bd60516e5d17,Capnamic Ventures,company,,,,http://www.capnamic.de/,http://www.capnamic.de/,,,ğŸ‡©ğŸ‡ª Germany,ğŸ‡©ğŸ‡ª Germany,Top European VCs,"â‚¬115,000,000",2017,"European Investment Fund (EIF), Formuesforvaltning, AXA, Cisco, Sparkassen Group, Rheinische Post Media Group, KfW, NRW.Bank"
2357cda1-a14c-42ba-9d8b-e88b452e88b0,Capricorn Venture Partners,company,,,,https://capricorn.be/,https://capricorn.be/,,,ğŸ‡§ğŸ‡ª Belgium,ğŸ‡§ğŸ‡ª Belgium,Top European VCs,"â‚¬50,000,000",2019,"Quest for Growth, PMV (ParticipatieMaatschappij Vlaanderen), FPIM (Federale Participatie en Investeringsmaatschappij), AG Insurance, KULeuven"
2fa21633-0c17-4eb1-8dde-9ec748a91fd6,Cardumen Capital,company,,,,https://www.cardumencapital.com/,https://www.cardumencapital.com/,,,"NÃºÃ±ez de Balboa, 120, 6-Dcha, 28006 Madrid, Madrid, Madrid 28010, ES","NÃºÃ±ez de Balboa, 120, 6-Dcha, 28006 Madrid, Madrid, Madrid 28010, ES","All VCs ,Top European VCs","â‚¬56,000,000",2018,"Banco Sabadell (InnoCell), Repsol"
f6bd2116-a49c-42f9-95b1-747f618a75bc,Catalyst Romania,company,,,,http://catalystromania.com/,http://catalystromania.com/,,,ğŸ‡·ğŸ‡´ Romania,ğŸ‡·ğŸ‡´ Romania,Top European VCs,"â‚¬40,000,000",2019,European Investment Fund (EIF)
50842788-cf8a-4c97-b7cf-2afc56adfd0c,Cathay Innovation,company,,Cathay Innovation is a global multi-stage venture capital firm investing in startups impacting the world.,,https://cathayinnovation.com/,https://cathayinnovation.com/,,,ğŸ‡«ğŸ‡· France,ğŸ‡«ğŸ‡· France,Top European VCs,"â‚¬1,000,000,000",2022,"Sanofi, Total Energies, Valeo, BNP Paribas Cardif, Groupe SEB, ADP, CMA CGM"
111a93a2-ccea-4b0b-8a8b-4e1468e34b1c,Cavalry Ventures,company,,Cavalry Ventures is a Berlin-based pre-seed and seed venture capital investor.,,https://cavalry.vc/,https://cavalry.vc/,,,"NovalisstraÃŸe 12, Berlin, Berlin 10115, Germany","NovalisstraÃŸe 12, Berlin, Berlin 10115, Germany",Top European VCs,"â‚¬100,000,000",2022,
e15e6476-e964-4d55-a8be-754c59c40a28,Centrica Innovations,company,,Centrica Innovations is a global innovation group investing and partnering with startups that are transforming energy.,,https://www.centrica.com/centrica-innovations,https://www.centrica.com/centrica-innovations,,,Centrica plc Millstream Maidenhead Road Windsor Berkshire SL4 5GD,Centrica plc Millstream Maidenhead Road Windsor Berkshire SL4 5GD,"Corporate Venture Arms,Top European VCs","â‚¬117,375,000",2017,Centrica Plc
76056a7d-2ad4-44bf-aae9-6a51b4705a00,Champel Capital,company,,,,https://champelcapital.com/,https://champelcapital.com/,,,ğŸ‡®ğŸ‡± Israel,ğŸ‡®ğŸ‡± Israel,Top European VCs,"â‚¬28,000,000",2022,
1db543b0-fa9c-4a81-8680-2ceb61cf701e,Change Ventures,company,,,,https://www.changeventures.com/,https://www.changeventures.com/,,,"Sepise 9, Tallinn, Estonia","Sepise 9, Tallinn, Estonia","All VCs ,Top European VCs","â‚¬20,000,000",2023,
b55bd84f-ebbd-4d41-ad58-2d6f17576ac5,Check24 Ventures,company,,,,https://check24.vc,https://check24.vc,,,"Frankfurt, Hessen, Germany","Frankfurt, Hessen, Germany",Top European VCs,"â‚¬60,000,000",2016,Check24
0ec45d4e-f6b2-4681-adcb-e02cb20ec1fc,Cherry Crypto,company,,,,,,,,ğŸ‡©ğŸ‡ª Germany,ğŸ‡©ğŸ‡ª Germany,Top European VCs,"â‚¬30,000,000",2022,
4f0725cf-7b20-4d9e-991c-4d763714e8f6,Cherry Ventures,company,,,,https://www.cherry.vc/,https://www.cherry.vc/,,,"Linienstrasse 165, Berlin, BE 10115, DE","Linienstrasse 165, Berlin, BE 10115, DE","All VCs ,Top European VCs","â‚¬300,000,000",2022,
dbf18624-1e6d-4eb6-8f17-c63b4ee14d6f,Claret Capital Partners,company,,,,https://www.claret-capital.com/,https://www.claret-capital.com/,,,ğŸ‡¬ğŸ‡§ UK,ğŸ‡¬ğŸ‡§ UK,Top European VCs,"â‚¬72,000,000",2023,
4ab9ac7f-9799-47e6-9379-a35a072bd5e7,Clave Capital,company,,,,,,,,ğŸ‡ªğŸ‡¸ Spain,ğŸ‡ªğŸ‡¸ Spain,Top European VCs,"â‚¬80,000,000",2022,CDTI
6a408325-8fb3-423f-a92c-1fffc545994b,Climentum Capital,company,,,,,,,,ğŸ‡©ğŸ‡° Denmark,ğŸ‡©ğŸ‡° Denmark,Top European VCs,"â‚¬75,000,000",2022,BASF Ventures
84493368-e675-4949-804f-415569a70d5f,Cocoa Ventures,company,,,,,,,,ğŸ‡¬ğŸ‡§ UK,ğŸ‡¬ğŸ‡§ UK,Top European VCs,"â‚¬15,000,000",2022,"Reference Capital, Aldea, Nomad"
3e6c995a-6b86-44de-bda6-5baeaddad82e,Cogito Capital,company,,,,http://cogitocap.com/,http://cogitocap.com/,,,ğŸ‡µğŸ‡± Poland,ğŸ‡µğŸ‡± Poland,Top European VCs,"â‚¬55,000,000",2019,"European Investment Fund (EIF), PFR KOFFI Fund, PFR NCBR CVC Fund"
10b4901f-953e-4f7d-9d49-e3f7c7d9a8df,Collective Spark,company,,,,https://www.collectivespark.com/,https://www.collectivespark.com/,,,ITU Ayazaga Ari3 Maslak Istanbul,ITU Ayazaga Ari3 Maslak Istanbul,Top European VCs,"â‚¬20,000,000",2018,European Investment Fund (EIF)
c1b1987b-f827-4c52-a646-08a33a9b15a4,Collector Ventures / NFT,company,,,,,,,,ğŸ‡¸ğŸ‡ª Sweden,ğŸ‡¸ğŸ‡ª Sweden,Top European VCs,"â‚¬11,000,000",2016,NFT
8e3c31cb-6520-4230-bb2f-073ce32eb3c9,CommerzVentures,company,,CommerzVentures specializes in early- and growth-stage companies in the financial services and insurance sectors.,,https://commerzventures.com/,https://commerzventures.com/,,,"Kaiserstr. 20, Frankfurt am Main, Hessen, 60311, DE","Kaiserstr. 20, Frankfurt am Main, Hessen, 60311, DE","All VCs ,Top European VCs","â‚¬300,000,000",2022,Commerzbank
55731a7e-f01d-4ab0-a7b7-229117db8127,Common Magic,company,,Common Magic is a venture capital firm that targets pre-seed and seed building products.,,https://www.commonmagic.xyz,https://www.commonmagic.xyz,,,ğŸ‡¬ğŸ‡§ UK,ğŸ‡¬ğŸ‡§ UK,Top European VCs,"â‚¬11,600,000",2023,"Atomico, Phoenix Court Group, Taavet+Sten, Basecamp, Julien Chaumond, David Singleton, Nalden"
29b8749a-4401-4b87-8115-afec121a8347,Concentric,company,,"Concentric invests in software technology business in the financial services, mobility, real estate, industrial, and logistics sectors.",,https://concentricteam.com/,https://concentricteam.com/,,,"Ingestre Court, London, England W1F 0JL, GB","Ingestre Court, London, England W1F 0JL, GB",Top European VCs,,2022,
dc227410-3c47-4d0f-8694-df9e72209369,Conexo Ventures,company,,,,http://conexo.vc/,http://conexo.vc/,,,ğŸ‡ªğŸ‡¸ Spain,ğŸ‡ªğŸ‡¸ Spain,Top European VCs,"â‚¬20,000,000",2019,
ba418143-074c-43a8-a51f-947024e9bae0,Connect Ventures,company,,,,http://www.connectventures.co/,http://www.connectventures.co/,,,ğŸ‡¬ğŸ‡§ UK,ğŸ‡¬ğŸ‡§ UK,Top European VCs,"â‚¬72,000,000",2020,"Top Tier Capital Partners, Isomer Capital, British Patient Capital, De Agostini, Big Society Capital, Draper Esprit, Korelya Capital, Accelerated Digital Ventures, Italmobiliare, Northzone IX"
cbfcd7c5-c3e6-4cc8-a8e7-347cda6c2972,Conservation Venture Studio (OXGAV),company,,,,,,,,ğŸ‡¬ğŸ‡§ UK,ğŸ‡¬ğŸ‡§ UK,Top European VCs,,2021,"University of Oxford, Global Accelerated Ventures, Oxford University Innovation"
26e28d42-2a48-4aa9-bfff-5e3cede390a7,Contrarian Ventures,company,,,,https://cventures.vc,https://cventures.vc,,,"Antakalnio str. 17, Vilnius, Lithuania","Antakalnio str. 17, Vilnius, Lithuania",Top European VCs,"â‚¬25,000,000",2022,"Molten Ventures, Grantham Foundation, European Investment Fund (EIF)"
45fae796-f160-4ff1-8757-901ca4eee2c8,CosmiCapital,company,,,,,,,,ğŸ‡«ğŸ‡· France,ğŸ‡«ğŸ‡· France,Top European VCs,"â‚¬38,000,000",2022,"Bpifrance, CNES"
7c276a42-f26f-4359-b85f-e391bd6c0b10,Counteract,company,,,,http://counteract.net,http://counteract.net,,,ğŸ‡¬ğŸ‡§ UK,ğŸ‡¬ğŸ‡§ UK,Top European VCs,"â‚¬17,000,000",2023,
7d53a283-77aa-446c-9c75-0a9753613a82,Crane Ventures,company,,,,,,,,ğŸ‡¬ğŸ‡§ UK,ğŸ‡¬ğŸ‡§ UK,Top European VCs,"â‚¬130,000,000",2022,"Massachusetts Mutual Life Insurance Company (MassMutual), British Patient Capital (NPC)"
001481e6-4a3b-4216-86e9-2c5ddae20e8b,Creandum,company,,"Creandum is an early-stage venture capital firm focusing on technology companies within the consumer, software, and hardware industries.",,Creandum.com,Creandum.com,,,"Stockholm,London,Berlin,San Francisco","Stockholm,London,Berlin,San Francisco",Top European VCs,"â‚¬445,000,000",2022,
097b8575-eed6-434d-a071-c272de265de0,Creas Impacto,company,,,,,,,,ğŸ‡ªğŸ‡¸ Spain,ğŸ‡ªğŸ‡¸ Spain,Top European VCs,"â‚¬16,000,000",2018,European Investment Fund (EIF)
bfae27b7-f607-4063-a965-d15b00684b3e,Creator Fund,company,,,,,,,,ğŸ‡¬ğŸ‡§ UK,ğŸ‡¬ğŸ‡§ UK,Top European VCs,"â‚¬18,500,000",2022,
29855a67-1890-4da3-874e-d0783e0250a9,Credo Ventures,company,,,,https://www.credoventures.com/,https://www.credoventures.com/,,,"Karlovo nam 10, Prague 2, 12000, CZ","Karlovo nam 10, Prague 2, 12000, CZ","All VCs ,Top European VCs","â‚¬75,000,000",2022,Isomer Capital
21c2cc3b-01e0-423c-af38-ccc7a5d3cf51,Crescendo Venture Partners,company,,,,https://cr-vp.com/,https://cr-vp.com/,,,Israel,Israel,Top European VCs,,2019,
e1c26435-a016-4f13-987e-5148d22f933f,Crista Galli Ventures,company,,,,https://www.cristagalli.com/,https://www.cristagalli.com/,,,ğŸ‡©ğŸ‡° Denmark,ğŸ‡©ğŸ‡° Denmark,Top European VCs,,,
b14bc4a0-a3ad-4b6a-9fe7-76f4c273361b,Crowberry Capital,company,,,,https://crowberrycapital.com/,https://crowberrycapital.com/,,,"Klapparstigur 16, 101 Reykjavik Iceland","Klapparstigur 16, 101 Reykjavik Iceland",Top European VCs,"â‚¬76,200,000",2021,"European Investment Fund (EIF), David Helgason"
e31cb43c-9cec-4b37-83f5-e6f94ce5ed70,CSS Insurance,company,,,,,,,,ğŸ‡¨ğŸ‡­ Switzerland,ğŸ‡¨ğŸ‡­ Switzerland,Top European VCs,,,
b9153cec-c6a5-4012-a602-bb48c8035ca7,Cusp Capital,company,,,,https://www.cuspcapital.com/,https://www.cuspcapital.com/,,,"Jakob-Funke-Platz 2, 45127 Essen, Germany","Jakob-Funke-Platz 2, 45127 Essen, Germany",Top European VCs,,,
853dcfe7-b779-4eb6-90ab-a5daeea8bd0b,Cyberstarts,company,,Cyberstarts is an early-stage cybersecurity-focused venture capital firm.,,http://www.linkedin.com/company/cyberstarts,http://www.linkedin.com/company/cyberstarts,,,ğŸ‡®ğŸ‡± Israel,ğŸ‡®ğŸ‡± Israel,"All VCs ,Top European VCs","â‚¬60,000,000",2022,"Shlomo Kramer, Marius Nacht, Nir Zuk, Udi Mokady, Nir Polak, Michael Shaulov"
3faa5ae2-6def-4868-9210-c89718a4f7cd,Cysero,company,,,,,,,,ğŸ‡®ğŸ‡¹ Italy,ğŸ‡®ğŸ‡¹ Italy,Top European VCs,"â‚¬15,000,000",2020,"Alberto Bombassei, Angelo Radici, Pierino Persico"
8c94247a-5a8e-40c7-b86d-a82e4fb0ca3f,D2,company,,,,d2rail.co.uk,d2rail.co.uk,,,ğŸ‡¬ğŸ‡§ UK,ğŸ‡¬ğŸ‡§ UK,Top European VCs,"â‚¬18,000,000",2022,"Shell Ventures, Mountain Labs, Bland Group"
359e37fa-8bc8-4370-90cd-7da75ae623eb,Daphni,company,,"Daphni is a venture capital fund investing in user-oriented, early stage startups with the European DNA and strong international ambition.",,https://daphni.com/,https://daphni.com/,,,"87 Rue RÃ©aumur, 75002 Paris","87 Rue RÃ©aumur, 75002 Paris","All VCs ,Top European VCs","â‚¬150,000,000",2016,"European Investment Fund (EIF), Bpifrance, CrÃ©dit Mutuel ArkÃ©a, SociÃ©tÃ© GÃ©nÃ©rale, Fnac-Darty, Nokia, SWEN Capital Partners, ProBTP, MAIF"
7da26fdc-6f70-4190-a8c8-2435f21282c1,Da Vinci Capital,company,,,,https://dvcap.com/,https://dvcap.com/,,,ğŸ‡¬ğŸ‡§ UK,ğŸ‡¬ğŸ‡§ UK,Top European VCs,"â‚¬30,000,000",2020,German Development Finance Institution (DEG)
ac308db5-a7a5-4195-b993-e0e95993b171,Day One Capital,company,,,,https://www.dayonecapital.com/,https://www.dayonecapital.com/,,,"Vend u. 26., Budapest 1025, Hungary","Vend u. 26., Budapest 1025, Hungary","All VCs ,Top European VCs","â‚¬22,000,000",2018,European Investment Fund (EIF)
097eee39-8157-4440-b6e5-45860964d9bb,Day One E&P,company,,,,,,,,ğŸ‡«ğŸ‡· France,ğŸ‡«ğŸ‡· France,Top European VCs,"â‚¬50,000,000",2017,Leclercq family
aa533f04-ae50-4ec7-b010-aa59c76d99d8,DB1 Ventures,company,db1ventures@deutsche-boerse.com,DB1 Ventures is a venture capital and private equity firm based in Germany.,db1ventures@deutsche-boerse.com,http://deutsche-boerse.com/dbg-en/about-us/deutsche-boerse-group/business-areas/ventures/db1ventures-contacts,http://deutsche-boerse.com/dbg-en/about-us/deutsche-boerse-group/business-areas/ventures/db1ventures-contacts,,,"Germany, Georgia, United States","Germany, Georgia, United States","Corporate Venture Arms,Top European VCs",,2016,
c67036d0-7444-45be-85c5-0d4508b14260,DBIC Ventures,company,,,,https://dbicventures.ie/,https://dbicventures.ie/,,,"Grand Canal Quay Pearse Street, 1st Floor, The Tower Trinity Technology & Enterprise Centre , Dublin, D02 N768, IE","Grand Canal Quay Pearse Street, 1st Floor, The Tower Trinity Technology & Enterprise Centre , Dublin, D02 N768, IE",Top European VCs,"â‚¬23,000,000",2019,Enterprise Ireland (EI)
3249b262-3202-4c1a-be64-82a66f0cb3af,DBTH Capital Ventures,company,,,,http://dbthcapital.net/,http://dbthcapital.net/,,,ğŸ‡¬ğŸ‡§ UK,ğŸ‡¬ğŸ‡§ UK,Top European VCs,"â‚¬35,000,000",2019,
34530508-c694-4d77-9fd1-8d77ac4af2c6,Delta Partners,company,,,,http://www.deltapartners.com/,http://www.deltapartners.com/,,,UK,UK,Top European VCs,"â‚¬70,000,000",2022,"Bank of Ireland, Enterprise Ireland (EI), Fexco"
e7dfd300-5f5c-435d-99e8-4f7987714456,Demeter,company,,,,https://demeter-im.com/en/home/,https://demeter-im.com/en/home/,,,ğŸ‡«ğŸ‡· France,ğŸ‡«ğŸ‡· France,Top European VCs,"â‚¬45,000,000",2018,"Soufflet Group, Elephant Vert, Unigrains, Exel Industries, Groupe Rocher"
eaa03c8f-4dd3-4e64-847e-8ac86b2a9925,DEPO Ventures,company,,,,https://depoventures.com/,https://depoventures.com/,,,ğŸ‡¨ğŸ‡¿ Czech Republic,ğŸ‡¨ğŸ‡¿ Czech Republic,Top European VCs,"â‚¬20,000,000",2022,
e1ba4e70-4c12-4c2f-99b8-d037f00dadc8,Deutsche Telekom Capital Partners,company,,,,https://www.dtcp.capital,https://www.dtcp.capital,,,"Hamburg,London,Luxembourg","Hamburg,London,Luxembourg",Top European VCs,"â‚¬310,000,000",2019,"SK Telecom, Zeiss, Deutsche Telekom, HarbourVest, Neuberger Bermann"
4ba2a17a-4e2b-4867-8cd9-a038dad3a5ad,Digital + Partners - Digital Growth Fund,company,,,,,,,,ğŸ‡©ğŸ‡ª Germany,ğŸ‡©ğŸ‡ª Germany,Top European VCs,"â‚¬350,000,000",2017,"Deutsche BÃ¶rse, ZEISS, European Investment Fund (EIF), KfW"
c0d7257b-eac0-4e78-bace-592ab2784af2,Digital Tech Fund (Expon Capital),company,,,,,,,,ğŸ‡±ğŸ‡º Luxemburg,ğŸ‡±ğŸ‡º Luxemburg,Top European VCs,"â‚¬20,300,000",2016,"SES, Banque Internationale Ã  Luxembourg (BIL), Proximus, The State of the Grand-Duchy of Luxembourg"
f0cbccca-7ecf-4bd4-aa79-e091adbb7329,DIP Capital,company,,,,https://www.dip-capital.com/,https://www.dip-capital.com/,,,"5th Floor, 20 Old Bailey, London, EC4M 7AN, UK","5th Floor, 20 Old Bailey, London, EC4M 7AN, UK",Top European VCs,"â‚¬50,000,000",2018,Platina Partners LLP
ab547051-a234-4184-8d54-71fd6ab33a18,DN Capital,company,,DN Capital operates as an early-stage venture capital firm.,,https://www.dncapital.com/,https://www.dncapital.com/,,,"Menlo Park, California, United States","Menlo Park, California, United States","All VCs ,Seed & Series A US VC's ,Top European VCs","â‚¬300,000,000",2021,
eb4e147f-06c0-498f-884f-399ef1e6322c,Draper B1,company,,,,https://draperb1.vc/,https://draperb1.vc/,,,ğŸ‡ªğŸ‡¸ Spain,ğŸ‡ªğŸ‡¸ Spain,"All VCs ,Top European VCs","â‚¬11,300,000",2020,"Instituto Valenciano de Finanzas (IVF), Fond-ICO, Tim Draper"
985aec0d-96a4-4ddf-9742-0243244e0f71,Draper Esprit,company,,,,,,,,ğŸ‡¬ğŸ‡§ UK,ğŸ‡¬ğŸ‡§ UK,Top European VCs,"â‚¬130,000,000",2021,
1a040999-0f04-4b52-ae90-25bda0aa34fd,Draper Esprit plc,company,,,,,,,,ğŸ‡¬ğŸ‡§ UK,ğŸ‡¬ğŸ‡§ UK,Top European VCs,"â‚¬185,000,000",2017,"Woodford Investment Management,Ireland Strategic Investment Fund (ISIF),Baillie Gifford,Invesco Perpetual,Hargreave Hale"
e534ec0c-62bb-4b2c-a3c8-3dbf3f13ccb0,DvH Ventures,company,,,,http://dvhventures.de/,http://dvhventures.de/,,,"KÃ¶ln, Nordrhein-Westfalen, Germany","KÃ¶ln, Nordrhein-Westfalen, Germany",Top European VCs,"â‚¬60,000,000",2020,"Noventi Group, URSAPHARM family office, Wort und Bild Verlag"
70ebe0fa-c6e6-4e18-a7e2-6dcf342a81a9,DX Ventures,company,,Corporate Venture Capital of Dexco S.A.,,,,,,ğŸ‡©ğŸ‡ª Germany,ğŸ‡©ğŸ‡ª Germany,"Corporate Venture Arms,Top European VCs","â‚¬50,000,000",2021,Delivery Hero
c3280239-8c22-4221-98c8-24d28ab616e1,EAF Finland,company,,,,,,,,ğŸ‡«ğŸ‡® Finland,ğŸ‡«ğŸ‡® Finland,Top European VCs,"â‚¬30,000,000",2017,"European Investment Fund (EIF), Tekes Venture Capital"
2835d2bd-2599-4dd6-9789-de11e0067577,Earlybird Digital East Fund,company,,,,https://earlybird.com,https://earlybird.com,,,Berlin,Berlin,Top European VCs,"â‚¬200,000,000",2021,European Bank for Reconstruction and Development (EBDR)
6ce9a84d-7d8b-4325-8d67-079e1215494c,Earlybird Digital West,company,,,,,,,,ğŸ‡©ğŸ‡ª Germany,ğŸ‡©ğŸ‡ª Germany,Top European VCs,"â‚¬350,000,000",2022,
e4f539eb-8353-4173-82d2-01f04a318b98,Earlybird UNI-X,company,,,,,,,,ğŸ‡©ğŸ‡ª Germany,ğŸ‡©ğŸ‡ª Germany,Top European VCs,"â‚¬75,000,000",2021,
e20ff013-6b9c-4204-aeea-968261708237,EarlyBird Venture Capital (Healthtech),company,,,,,,,,ğŸ‡©ğŸ‡ª Germany,ğŸ‡©ğŸ‡ª Germany,Top European VCs,,,
8f1a5bb6-bf5e-443a-8835-5d410ddc67f6,Early Game Ventures,company,,,,,,,,ğŸ‡·ğŸ‡´ Romania,ğŸ‡·ğŸ‡´ Romania,Top European VCs,"â‚¬28,000,000",2018,"European Investment Fund (EIF), Globalworth"
ca6b0d87-e307-44fd-8f4b-81a296f643aa,Eatable Adventures,company,,,,,,,,ğŸ‡ªğŸ‡¸ Spain,ğŸ‡ªğŸ‡¸ Spain,Top European VCs,"â‚¬50,000,000",2021,
9ab3d018-80a3-489d-bc6b-c5525951e85c,eCAPITAL,company,,,,,,,,ğŸ‡¬ğŸ‡§ UK,ğŸ‡¬ğŸ‡§ UK,Top European VCs,,,
73547ef3-1506-489e-8599-53fe1e181b87,eCAPITAL Cybersecurity Fund,company,,,,,,,,ğŸ‡©ğŸ‡ª Germany,ğŸ‡©ğŸ‡ª Germany,Top European VCs,"â‚¬30,000,000",2018,"ERP Fund, RAG Foundation, NRW.BANK"
04f1e0fd-4a49-4831-9d11-7dec59f38955,eCAPITAL Fund,company,,,,,,,,ğŸ‡©ğŸ‡ª Germany,ğŸ‡©ğŸ‡ª Germany,Top European VCs,"â‚¬100,000,000",2017,
2a10e692-0a32-4dfa-b695-2f2314311a98,Educapital,company,,,,https://www.educapital.fr/,https://www.educapital.fr/,,,"France,UK,Germany,Spain,Denmark,Sweden,Italy,Norway,Poland,Austria,Switzerland,Belgium,Netherlands","France,UK,Germany,Spain,Denmark,Sweden,Italy,Norway,Poland,Austria,Switzerland,Belgium,Netherlands",Top European VCs,"â‚¬100,000,000",2022,"Hachette, family that owns Decathlon and Switzerlandâ€™s Jacobs family"
e5f0ccfb-75dc-4145-aeac-465b1d4bf60c,Eequity,company,,,,,,,,ğŸ‡¸ğŸ‡ª Sweden,ğŸ‡¸ğŸ‡ª Sweden,Top European VCs,"â‚¬55,000,000",2018,
d5bbd77e-7613-4740-8195-8ee9f5f824a4,Eight Roads Ventures,company,,"Eight Roads Ventures is a global venture capital firm managing $11bn of assets across offices in the UK, China, India, Japan, and the US.",,https://eightroads.com/en/,https://eightroads.com/en/,,,London,London,"All VCs ,Top European VCs","â‚¬390,000,000",2021,
91b35f2b-8960-432e-9ae0-e0fd6b911b1d,EKA Ventures,company,,,,,,,,ğŸ‡¬ğŸ‡§ UK,ğŸ‡¬ğŸ‡§ UK,Top European VCs,"â‚¬80,000,000",2020,"British Business Bank, BSC, Isomer Capital, Guys and St Thomas Foundation, Planet First Partners, Draper Esprit, Snowball"
166062db-b4e3-414a-b585-27edd94c9898,Elaia Delta Fund,company,,,,,,,,ğŸ‡«ğŸ‡· France,ğŸ‡«ğŸ‡· France,Top European VCs,"â‚¬150,000,000",2017,"European Investment Fund (EIF), Bpifrance, Sabadell Asset Management, MGEN, BNP Paribas, EDF, Nexity, FinanciÃ¨re Saint-James, Groupe ADP, CEPAC Investissement & DÃ©veloppement, BRED Banque Populaire"
e9269764-ed69-4ec1-9fbf-c7c1b29af44c,Elaia Ventures,company,,,,,,,,ğŸ‡«ğŸ‡· France,ğŸ‡«ğŸ‡· France,Top European VCs,"â‚¬200,000,000",2021,"Bpifrance, European Investment Fund (EIF), MGEN, BRED, BNP Paribas, Bpifrance, CNP Assurances, European Investment Fund (EIF), SWEN Capital Partners"
dbc89f61-ea56-49d6-8c55-77c80ead251d,Elaia Ventures Alpha,company,,,,,,,,ğŸ‡«ğŸ‡· France,ğŸ‡«ğŸ‡· France,Top European VCs,"â‚¬55,000,000",2020,
ba57cd5f-fbdb-4a19-b4e1-3aafacad2919,Elaia VenturesÂ (Alpha),company,,,,,,,,ğŸ‡«ğŸ‡· France,ğŸ‡«ğŸ‡· France,Top European VCs,"â‚¬77,000,000",2022,"VINCI Concessions, Inria, Bpifrance, National dâ€™AmorÃ§age 2 (a national French seed fund), CovÃ©a Finance, BNP Paribas, Lâ€™OrÃ©al, Malakoff Humanis"
9f96a5a6-98ac-45be-a6c4-558bb5ce2206,Element Ventures,company,,,,https://elementventures.vc/,https://elementventures.vc/,,,ğŸ‡¬ğŸ‡§ UK,ğŸ‡¬ğŸ‡§ UK,Top European VCs,"â‚¬110,000,000",2021,"Isomer Capital, Lord Spencer, Laurent Useldinger, Cris Conde, Marc Murphy, David Rutter, Pierre Naude, Christian Nentwich"
deebbbab-56d8-4b47-9ce5-1e73a472f29b,Elkstone,company,,,,,,,,ğŸ‡®ğŸ‡ª Ireland,ğŸ‡®ğŸ‡ª Ireland,Top European VCs,"â‚¬55,000,000",2022,Enterprise Ireland (EI)
c2bfbd21-b5cc-4670-88a9-423fa2ff2579,embedded/capital,company,,,,,,,,ğŸ‡©ğŸ‡ª Germany,ğŸ‡©ğŸ‡ª Germany,Top European VCs,"â‚¬100,000,000",2022,
74ca8fab-27d3-4ae5-afca-8173f3f7aa6b,Emblem,company,,Emblem operates as a venture capital firm partnering at pre-seed stage.,,https://www.emblem.vc/,https://www.emblem.vc/,,,ğŸ‡«ğŸ‡· France,ğŸ‡«ğŸ‡· France,Top European VCs,"â‚¬50,000,000",2023,"Vaekstfonden, Edenred, founders of 3shape, Dixa, Falcon, Kantox, Peakon, PeopleDoc, Planday, Pleo, Qonto, Silae, Spendesk, Swile and Zendesk"
e26c6a1f-2639-4de4-9ee6-4ee04f93318f,Emerge Education,company,,,,https://emerge.education/,https://emerge.education/,,,"Edspace, Falkirk Street, London, London N16HQ, GB","Edspace, Falkirk Street, London, London N16HQ, GB",Top European VCs,"â‚¬11,000,000",2020,"Cambridge University Press, Cambridge Assessment, Nesta, Jisc, Grupo Tiradentes, Dan Sommer, Rob Cohen"
bac5e5ad-a9b2-4eea-9b72-1eb6cd2565c7,Endeit Capital,company,,,,https://www.endeit.com/,https://www.endeit.com/,,,Netherlands,Netherlands,"All VCs ,Top European VCs","â‚¬250,000,000",2021,European Investment Fund (EIF)
33ecc53b-a61d-47a0-9a8b-eee7e368cfc6,Energy Impact Partners,company,,Energy Impact Partners is a collaborative strategic investment firm that invests in energy companies.,,https://www.energyimpactpartners.com/,https://www.energyimpactpartners.com/,,,"600 3rd Ave, New York, NY 10016","600 3rd Ave, New York, NY 10016","All VCs ,Seed & Series A US VC's ,Top European VCs","â‚¬390,000,000",2022,"The Abu Dhabi Investment Authority, AGL Energy, Chubu, DNV, a maritime, EDF Pulse Ventures, EWE, Fortum, Galp, Mainova, Microsoftâ€™s Climate Innovation Fund NysnÃ¸ Climate Investments, Shell, TrÃ¸nderEnergi"
b34ca6a2-d60e-47e8-a71a-6229809af7ee,EntrÃ©e Capital,company,,EntrÃ©e Capital is a venture capital firm that funds multi-stage startups and companies all over the world.,,https://www.entreecap.com/we,https://www.entreecap.com/we,,,UK,UK,"All VCs ,Top European VCs","â‚¬100,000,000",2020,
e6722d58-a683-4a39-af94-6108121129d8,Entrepreneur First (Global),company,,,,,,,,ğŸ‡¬ğŸ‡§ UK,ğŸ‡¬ğŸ‡§ UK,Top European VCs,"â‚¬100,000,000",2019,"Trusted Insight, Taavet Hinrikus, Alex Chesterman, Rob Bishop"
50cabbf7-e8ce-4ad1-b97a-ed6142f04cab,Entrepreneur First Next Stage,company,,,,,,,,ğŸ‡¬ğŸ‡§ UK,ğŸ‡¬ğŸ‡§ UK,Top European VCs,"â‚¬47,800,000",2016,"British Business Bank (BBB), Imperial College, Freston Ventures, Isomer Capital"
c02fcc5c-9a78-4573-a08d-8e963e5ab5f5,Episode1,company,,,,,,,,ğŸ‡¬ğŸ‡§ UK,ğŸ‡¬ğŸ‡§ UK,Top European VCs,"â‚¬68,400,000",2017,"British Business Bank, Draper Esprit, Accelerated Digital Ventures"
2053f3b4-5779-4b44-b07d-06c8c3f47175,EQT Growth,company,,,,,,,,ğŸ‡¸ğŸ‡ª Sweden,ğŸ‡¸ğŸ‡ª Sweden,Top European VCs,"â‚¬2,400,000,000",2022,
4731a534-25f9-475b-a3cc-b386ad305125,EQT Ventures,company,,,,https://www.eqtventures.com/,https://www.eqtventures.com/,,,Sweden,Sweden,"European Family Offices' Founders ,All VCs ,Top European VCs","â‚¬1,100,000,000",2022,
e0b49039-f4a2-4078-a8e7-9b93207f4e55,EquityPitcher,company,,,,,,,,ğŸ‡¨ğŸ‡­ Switzerland,ğŸ‡¨ğŸ‡­ Switzerland,Top European VCs,"â‚¬45,700,000",2022,
b9d2e0c9-98f3-467c-adaa-818ee573ecd6,ETF Partners,company,,,,https://etfpartners.capital/,https://etfpartners.capital/,,,UK,UK,Top European VCs,"â‚¬187,000,000",2020,"European Investment Fund (EIF), British Patient Capital (BPC)"
41c7846d-b478-4df2-a199-4981992a10c9,EuraTechnologies,company,,,,https://www.linkedin.com/company/705491/,https://www.linkedin.com/company/705491/,,,ğŸ‡«ğŸ‡· France,ğŸ‡«ğŸ‡· France,Top European VCs,"â‚¬24,000,000",2022,"Mulliez Family Association, Entreprises et CitÃ©s (via ECTech), Lille European Metropolis, Hauts- de-France Region, City of Lille, CrÃ©dit Agricole Nord de France, Caisse d'Epargne Hauts-de-France, CrÃ©dit Mutuel Nord Europe"
f7c7b01b-6578-4e5f-938c-5b73964e229d,Eurazeo,company,,Eurazeo is a private equity and venture capital firm that invests in SMEs and manages a diversified portfolio of assets.,,eurazeo.com,eurazeo.com,,,"London,Paris","London,Paris",Top European VCs,"â‚¬80,000,000",2021,"Stellantis, EDF, Mainova, RATP, Total, Duisport, Sansiri, PRO BTP"
637e9321-672f-443f-b599-61e2a1fcc29a,Eurazeo Growth,company,,,,,,,,ğŸ‡«ğŸ‡· France,ğŸ‡«ğŸ‡· France,Top European VCs,"â‚¬1,600,000,000",2021,"European Investment Fund (EIF), British Patient Capital (BPC), Bpifrance"
eb545426-146b-43ea-b338-3bb8bbd258cc,Eureka! Venture,company,,,,https://www.eurekaventure.it/,https://www.eurekaventure.it/,,,ğŸ‡®ğŸ‡¹ Italy,ğŸ‡®ğŸ‡¹ Italy,Top European VCs,"â‚¬40,000,000",2020,"European Investment Fund (EIF), Cassa Depositi e Prestiti, Compagnia di San Paolo, SAES Group, UMBRA Group"
e3544389-c20c-4ac2-8e80-04f262f3d317,European Circular Bioeconomy Fund,company,,,,,,,,ğŸ‡©ğŸ‡ª Germany,ğŸ‡©ğŸ‡ª Germany,Top European VCs,"â‚¬300,000,000",2020,"European Investment Bank (EIB), PreZero International GmbH, Corbion NV, Hettich Beteiligungen GmbH"
17f792ec-9c0d-4911-8f1a-e023795a9796,Eutopia,company,,,,http://eutopia.vc/,http://eutopia.vc/,,,"France,USA,UK,Germany,Belgium,Spain,Italy,Ireland,Luxembourg,Netherlands,Switzerland,Denmark,Norway,Sweden,Portugal,Finland","France,USA,UK,Germany,Belgium,Spain,Italy,Ireland,Luxembourg,Netherlands,Switzerland,Denmark,Norway,Sweden,Portugal,Finland",Top European VCs,"â‚¬50,000,000",2019,Pierre-Edouard Sternin
2b4cbd8f-1e68-43b9-93d4-89249a015463,E.ventures,company,,,,,,,,ğŸ‡©ğŸ‡ª Germany,ğŸ‡©ğŸ‡ª Germany,Top European VCs,"â‚¬155,000,000",2019,"Otto Group, Lidl, Dr. Oetker, Porsche, Bitburger, KÃ¤rcher, Deichmann, Jahr family office, Rehm family (JÃ¤germeister), Kreditanstalt fÃ¼r Wiederaufbau (KfW), European Investment Fund (EIF)"
998fca52-57c4-4f1f-bf3f-2784f9e49662,Evli Growth Partners,company,,,,https://egp.fi/,https://egp.fi/,,,Finland,Finland,Top European VCs,"â‚¬60,400,000",2018,
968c847c-fa4e-4420-b8e3-7f8e465d8666,Exceptional Ventures,company,,,,,,,,ğŸ‡¬ğŸ‡§ UK,ğŸ‡¬ğŸ‡§ UK,Top European VCs,"â‚¬24,000,000",2022,
2881c561-ccdc-4dd5-93ef-979b33bc2b43,Expon Capital,company,,,,https://www.exponcapital.com/,https://www.exponcapital.com/,,,203 Route dâ€™Arlon 1150 Luxembourg Grand-Duchy of Luxembourg,203 Route dâ€™Arlon 1150 Luxembourg Grand-Duchy of Luxembourg,Top European VCs,"â‚¬45,000,000",2019,
192c6577-cc83-44cb-9ca6-b3ec350a6319,Extantia,company,,,,https://extantia.com/,https://extantia.com/,,,ğŸ‡©ğŸ‡ª Germany,ğŸ‡©ğŸ‡ª Germany,Top European VCs,"â‚¬150,000,000",2022,"Anglo American, Toyota Ventures, PiÃ«ch and Oldendorff families"
5ebc6e41-b9c9-4402-8fb0-d6e24b538f4a,F2 Capital,company,,,,https://www.f2vc.com,https://www.f2vc.com,,,ğŸ‡®ğŸ‡± Israel,ğŸ‡®ğŸ‡± Israel,Top European VCs,"â‚¬50,000,000",2019,European Investment Fund (EIF)
a327e6b7-c9df-413d-a185-d2a209f00dbe,F2 Venture Capital,company,,,,,,,,ğŸ‡®ğŸ‡± Israel,ğŸ‡®ğŸ‡± Israel,Top European VCs,"â‚¬150,000,000",2022,
bbfd0806-a9ca-481c-8ad6-ce287253caf3,Faber Ventures,company,,,,,,,,ğŸ‡µğŸ‡¹ Portugal,ğŸ‡µğŸ‡¹ Portugal,Top European VCs,"â‚¬32,000,000",2022,"European Investment Fund (EIF), Portugal Blue, Movendo Capital, Builders Initiative, the Calouste Gulbenkian Foundation, Champalimaud Foundation"
32441cd4-3adc-40aa-913c-1b617a1a068a,Fairpoint Capital,company,,,,https://www.fairpoint.se/,https://www.fairpoint.se/,,,ğŸ‡¸ğŸ‡ª Sweden,ğŸ‡¸ğŸ‡ª Sweden,Top European VCs,"â‚¬85,000,000",2019,SEB Venture Capital
317a0c3f-3e00-4992-9bb1-72fbd1aafa9d,Fasanara Capital,company,,,,,,,,ğŸ‡¬ğŸ‡§ UK,ğŸ‡¬ğŸ‡§ UK,Top European VCs,"â‚¬350,000,000",2022,European Investment Fund (EIF)
eb3e4048-b097-4443-bdf5-36870fbe1455,Feelsgood Fund,company,,,,,,,,ğŸ‡­ğŸ‡· Croatia,ğŸ‡­ğŸ‡· Croatia,Top European VCs,"â‚¬30,000,000",2019,European Investment Fund (EIF)
eec91caa-1ed1-43f9-b3e1-d55af8445395,Felix Capital,company,,"Felix Capital is a venture fund that focuses on digital commerce, digital media, and information technology companies.",,https://www.felixcap.com/,https://www.felixcap.com/,,,"27 Beak Street, London, W1F9RU, GB","27 Beak Street, London, W1F9RU, GB","All VCs ,Top European VCs","â‚¬562,000,000",2022,"Galdana Ventures, Sapphire, TriplePoint Capital, Pentland Group, Sofina, BPIFrance, Lennertz, StepStone"
aa908728-823d-405a-810c-eb50179c252b,ff Red & White,company,,,,,,,,ğŸ‡µğŸ‡± Poland,ğŸ‡µğŸ‡± Poland,Top European VCs,"â‚¬60,000,000",2023,"JBIC IG Partners, Japanese multinational corporations, Japan Bank for International Cooperation (JBIC)"
706c5385-5dca-40a0-a3fb-ebbcce29f57c,ffVC Tech & Gaming,company,,,,https://ffvc.pl/,https://ffvc.pl/,,,ğŸ‡µğŸ‡± Poland,ğŸ‡µğŸ‡± Poland,Top European VCs,"â‚¬22,500,000",2020,PFR Ventures
f8a6c70e-ee4a-4cb8-bb03-ca8132db487b,Fifth Wall Real Estate Technology European Fund,company,,,,,,,,ğŸ‡¬ğŸ‡§ UK,ğŸ‡¬ğŸ‡§ UK,Top European VCs,"â‚¬100,000,000",2020,BNP Paribas Group
cc07be9f-e852-43d7-80b5-fd20fdea5cc2,FII Tech Growth Lazio,company,,,,https://www.fondoitaliano.it/it,https://www.fondoitaliano.it/it,,,ğŸ‡®ğŸ‡¹ Italy,ğŸ‡®ğŸ‡¹ Italy,Top European VCs,"â‚¬18,000,000",2019,Lazio Innova
6f05fd50-27a0-44f1-a8a4-17cf671081da,Fil Rouge Capital,company,,,,https://filrougecapital.com/,https://filrougecapital.com/,,,"JuriÅ¡iÄ‡eva street 24, 10000 Zagreb, Croatia","JuriÅ¡iÄ‡eva street 24, 10000 Zagreb, Croatia",Top European VCs,"â‚¬42,000,000",2019,European Investment Fund (EIF)
58413b01-45a7-4250-8249-4a24d1ddecad,Finch Capital,company,,,,www.finchcapital.com,www.finchcapital.com,,,ğŸ‡³ğŸ‡± Netherlands,ğŸ‡³ğŸ‡± Netherlands,Top European VCs,"â‚¬85,000,000",2021,
c3e306fd-c311-4e4e-9356-5811fc5ce565,Finch Capital [Ireland],company,,,,,,,,ğŸ‡®ğŸ‡ª Ireland,ğŸ‡®ğŸ‡ª Ireland,Top European VCs,"â‚¬20,000,000",2019,Enterprise Ireland
e82a3725-10f5-4708-9c1a-152608fc6a1a,Finstar,company,,,,,,,,ğŸ‡·ğŸ‡º Russia,ğŸ‡·ğŸ‡º Russia,Top European VCs,"â‚¬130,500,000",2017,
e88f60ca-43c9-4553-8e59-56e42b783110,FinTLV,company,,,,,,,,ğŸ‡®ğŸ‡± Israel,ğŸ‡®ğŸ‡± Israel,Top European VCs,"â‚¬100,000,000",2021,"Clal, Psagot, Poalim Capital Markets, Ayalon, MS&AD, FWD, Reale Mutua, LB, BDO Israel, Matrix"
05e08712-d446-4b13-a548-3e8ec45d3f6f,Firstime Venture,company,,,,,,,,ğŸ‡®ğŸ‡± Israel,ğŸ‡®ğŸ‡± Israel,Top European VCs,"â‚¬37,200,000",2017,
307bca1f-837a-48d1-aa00-bf1b7805db37,Firstminute Capital,company,,,,,,,,ğŸ‡¬ğŸ‡§ UK,ğŸ‡¬ğŸ‡§ UK,Top European VCs,"â‚¬132,000,000",2020,"Tencent, Henkel Ventures, Liontree, Atomico, The Raine Group, Felicis Ventures, Lombard Odier, RIT Capital Partners, founders of Farfetch, Flixbus, Checkout.com, iZettle and Babylon."
ca494a35-20d9-44e4-8712-7527a72a8f3e,First Momentum Ventures,company,,,,https://firstmomentum.vc/,https://firstmomentum.vc/,,,"Alter Schlachthof 33, Karlsruhe, Baden-WÃ¼rttemberg 76131, DE","Alter Schlachthof 33, Karlsruhe, Baden-WÃ¼rttemberg 76131, DE",Top European VCs,"â‚¬1,400,000",2018,"Baden-WÃ¼rttemberg development bank L-Bank, Mathias Ockenfels, Hans-JÃ¼rgen Even, Sebastian BÃ¶hmer."
4037d53a-d052-4e5c-bb52-700c75bc3868,FIRSTPICK,company,,Early stage venture capital fund focused on Baltic tech founders,,https://firstpick.vc/,https://firstpick.vc/,,,ğŸ‡±ğŸ‡¹ Lithuania,ğŸ‡±ğŸ‡¹ Lithuania,Top European VCs,"â‚¬9,000,000",2022,INVEGA
acba7d2f-ef2a-4063-8aed-70c882821a1f,Five Seasons Ventures,company,,,,https://www.fiveseasons.vc/,https://www.fiveseasons.vc/,,,"France,Germany,Italy,Spain,Portugal,UK,Austria,Switzerland,Netherlands,Belgium","France,Germany,Italy,Spain,Portugal,UK,Austria,Switzerland,Netherlands,Belgium",Top European VCs,"â‚¬180,000,000",2021,European Investment Fund (EIF)
db15f263-ed30-41c3-9a2d-979e21f552ec,Flashpoint Venture Capital,company,,,,flashpointvc.com,flashpointvc.com,,,ğŸ‡­ğŸ‡º Hungary,ğŸ‡­ğŸ‡º Hungary,Top European VCs,"â‚¬100,000,000",2020,SzÃ©chenyi Funds
133da768-85d4-4263-82ac-73d8bc3926d7,Fondo Boost Innovation,company,,,,,,,,ğŸ‡®ğŸ‡¹ Italy,ğŸ‡®ğŸ‡¹ Italy,Top European VCs,"â‚¬50,000,000",2020,Cassa Depositi e Prestiti (CdP)
31bf8041-bb44-4bf1-aa91-ec7645c4d2dc,Fondo Italiano Agri&Food (FIAF),company,,,,,,,,ğŸ‡®ğŸ‡¹ Italy,ğŸ‡®ğŸ‡¹ Italy,Top European VCs,"â‚¬130,000,000",2022,"CDP Equity, BF Spa"
ffbfb443-1ceb-4393-b2d1-d4c538e9ddd6,Foodsparks,company,,,,,,,,ğŸ‡²ğŸ‡¹ Malta,ğŸ‡²ğŸ‡¹ Malta,Top European VCs,"â‚¬30,000,000",2021,
c8e92758-2b9b-47c8-a9cb-ad04425caf14,Force Over Mass,company,,,,http://www.fomcap.com/,http://www.fomcap.com/,,,UK,UK,Top European VCs,"â‚¬100,000,000",2021,
6f945cf2-057c-4c17-82c8-c21bcd2a968e,Form Ventures,company,,,,https://formventures.vc,https://formventures.vc,,,"London, London WC2H 9JQ, GB","London, London WC2H 9JQ, GB",Top European VCs,"â‚¬35,000,000",2021,British Business Bank (BBB)
63df66cb-1960-4537-981d-093abd3210c8,Fortino Capital Partners,company,,,,,,,,ğŸ‡§ğŸ‡ª Belgium,ğŸ‡§ğŸ‡ª Belgium,Top European VCs,"â‚¬125,000,000",2017,"European Investment Fund (EIF), BNP Paribas Fortis, AG, Belfius, PMV"
51823771-9171-4a1b-842d-37be2ae963c2,Fortino Capital Venture,company,,,,,,,,ğŸ‡§ğŸ‡ª Belgium,ğŸ‡§ğŸ‡ª Belgium,Top European VCs,"â‚¬105,000,000",2020,"SFPI-FPIM, PMV, European Investment Fund (EIF)"
9b6d681b-21f1-4a45-8430-886a0723068e,Foundamental,company,,,,https://foundamental.com/,https://foundamental.com/,,,"Budapester str 5, 10787, Berlin","Budapester str 5, 10787, Berlin","All VCs ,Top European VCs","â‚¬80,000,000",2022,
120c6b87-4f03-4d51-9fb9-6fad90d152bd,Founders Future,company,,"Created by entrepreneurs, for entrepreneurs",,https://www.linkedin.com/company/11544122/,https://www.linkedin.com/company/11544122/,,,ğŸ‡«ğŸ‡· France,ğŸ‡«ğŸ‡· France,Top European VCs,"â‚¬20,000,000",2021,"Thierry Gillier, Bris and Yves Rocher, Michael Benabou"
e0fdea8d-0773-4620-8be9-3c23c81e5d62,FOV Ventures,company,,,,,,,,ğŸ‡«ğŸ‡® Finland,ğŸ‡«ğŸ‡® Finland,Top European VCs,"â‚¬16,500,000",2022,
0ba842c6-f5cb-4d3a-bec1-dd745eee22ad,Fraunhofer Tech Transfer Fund,company,,,,https://www.fttf.fraunhofer.de/,https://www.fttf.fraunhofer.de/,,,ğŸ‡©ğŸ‡ª Germany,ğŸ‡©ğŸ‡ª Germany,Top European VCs,"â‚¬60,000,000",2019,"European Investment Fund (EIF), Federal Ministry for Economic Affairs and Energy of Germany (BMWi)"
b6dcb421-f7f6-4754-a8e1-3bee9c66c643,Frenchfood Capital,company,,,,,,,,ğŸ‡«ğŸ‡· France,ğŸ‡«ğŸ‡· France,Top European VCs,"â‚¬70,000,000",2017,"Bpifrance, Credit Mutuel Arkea, Tikehau, Banque Populaire"
c8a4f337-123a-41a5-b44c-3a40ecfa7398,Fribourg Digital,company,,,,,,,,ğŸ‡·ğŸ‡´ Romania,ğŸ‡·ğŸ‡´ Romania,Top European VCs,"â‚¬20,000,000",2017,Fribourg Capital
fab5ad5b-5099-4213-bfb1-acc071e69177,Frst [fka Otium Venture],company,,,,,,,,ğŸ‡«ğŸ‡· France,ğŸ‡«ğŸ‡· France,Top European VCs,"â‚¬60,000,000",2019,"European Investment Fund (EIF), Bpifrance, Axa Venture Partners, Ilkka Paananen, Mikko Kodisoja, MichaÃ«l Benabou, Stanislas de Quercize, Draper Esprit"
f4b96e0d-3d86-4a18-83fb-d66595c918a7,Frumtak Ventures,company,,,,,,,,ğŸ‡®ğŸ‡¸ Iceland,ğŸ‡®ğŸ‡¸ Iceland,Top European VCs,"â‚¬48,000,000",2021,
46956017-8609-4d1f-ab03-f507d79b1b22,Fuel For Growth,company,,,,https://fuel4growth.vc/,https://fuel4growth.vc/,,,ğŸ‡·ğŸ‡º Russia,ğŸ‡·ğŸ‡º Russia,Top European VCs,"â‚¬45,000,000",2019,Efko Group
50c15a3b-6a52-4773-8007-9e0f3396c542,Fuel Ventures,company,,,,https://fuel.ventures/,https://fuel.ventures/,,,"145 City Rd, Hoxton, London, EC1V 1AZ, UK","145 City Rd, Hoxton, London, EC1V 1AZ, UK",Top European VCs,"â‚¬52,000,000",2021,
e34e3443-542e-4991-8a30-5c686bca2c62,Fund F,company,,,,,,,,ğŸ‡¦ğŸ‡¹ Austria,ğŸ‡¦ğŸ‡¹ Austria,Top European VCs,"â‚¬12,500,000",2022,"Austria Wirtschaftsservice GmbH, Raiffeisen Landesbank Steiermark, Hansi Hansmann, Speedinvest"
6dcf1416-9518-46cd-b814-af234450ef22,FundTMT,company,,It becomes the third fund under management by Spark Impact Limited.,,http://www.fundtmt.com/,http://www.fundtmt.com/,,,ğŸ‡¬ğŸ‡§ UK,ğŸ‡¬ğŸ‡§ UK,Top European VCs,"â‚¬5,700,000",2017,
561d28c3-f065-4251-9060-22133f1649e0,Fusion,company,,VC & accelerator for Israeli start-ups in the US. We empower great entrepreneurs to build their dream companies.,,https://www.fusion-vc.com/,https://www.fusion-vc.com/,,,California,California,Top European VCs,"â‚¬20,000,000",2023,"Insight Partners, Gigi Levy-Weiss, Liad Agmon, Ofer Ben-Noon"
dd68b469-6815-4399-952b-229c329f7755,Future Energy Ventures,company,,,,https://fev.vc,https://fev.vc,,,"Rellinghauser Str. 27, Essen, Nordrhein-Westfalen 45128, DE","Rellinghauser Str. 27, Essen, Nordrhein-Westfalen 45128, DE","All VCs ,Top European VCs",,2022,E.On
da617776-1d99-4f68-8841-1449d643bf16,Future Food Fund,company,,Future Food Fund is a corporate venture capital company that specializes in the field of food.,,https://futurefoodfund.nl/,https://futurefoodfund.nl/,,,ğŸ‡³ğŸ‡± Netherlands,ğŸ‡³ğŸ‡± Netherlands,Top European VCs,"â‚¬20,000,000",2023,"Wageningen University & Research, Oost NL, NO"
470b7097-1e35-4887-a2be-a6a80e3b03e3,Future Industry Ventures,company,,,,https://futureindustry.vc/,https://futureindustry.vc/,,,ğŸ‡©ğŸ‡ª Germany,ğŸ‡©ğŸ‡ª Germany,Top European VCs,"â‚¬200,000,000",2020,"SBI Holdings, Redstone Digital"
a648b29a-b494-4b76-b571-b37a101ca9fb,Future Positive Capital,company,,,,https://www.futurepositivecapital.com/,https://www.futurepositivecapital.com/,,,"France,UK,Switzerland,Belgium,Spain,Portugal,Italy,Germany,Netherlands,Luxembourg,Denmark,Norway,Sweden,Latvia","France,UK,Switzerland,Belgium,Spain,Portugal,Italy,Germany,Netherlands,Luxembourg,Denmark,Norway,Sweden,Latvia",Top European VCs,"â‚¬50,000,000",2019,"European Investment Fund (EIF), Isomer Capital, Bpifrance, Draper Esprit, Walter Butler, Henri de Castries, Marie Eriksson, Robin Klein, Francois Lemarchand"
432ec45e-c333-4160-af7a-c75a8cd05049,Futuristic.VC,company,,,,,,,,ğŸ‡©ğŸ‡° Denmark,ğŸ‡©ğŸ‡° Denmark,Top European VCs,"â‚¬1,340,000",2017,
7e02002b-3989-4121-8845-e113182a9dab,Gaia Capital Partners,company,,,,https://www.gaiacap.co/,https://www.gaiacap.co/,,,"France,Germany,USA,UK,Sweden,Norway,Denmark,Finland,Spain,Italy,Belgium,Austria,Netherlands","France,Germany,USA,UK,Sweden,Norway,Denmark,Finland,Spain,Italy,Belgium,Austria,Netherlands",Top European VCs,"â‚¬250,000,000",2019,"Sycomore Asset Management, Generali Investments, Bpifrance"
3e2518a5-d819-4b65-a8a4-cd1b62e95b73,Galion.exe,company,,,,,,,,ğŸ‡«ğŸ‡· France,ğŸ‡«ğŸ‡· France,Top European VCs,"â‚¬30,000,000",2022,
3ba70c04-90eb-492f-a82c-2926ba7d5c11,Gapminder Ventures Partners,company,,,,,,,,ğŸ‡·ğŸ‡´ Romania,ğŸ‡·ğŸ‡´ Romania,Top European VCs,"â‚¬36,000,000",2017,European Investment Fund (EIF)
33ac9830-db46-464d-b07d-375e620009d8,Giant Ventures,company,,,,https://www.giant.vc/,https://www.giant.vc/,,,"London,Copenhagen,LA","London,Copenhagen,LA",Top European VCs,,2020,"Northzone IX, Philippe Jabre, Ian Davis, Tom Chapman, Brian Paes-Braga"
c6643ae1-b7dd-4130-9d63-c82096a5a9aa,Glilot Capital Partners,company,,,,http://glilotcapital.com,http://glilotcapital.com,,,ğŸ‡®ğŸ‡± Israel,ğŸ‡®ğŸ‡± Israel,Top European VCs,"â‚¬200,000,000",2022,
2a64e130-2b62-4899-a4bd-f5d017e9e8d8,GMG Ventures,company,,,,,,,,ğŸ‡¬ğŸ‡§ UK,ğŸ‡¬ğŸ‡§ UK,Top European VCs,"â‚¬46,900,000",2017,Guardian Media Group
96c122f9-8cee-4a05-8716-16757075a97a,GO Capital,company,,,,,,,,ğŸ‡«ğŸ‡· France,ğŸ‡«ğŸ‡· France,Top European VCs,"â‚¬14,000,000",2023,"RÃ©gion, MÃ©tropoles de Tours, Revicentre, CrÃ©dit Agricole Centre Loire, Banque Populaire Val de France, Caisse dâ€™Epargne Loire Centre, Michelin, AgglomÃ©ration de Chartres, CrÃ©dit Agricole Val de Franc"
216939a4-25de-4b60-b2e9-1c07289841f7,GoHub Ventures,company,,,,https://gohub.vc/en/,https://gohub.vc/en/,,,ğŸ‡ªğŸ‡¸ Spain,ğŸ‡ªğŸ‡¸ Spain,Top European VCs,"â‚¬60,000,000",2022,Global Omnium
99a24a5b-de2a-4c46-a183-4c29192261c1,Good Company,company,,,,https://goodcompanyhq.com,https://goodcompanyhq.com,,,"Shadal 3, Tel Aviv, Israel","Shadal 3, Tel Aviv, Israel",Top European VCs,"â‚¬25,500,000",2021,Eytan Stibbe
f361d4d4-93fb-4aca-8724-4108396b79b6,Gorilla Capital,company,,,,,,,,ğŸ‡³ğŸ‡´ Norway,ğŸ‡³ğŸ‡´ Norway,Top European VCs,"â‚¬20,000,000",2018,
fb43d680-b019-40fc-b693-1f898e1996b1,GP Bullhound,company,,,,http://www.gpbullhound.com/,http://www.gpbullhound.com/,,,ğŸ‡¬ğŸ‡§ UK,ğŸ‡¬ğŸ‡§ UK,Top European VCs,"â‚¬300,000,000",2020,European Investment Fund (EIF)
e0d860c3-3270-47f1-8316-e8c0ce44017d,GR Capital,company,,,,,,,,ğŸ‡ºğŸ‡¦ Ukraine,ğŸ‡ºğŸ‡¦ Ukraine,Top European VCs,"â‚¬30,000,000",2022,
5738083e-c4bb-469f-9230-e80f09f07945,Greencode Ventures,company,,Greencode Ventures invests in the most impactful early-phase digital-first green transition startups in Europe.,,greencode.vc,greencode.vc,,,"Helsinki, Finland","Helsinki, Finland",Top European VCs,"â‚¬25,000,000",2023,Business Finland Venture Capital Ltd (BFVC)
23040e95-8ab5-40eb-887a-87435fe74a95,Greenfield Partners,company,,,,http://greenfieldlp.com/,http://greenfieldlp.com/,,,ğŸ‡®ğŸ‡± Israel,ğŸ‡®ğŸ‡± Israel,"All VCs ,Top European VCs","â‚¬345,000,000",2022,
0e7d1d6c-604d-40d8-9b90-c6f5196ce93c,Green Generation Fund,company,,,,,,,,ğŸ‡©ğŸ‡ª Germany,ğŸ‡©ğŸ‡ª Germany,Top European VCs,"â‚¬100,000,000",2022,"Kaltroco, Florian Wendelstadt, Canica, Corecam Capital Partners, Liesner & Co., Equation, Aldea, KfW Capital"
edc053d5-adbd-40a9-8f52-87abf7e7c376,Grove Ventures,company,,,,https://www.grovevc.com/,https://www.grovevc.com/,,,"3 HaNechoshet St., Tel Aviv, Israel 6971915, IL","3 HaNechoshet St., Tel Aviv, Israel 6971915, IL","All VCs ,Top European VCs","â‚¬170,000,000",2022,
ab5ed6b6-0f98-481e-ae02-30501bc72220,Growth Partners Capital,company,,,,,,,,ğŸ‡µğŸ‡¹ Portugal,ğŸ‡µğŸ‡¹ Portugal,Top European VCs,"â‚¬28,000,000",2023,"Portugal Blue, InvestEU"
0f3f4872-295f-4a73-a51d-e9410e7411e3,Grow Venture Partners,company,,,,,,,,ğŸ‡ªğŸ‡¸ Spain,ğŸ‡ªğŸ‡¸ Spain,Top European VCs,"â‚¬5,000,000",2022,
9230132f-6373-43d4-8165-925107ee8b08,Hanaco Venture Capital,company,,,,http://hanacovc.com/,http://hanacovc.com/,,,Israel,Israel,Top European VCs,"â‚¬64,000,000",2017,
9707b5d6-07c9-413a-9af2-9e629d07e323,Hardware Club,company,,,,hardwareclub.co,hardwareclub.co,,,San Francisco,San Francisco,Top European VCs,"â‚¬45,000,000",2017,"Bpifrance, CrÃ©dit Mutuel ArkÃ©a, Foxconn, Mistletoe, Draper Esprit"
c26b8fdb-2ab8-42ce-b3f3-8d96133b9498,Heal Capital,company,,,,https://healcapital.com/,https://healcapital.com/,,,Germany,Germany,Top European VCs,"â‚¬100,000,000",2020,German Private Health Insurance Association (PKV)
50c15a3b-6a52-4773-8007-9e0f3396c542,Fuel Ventures,company,,,,https://fuel.ventures/,https://fuel.ventures/,,,"145 City Rd, Hoxton, London, EC1V 1AZ, UK","145 City Rd, Hoxton, London, EC1V 1AZ, UK",Top European VCs,"â‚¬52,000,000",2021,
e34e3443-542e-4991-8a30-5c686bca2c62,Fund F,company,,,,,,,,ğŸ‡¦ğŸ‡¹ Austria,ğŸ‡¦ğŸ‡¹ Austria,Top European VCs,"â‚¬12,500,000",2022,"Austria Wirtschaftsservice GmbH, Raiffeisen Landesbank Steiermark, Hansi Hansmann, Speedinvest"
6dcf1416-9518-46cd-b814-af234450ef22,FundTMT,company,,It becomes the third fund under management by Spark Impact Limited.,,http://www.fundtmt.com/,http://www.fundtmt.com/,,,ğŸ‡¬ğŸ‡§ UK,ğŸ‡¬ğŸ‡§ UK,Top European VCs,"â‚¬5,700,000",2017,
cd26d421-ec20-41a4-be65-3830c96f51ea,Furthr VC,company,,,,,,,,ğŸ‡®ğŸ‡ª Ireland,ğŸ‡®ğŸ‡ª Ireland,Top European VCs,"â‚¬32,000,000",2019,Enterprise Ireland (EI)
561d28c3-f065-4251-9060-22133f1649e0,Fusion,company,,VC & accelerator for Israeli start-ups in the US. We empower great entrepreneurs to build their dream companies.,,https://www.fusion-vc.com/,https://www.fusion-vc.com/,,,California,California,Top European VCs,"â‚¬20,000,000",2023,"Insight Partners, Gigi Levy-Weiss, Liad Agmon, Ofer Ben-Noon"
dd68b469-6815-4399-952b-229c329f7755,Future Energy Ventures,company,,,,https://fev.vc,https://fev.vc,,,"Rellinghauser Str. 27, Essen, Nordrhein-Westfalen 45128, DE","Rellinghauser Str. 27, Essen, Nordrhein-Westfalen 45128, DE","All VCs ,Top European VCs",,2022,E.On
da617776-1d99-4f68-8841-1449d643bf16,Future Food Fund,company,,Future Food Fund is a corporate venture capital company that specializes in the field of food.,,https://futurefoodfund.nl/,https://futurefoodfund.nl/,,,ğŸ‡³ğŸ‡± Netherlands,ğŸ‡³ğŸ‡± Netherlands,Top European VCs,"â‚¬20,000,000",2023,"Wageningen University & Research, Oost NL, NO"
470b7097-1e35-4887-a2be-a6a80e3b03e3,Future Industry Ventures,company,,,,https://futureindustry.vc/,https://futureindustry.vc/,,,ğŸ‡©ğŸ‡ª Germany,ğŸ‡©ğŸ‡ª Germany,Top European VCs,"â‚¬200,000,000",2020,"SBI Holdings, Redstone Digital"
a648b29a-b494-4b76-b571-b37a101ca9fb,Future Positive Capital,company,,,,https://www.futurepositivecapital.com/,https://www.futurepositivecapital.com/,,,"France,UK,Switzerland,Belgium,Spain,Portugal,Italy,Germany,Netherlands,Luxembourg,Denmark,Norway,Sweden,Latvia","France,UK,Switzerland,Belgium,Spain,Portugal,Italy,Germany,Netherlands,Luxembourg,Denmark,Norway,Sweden,Latvia",Top European VCs,"â‚¬50,000,000",2019,"European Investment Fund (EIF), Isomer Capital, Bpifrance, Draper Esprit, Walter Butler, Henri de Castries, Marie Eriksson, Robin Klein, Francois Lemarchand"
432ec45e-c333-4160-af7a-c75a8cd05049,Futuristic.VC,company,,,,,,,,ğŸ‡©ğŸ‡° Denmark,ğŸ‡©ğŸ‡° Denmark,Top European VCs,"â‚¬1,340,000",2017,
7e02002b-3989-4121-8845-e113182a9dab,Gaia Capital Partners,company,,,,https://www.gaiacap.co/,https://www.gaiacap.co/,,,"France,Germany,USA,UK,Sweden,Norway,Denmark,Finland,Spain,Italy,Belgium,Austria,Netherlands","France,Germany,USA,UK,Sweden,Norway,Denmark,Finland,Spain,Italy,Belgium,Austria,Netherlands",Top European VCs,"â‚¬250,000,000",2019,"Sycomore Asset Management, Generali Investments, Bpifrance"
3e2518a5-d819-4b65-a8a4-cd1b62e95b73,Galion.exe,company,,,,,,,,ğŸ‡«ğŸ‡· France,ğŸ‡«ğŸ‡· France,Top European VCs,"â‚¬30,000,000",2022,
3ba70c04-90eb-492f-a82c-2926ba7d5c11,Gapminder Ventures Partners,company,,,,,,,,ğŸ‡·ğŸ‡´ Romania,ğŸ‡·ğŸ‡´ Romania,Top European VCs,"â‚¬36,000,000",2017,European Investment Fund (EIF)
33ac9830-db46-464d-b07d-375e620009d8,Giant Ventures,company,,,,https://www.giant.vc/,https://www.giant.vc/,,,"London,Copenhagen,LA","London,Copenhagen,LA",Top European VCs,,2020,"Northzone IX, Philippe Jabre, Ian Davis, Tom Chapman, Brian Paes-Braga"
c6643ae1-b7dd-4130-9d63-c82096a5a9aa,Glilot Capital Partners,company,,,,http://glilotcapital.com,http://glilotcapital.com,,,ğŸ‡®ğŸ‡± Israel,ğŸ‡®ğŸ‡± Israel,Top European VCs,"â‚¬200,000,000",2022,
2a64e130-2b62-4899-a4bd-f5d017e9e8d8,GMG Ventures,company,,,,,,,,ğŸ‡¬ğŸ‡§ UK,ğŸ‡¬ğŸ‡§ UK,Top European VCs,"â‚¬46,900,000",2017,Guardian Media Group
96c122f9-8cee-4a05-8716-16757075a97a,GO Capital,company,,,,,,,,ğŸ‡«ğŸ‡· France,ğŸ‡«ğŸ‡· France,Top European VCs,"â‚¬14,000,000",2023,"RÃ©gion, MÃ©tropoles de Tours, Revicentre, CrÃ©dit Agricole Centre Loire, Banque Populaire Val de France, Caisse dâ€™Epargne Loire Centre, Michelin, AgglomÃ©ration de Chartres, CrÃ©dit Agricole Val de Franc"
216939a4-25de-4b60-b2e9-1c07289841f7,GoHub Ventures,company,,,,https://gohub.vc/en/,https://gohub.vc/en/,,,ğŸ‡ªğŸ‡¸ Spain,ğŸ‡ªğŸ‡¸ Spain,Top European VCs,"â‚¬60,000,000",2022,Global Omnium
99a24a5b-de2a-4c46-a183-4c29192261c1,Good Company,company,,,,https://goodcompanyhq.com,https://goodcompanyhq.com,,,"Shadal 3, Tel Aviv, Israel","Shadal 3, Tel Aviv, Israel",Top European VCs,"â‚¬25,500,000",2021,Eytan Stibbe
f361d4d4-93fb-4aca-8724-4108396b79b6,Gorilla Capital,company,,,,,,,,ğŸ‡³ğŸ‡´ Norway,ğŸ‡³ğŸ‡´ Norway,Top European VCs,"â‚¬20,000,000",2018,
fb43d680-b019-40fc-b693-1f898e1996b1,GP Bullhound,company,,,,http://www.gpbullhound.com/,http://www.gpbullhound.com/,,,ğŸ‡¬ğŸ‡§ UK,ğŸ‡¬ğŸ‡§ UK,Top European VCs,"â‚¬300,000,000",2020,European Investment Fund (EIF)
e0d860c3-3270-47f1-8316-e8c0ce44017d,GR Capital,company,,,,,,,,ğŸ‡ºğŸ‡¦ Ukraine,ğŸ‡ºğŸ‡¦ Ukraine,Top European VCs,"â‚¬30,000,000",2022,
5738083e-c4bb-469f-9230-e80f09f07945,Greencode Ventures,company,,Greencode Ventures invests in the most impactful early-phase digital-first green transition startups in Europe.,,greencode.vc,greencode.vc,,,"Helsinki, Finland","Helsinki, Finland",Top European VCs,"â‚¬25,000,000",2023,Business Finland Venture Capital Ltd (BFVC)
afd7a56f-0ccc-4c86-b879-745882c1a73f,Greenfield One,company,,,,https://greenfield.one/,https://greenfield.one/,,,ğŸ‡©ğŸ‡ª Germany,ğŸ‡©ğŸ‡ª Germany,Top European VCs,"â‚¬135,000,000",2021,"Swisscom, Galaxy Digital, Bertelsmann, Lennertz & Co., CommerzVentures, Aldea Ventures"
23040e95-8ab5-40eb-887a-87435fe74a95,Greenfield Partners,company,,,,http://greenfieldlp.com/,http://greenfieldlp.com/,,,ğŸ‡®ğŸ‡± Israel,ğŸ‡®ğŸ‡± Israel,"All VCs ,Top European VCs","â‚¬345,000,000",2022,
0e7d1d6c-604d-40d8-9b90-c6f5196ce93c,Green Generation Fund,company,,,,,,,,ğŸ‡©ğŸ‡ª Germany,ğŸ‡©ğŸ‡ª Germany,Top European VCs,"â‚¬100,000,000",2022,"Kaltroco, Florian Wendelstadt, Canica, Corecam Capital Partners, Liesner & Co., Equation, Aldea, KfW Capital"
edc053d5-adbd-40a9-8f52-87abf7e7c376,Grove Ventures,company,,,,https://www.grovevc.com/,https://www.grovevc.com/,,,"3 HaNechoshet St., Tel Aviv, Israel 6971915, IL","3 HaNechoshet St., Tel Aviv, Israel 6971915, IL","All VCs ,Top European VCs","â‚¬170,000,000",2022,
ab5ed6b6-0f98-481e-ae02-30501bc72220,Growth Partners Capital,company,,,,,,,,ğŸ‡µğŸ‡¹ Portugal,ğŸ‡µğŸ‡¹ Portugal,Top European VCs,"â‚¬28,000,000",2023,"Portugal Blue, InvestEU"
0f3f4872-295f-4a73-a51d-e9410e7411e3,Grow Venture Partners,company,,,,,,,,ğŸ‡ªğŸ‡¸ Spain,ğŸ‡ªğŸ‡¸ Spain,Top European VCs,"â‚¬5,000,000",2022,
9230132f-6373-43d4-8165-925107ee8b08,Hanaco Venture Capital,company,,,,http://hanacovc.com/,http://hanacovc.com/,,,Israel,Israel,Top European VCs,"â‚¬64,000,000",2017,
9707b5d6-07c9-413a-9af2-9e629d07e323,Hardware Club,company,,,,hardwareclub.co,hardwareclub.co,,,San Francisco,San Francisco,Top European VCs,"â‚¬45,000,000",2017,"Bpifrance, CrÃ©dit Mutuel ArkÃ©a, Foxconn, Mistletoe, Draper Esprit"
98b77732-f132-41de-8f03-9958e9921cc6,Headline,company,,Headline is a global venture capital firm investing in winning teams across stages and geographies.,,http://headline.com,http://headline.com,,,ğŸ‡©ğŸ‡ª Germany,ğŸ‡©ğŸ‡ª Germany,"All VCs ,Top European VCs","â‚¬320,000,000",2022,
c26b8fdb-2ab8-42ce-b3f3-8d96133b9498,Heal Capital,company,,,,https://healcapital.com/,https://healcapital.com/,,,Germany,Germany,Top European VCs,"â‚¬100,000,000",2020,German Private Health Insurance Association (PKV)
5ff140ca-01b6-486f-9245-f46b73233912,Heartcore Capital,company,,Heartcore is a venture capital firm that invests in companies that use technology to change people's lives for the better.,,http://www.heartcore.com/,http://www.heartcore.com/,,,ğŸ‡©ğŸ‡° Denmark,ğŸ‡©ğŸ‡° Denmark,"All VCs ,Top European VCs","â‚¬42,600,000",2021,"European Investment Fund (EIF), Phillip Chambers, Kasper Hulthin, Paul Crusius, Marco Vietor, Morten Strunge, Max-Josef Meier, Hermann Haraldsson"
2262a704-4c62-4454-8abe-ac50db54d2b0,Heartfelt,company,,,,,,,,ğŸ‡©ğŸ‡ª Germany,ğŸ‡©ğŸ‡ª Germany,Top European VCs,"â‚¬80,000,000",2023,"Axel Springer, Porsche, Anja Hendel (diconium), Florian Klages (torq.partners)"
4e4cc85b-7699-4a03-a195-4b9a5ee56e92,Helen Ventures,company,hello@helenventures.fi,"Helen Ventures invests 50 million euros in the most innovative European startups in the energy, e-mobility and digital solutions sectors.",hello@helenventures.fi,https://www.helenventures.fi/,https://www.helenventures.fi/,,,ğŸ‡³ğŸ‡´ Norway,ğŸ‡³ğŸ‡´ Norway,"Corporate Venture Arms,Top European VCs","â‚¬50,000,000",2019,Helen
81870d9c-bbe3-4c14-b711-0c57c06260e2,Helvetia Venture Fund,company,,,,,,,,ğŸ‡¨ğŸ‡­ Switzerland,ğŸ‡¨ğŸ‡­ Switzerland,Top European VCs,"â‚¬51,150,000",2017,Helvetia
7e5cd446-18d6-4d1d-b9a3-5ef1996b3c0f,HenQ,company,,,,,,,,ğŸ‡³ğŸ‡± Netherlands,ğŸ‡³ğŸ‡± Netherlands,Top European VCs,"â‚¬70,000,000",2020,European Investment Fund (EIF)
76179fc3-f2eb-4e3e-8d01-32de13f5cb2c,Hetz Ventures,company,,,,https://www.hetz.vc,https://www.hetz.vc,,,ğŸ‡®ğŸ‡± Israel,ğŸ‡®ğŸ‡± Israel,"All VCs ,Top European VCs","â‚¬115,000,000",2022,
acff009c-670e-4a49-8cd8-be1ca7da8f17,Highland Europe,company,,"Highland Europe is a growth-stage technology fund that invests in European internet, mobile, and software companies.",,http://www.highlandeurope.com/,http://www.highlandeurope.com/,,,ğŸ‡¨ğŸ‡­ Switzerland,ğŸ‡¨ğŸ‡­ Switzerland,"All VCs ,Top European VCs","â‚¬1,000,000,000",2023,
a4aa7b0a-6f6f-4e78-abc2-68b50934e422,High-Tech GrÃ¼nderfonds (HTGF),company,,,,,,,,ğŸ‡©ğŸ‡ª Germany,ğŸ‡©ğŸ‡ª Germany,Top European VCs,"â‚¬493,800,000",2022,"German Federal Ministry for Economic Affairs and Climate Action (BMWK), KfW Capital and many othersÂ https://www.htgf.de/en/about-us/fund-investors/"
8b39572a-a31e-4bfc-9bd2-f31bbb125fdf,HI INOV,company,,,,,,,,ğŸ‡«ğŸ‡· France,ğŸ‡«ğŸ‡· France,Top European VCs,"â‚¬90,000,000",2018,"DENTRESSANGLE holding company, SNCF Group and Caisse dâ€™Epargne RhÃ´ne Alpes, Rothschild & Co"
2a3e8d57-78ff-4f65-a510-603b800fa907,Hiro Capital,company,,,,https://hiro.capital/,https://hiro.capital/,,,ğŸ‡¬ğŸ‡§ UK,ğŸ‡¬ğŸ‡§ UK,"All VCs ,Top European VCs","â‚¬300,000,000",2022,
2c790ff1-93d7-47be-a3a3-c6da6e57dba3,Holtzbrinck Ventures,company,,,,,,,,ğŸ‡©ğŸ‡ª Germany,ğŸ‡©ğŸ‡ª Germany,Top European VCs,"â‚¬306,000,000",2018,European Investment Fund (EIF)
f7730232-fdfe-4e91-ac8a-0f019ea5f5c1,Hoxton Ventures,company,,,,https://www.hoxtonventures.com/,https://www.hoxtonventures.com/,,,UK,UK,"All VCs ,Top European VCs","â‚¬196,000,000",2022,"Isomer Capital, Rothshild Foundation, All Iron Ventures"
494d0780-1b27-482c-bd60-b7c45b3c6d0c,Hummingbird Ventures,company,,,,https://www.hummingbird.vc/,https://www.hummingbird.vc/,,,"London, United Kingdom","London, United Kingdom","All VCs ,Top European VCs","â‚¬50,000,000",2020,
a5146351-8e22-4d26-af47-aead7c565b1e,HV Capital,company,,HV Capital is a venture capital firm that supports founders in developing their internet companies.,,https://www.hvcapital.com/,https://www.hvcapital.com/,,,Germany,Germany,"All VCs ,Top European VCs","â‚¬710,000,000",2023,
1d9a9fb1-bccd-4315-b82e-982e2f13f507,i3 Equity Partners,company,,,,https://www.i3equity.com/,https://www.i3equity.com/,,,ğŸ‡®ğŸ‡± Israel,ğŸ‡®ğŸ‡± Israel,Top European VCs,"â‚¬18,600,000",2016,
d4cb34d4-42c8-44fe-af4e-df69378dbd4c,IBB Ventures (impact),company,,,,,,,,ğŸ‡©ğŸ‡ª Germany,ğŸ‡©ğŸ‡ª Germany,Top European VCs,"â‚¬30,000,000",2023,ERDF
4e406c5e-fc76-458d-8898-f7841af8f0b1,IBB VenturesÂ (seed),company,,,,,,,,ğŸ‡©ğŸ‡ª Germany,ğŸ‡©ğŸ‡ª Germany,Top European VCs,"â‚¬90,000,000",2023,ERDF
4ca1506a-4055-48f2-8dd5-9b43d86baa64,Ibex Investors,company,,,,https://www.ibexinvestors.com/,https://www.ibexinvestors.com/,,,"260 N Josephine St Unit 300, Denver, CO 80206","260 N Josephine St Unit 300, Denver, CO 80206","All VCs ,Top European VCs","â‚¬83,500,000",2020,
9d142c4e-be18-471c-9dc3-fec921a96186,Icebreaker,company,,Open-source professional network,,,,,,ğŸ‡«ğŸ‡® Finland,ğŸ‡«ğŸ‡® Finland,Top European VCs,"â‚¬20,000,000",2021,
2fe16c6b-6b57-48f0-8987-4dfb1394c579,Iceland Venture Studio,company,,,,https://icelandventurestudio.com/,https://icelandventurestudio.com/,,,ğŸ‡®ğŸ‡¸ Iceland,ğŸ‡®ğŸ‡¸ Iceland,Top European VCs,"â‚¬4,500,000",2019,Dattaca Labs
5551b445-5e59-44c0-b40f-8f62aa06c9b3,Icon Ventures,company,,,,https://iconventures.com/,https://iconventures.com/,,,"Palo Alto, California, United States","Palo Alto, California, United States","All VCs ,Top European VCs","â‚¬25,300,000",2021,iconmobile group
fe94b1f9-e499-4462-a220-b17a120c2c21,IdÃ©kapital,company,,,,,,,,ğŸ‡³ğŸ‡´ Norway,ğŸ‡³ğŸ‡´ Norway,Top European VCs,"â‚¬50,000,000",2017,"Jan Haudemann-Andersen, Kristian Siem, Oslo Pensjonsforsikring AS"
150b7ce1-0def-463f-a2fd-2d4265e6713a,Idinvest Growth Fund,company,,,,,,,,ğŸ‡«ğŸ‡· France,ğŸ‡«ğŸ‡· France,Top European VCs,"â‚¬250,000,000",2016,Bpifrance
518c1dfb-18b5-4489-b741-1dd86c36a737,Idinvest Partners,company,,,,,,,,ğŸ‡«ğŸ‡· France,ğŸ‡«ğŸ‡· France,Top European VCs,"â‚¬350,000,000",2018,Bpifrance
572c49a9-15a5-4522-a498-0accd0f1e929,IÃ°unn,company,,,,,,,,ğŸ‡®ğŸ‡¸ Iceland,ğŸ‡®ğŸ‡¸ Iceland,Top European VCs,"â‚¬44,000,000",2021,
12922ef3-043f-4c70-a996-8878a02d8903,Illuminate Financial,company,,,,"www.illuminatefinancial,com","www.illuminatefinancial,com",,,ğŸ‡¬ğŸ‡§ UK,ğŸ‡¬ğŸ‡§ UK,Top European VCs,"â‚¬84,000,000",2019,"IHS Markit, Deutsche BÃ¶rse Group, Draper Esprit, Barclays, JP Morgan"
0457a848-43e4-47f5-b17e-8df7a2ce973c,Imec.xpand,company,,,,,,,,ğŸ‡§ğŸ‡ª Belgium,ğŸ‡§ğŸ‡ª Belgium,Top European VCs,"â‚¬150,000,000",2022,
8a5a5e85-5a7f-4f03-80ba-632899b2355d,Indaco Venture Partners,company,,"Asset Management, Electronics, Financial Services, Robotics, Venture Capital",,https://www.indacosgr.com/,https://www.indacosgr.com/,,,Italy,Italy,"VC Founds - Seed - US/Europe,Top European VCs","â‚¬130,000,000",2018,"Intesa Sanpaolo, Fondo Italiano d'Investimento, Fondazione Cariplo"
91e56d01-f1d2-4598-8a6c-00777437b85a,Index Growth,company,,,,,,,,ğŸ‡¬ğŸ‡§ UK,ğŸ‡¬ğŸ‡§ UK,Top European VCs,"â‚¬1,700,000,000",2021,
558268c7-c705-4762-8304-ead81d7348d9,Index Ventures,company,,Index Ventures is a venture capital firm that helps the entrepreneurs turn bold ideas into global businesses.,,https://www.indexventures.com/,https://www.indexventures.com/,,,"San Francisco, California, United States","San Francisco, California, United States","All VCs ,Top European VCs","â‚¬765,000,000",2021,
0f01f71c-63dc-4a69-939a-067b6b65cda5,Index Ventures [50% Europe],company,,,,,,,,ğŸ‡¬ğŸ‡§ UK,ğŸ‡¬ğŸ‡§ UK,Top European VCs,"â‚¬500,000,000",2016,
499ca0fb-f5f0-41bd-ad36-7d7593d45d95,Index Ventures Origin,company,,,,,,,,ğŸ‡¬ğŸ‡§ UK,ğŸ‡¬ğŸ‡§ UK,Top European VCs,"â‚¬290,000,000",2022,
a8d25180-c04d-4bec-aafb-e94a5292c81b,Indico Blue Fund,company,,,,,,,,ğŸ‡µğŸ‡¹ Portugal,ğŸ‡µğŸ‡¹ Portugal,Top European VCs,"â‚¬36,000,000",2022,
acc8f154-bd2e-4046-9d50-ff95f861d987,Indico Capital Partners,company,,Indico Capital Partners is the leading independent Venture Capital firm in Portugal investing in global technology companies.,,https://www.indicocapital.com/,https://www.indicocapital.com/,,,ğŸ‡µğŸ‡¹ Portugal,ğŸ‡µğŸ‡¹ Portugal,Top European VCs,"â‚¬12,000,000",2020,
34e3477d-8cc7-4c1d-b20f-e262391d622f,ING Ventures,company,ventures@ing.com,ING Ventures is the venture capital arm of ING.,ventures@ing.com,https://www.ing.com/About-us/ING-Ventures.htm,https://www.ing.com/About-us/ING-Ventures.htm,,,"Amsterdam, Noord-Holland, The Netherlands","Amsterdam, Noord-Holland, The Netherlands","Corporate Venture Arms,Top European VCs","â‚¬300,000,000",2017,ING Bank
04df9f1f-27a3-45c8-8b4c-b663871d8412,INKEF Capital,company,,,,,,,,ğŸ‡³ğŸ‡± Netherlands,ğŸ‡³ğŸ‡± Netherlands,Top European VCs,"â‚¬300,000,000",2016,ABP
a6ef5250-5aab-4853-99d0-463924b3b3f9,Innovation Capital,company,,EUR 21.1 million Pre-Seed and Seed Venture Fund with Acceleration program / Sector-agnostic / Geographic preference: Eastern Europe,,innovationcapital.bg,innovationcapital.bg,,,ğŸ‡§ğŸ‡¬ Bulgaria,ğŸ‡§ğŸ‡¬ Bulgaria,Top European VCs,"â‚¬15,600,000",2020,Fund Manager of Financial Instruments in Bulgaria
280d630c-2a24-4bb6-a35d-ca5a1b6703aa,Innovation Industries,company,,,,https://www.innovationindustries.com/,https://www.innovationindustries.com/,,,"Pietersbergweg 285, Amsterdam, Noord-Holland 1105 BM, NL","Pietersbergweg 285, Amsterdam, Noord-Holland 1105 BM, NL",Top European VCs,"â‚¬150,000,000",2019,"Pensioenfonds Metaal en Techniek, Pension Fund Metalektro, European Investment Fund (EIF)"
09d7032b-2bad-45d2-a80b-94b412164d79,Innovation Nest,company,,,,https://www.innovationnest.co/,https://www.innovationnest.co/,,,Ludwinowska 7/8 31-103 Krakow Poland,Ludwinowska 7/8 31-103 Krakow Poland,Top European VCs,"â‚¬15,000,000",2017,European Investment Fund (EIF)
eccc7f60-5d37-45a4-9822-3e9622fdf6b1,Innovestor,company,,,,,,,,ğŸ‡«ğŸ‡® Finland,ğŸ‡«ğŸ‡® Finland,Top European VCs,"â‚¬30,000,000",2020,Mandatum Life
f1c6f330-397b-4506-9503-0bbc68244267,Inovo VC,company,,,,,,,,ğŸ‡µğŸ‡± Poland,ğŸ‡µğŸ‡± Poland,Top European VCs,"â‚¬50,000,000",2022,"RafaÅ‚ Brzoska, Damian ZapÅ‚ata, WaÅ‚ach family"
980bea2e-8df3-4297-8300-86b53d51fea9,Inovo Venture Partners,company,,,,https://inovo.vc/,https://inovo.vc/,,,"al. Jerozolimskie 93, 02-001 Warsaw, Poland","al. Jerozolimskie 93, 02-001 Warsaw, Poland",Top European VCs,"â‚¬54,000,000",2020,European Investment Fund (EIF)
f4e962ac-6e22-448e-b462-57d5db10ccb7,InReach Ventures,company,,,,www.linkedin.com/company/inreach-ventures,www.linkedin.com/company/inreach-ventures,,,ğŸ‡¬ğŸ‡§ UK,ğŸ‡¬ğŸ‡§ UK,Top European VCs,"â‚¬53,000,000",2019,The Oxford Funds Corporate Trustee
ea75dc51-33dd-41d2-9183-2934a6df44e5,Inventure,company,,,,https://inventure.vc/,https://inventure.vc/,,,"Lapinlahdenkatu 16, Helsinki, Southern Finland FI","Lapinlahdenkatu 16, Helsinki, Southern Finland FI",Top European VCs,"â‚¬144,000,000",2022,"European Investment Fund (EIF), Ilmarinen, Molten Ventures, OP, Finnish Industry Investment Tesi, Nordea Finland, Nordea Sweden"
01fd6de1-2727-4822-b7d9-f6efaebcd852,Inventure Partners,company,,,,,,,,ğŸ‡·ğŸ‡º Russia,ğŸ‡·ğŸ‡º Russia,Top European VCs,"â‚¬136,500,000",2016,"Sergey Azatyan, Anton Inshutin"
528e3022-d2ce-44be-96d3-18bbc79195e3,Inventures,company,,Accelerator / Seed Stage Investor,,inventures.com,inventures.com,,,San Ramon,San Ramon,Top European VCs,"â‚¬33,000,000",2018,SociÃ©tÃ© Federal de Participations et d'Investissement (SFPI)
74fd409c-a72a-4f9e-8fd8-976f2c26e75b,IN-Ventures,company,,,,,,,,ğŸ‡®ğŸ‡± Israel,ğŸ‡®ğŸ‡± Israel,Top European VCs,"â‚¬150,000,000",2022,
f11569b5-40ab-44aa-88db-4ae405f75e02,Inveready,company,,,,https://inveready.com/,https://inveready.com/,,,ğŸ‡ªğŸ‡¸ Spain,ğŸ‡ªğŸ‡¸ Spain,Top European VCs,"â‚¬54,000,000",2019,
34c8b262-a815-4deb-b5a6-c2f64ec8273a,Invest-NL,company,,,,,,,,ğŸ‡³ğŸ‡± Netherlands,ğŸ‡³ğŸ‡± Netherlands,Top European VCs,"â‚¬250,000,000",2022,"Ministry of Economic Affairs and Climate Policy, Invest-NL"
bbd8e561-912d-4dc7-9dd8-c34f008ace48,IQ Capital,company,,,,https://iqcapital.vc/,https://iqcapital.vc/,,,"95 Regent Street Cambridge, CB2 1AW, United Kingdom","95 Regent Street Cambridge, CB2 1AW, United Kingdom",Top European VCs,"â‚¬186,000,000",2023,British Patient Capital (BPC)
1a609f42-7556-4d0f-80ff-b84dd9ce8832,IQ Capital (Growth),company,,,,,,,,ğŸ‡¬ğŸ‡§ UK,ğŸ‡¬ğŸ‡§ UK,Top European VCs,"â‚¬186,000,000",2023,British Patient Capital (BPC)
9056b871-75f8-4716-ac5c-f22b0175bd61,Ireland AgTech Fund,company,,,,,,,,ğŸ‡®ğŸ‡ª Ireland,ğŸ‡®ğŸ‡ª Ireland,Top European VCs,"â‚¬20,000,000",2017,Ireland Strategic Investment Fund (ISIF)
5c3d9c11-856c-48d0-92ff-dc4ac94cd80c,Iris,company,,,,https://www.linkedin.com/sales/company/250894?_ntb=IRSjSRSlTcmYhPsRhiLRxw%3D%3D,https://www.linkedin.com/sales/company/250894?_ntb=IRSjSRSlTcmYhPsRhiLRxw%3D%3D,,,ğŸ‡«ğŸ‡· France,ğŸ‡«ğŸ‡· France,Top European VCs,"â‚¬150,000,000",2022,"Orange, Publicis, Bpifrance, Fred Potter, Yannis Yahiaoui, Amirhossein Malekzadeh, GrÃ©goire Delpit, Patrick Asdaghi, Adrien Nussenbaum"
90f0727a-2963-4fa5-b34f-4fba271bc5f7,IrisNext,company,,,,,,,,ğŸ‡«ğŸ‡· France,ğŸ‡«ğŸ‡· France,Top European VCs,"â‚¬250,000,000",2017,"Publicis, Valeo, Orange, Bpifrance, BRED Banque Populaire"
b5f9a319-950d-498d-8ad5-76ed781cde42,Iris Ventures,company,,,,,,,,ğŸ‡ªğŸ‡¸ Spain,ğŸ‡ªğŸ‡¸ Spain,Top European VCs,"â‚¬100,000,000",2021,Altamar
80b734e1-2086-49c6-9d21-11fc744a556a,Iron Capital,company,,,,,,,,ğŸ‡¬ğŸ‡§ UK,ğŸ‡¬ğŸ‡§ UK,Top European VCs,"â‚¬10,000,000",2016,
ce07ba43-2ef2-4b96-b59e-6e2d07f5b8d5,Iron Wolf Capital,company,,,,https://www.ironwolfcapital.com/,https://www.ironwolfcapital.com/,,,"Vilnius,London","Vilnius,London",Top European VCs,"â‚¬16,000,000",2019,Invega
9765008d-c28c-4e05-88dc-c21f07aa4335,ISAI Cap Venture,company,,,,,,,,ğŸ‡«ğŸ‡· France,ğŸ‡«ğŸ‡· France,Top European VCs,"â‚¬90,000,000",2019,Capgemini
04c64c51-2053-40b0-9347-bbb3154cc1a8,ISAI Venture,company,,,,,,,,ğŸ‡«ğŸ‡· France,ğŸ‡«ğŸ‡· France,Top European VCs,"â‚¬120,000,000",2020,
305c0c59-b4c0-4c07-a20f-3ecdd1f115ac,Isomer Capital,company,,,,https://isomercapital.com/,https://isomercapital.com/,,,ğŸ‡¬ğŸ‡§ UK,ğŸ‡¬ğŸ‡§ UK,Top European VCs,"â‚¬100,000,000",2021,
90d36731-d3b1-4ab0-bfc1-d2b590bcac7f,JAL Ventures,company,,"Finance, Financial Services, Venture Capital",,http://www.jalventures.com,http://www.jalventures.com,,,ğŸ‡®ğŸ‡± Israel,ğŸ‡®ğŸ‡± Israel,"All VCs ,VC Founds - Seed - US/Europe,Top European VCs","â‚¬51,750,000",2017,
73fc7b9b-6d0d-4591-be25-840864eee4f2,JamJar Investments,company,,"Finance, Financial Services, Venture Capital",,http://www.jamjarinvestments.com/,http://www.jamjarinvestments.com/,,,ğŸ‡¬ğŸ‡§ UK,ğŸ‡¬ğŸ‡§ UK,"European Family Offices' Founders ,VC Founds - Seed - US/Europe,Top European VCs","â‚¬120,000,000",2022,British Business Bank (BBB)
6756986e-19ef-43cd-9c32-b71d0d391107,Jenson Funding Partners,company,,,,https://jensonfundingpartners.com,https://jensonfundingpartners.com,,,"Runway East, 20 St Thomas Street, London, SE1 9RS.","Runway East, 20 St Thomas Street, London, SE1 9RS.",Top European VCs,"â‚¬70,000,000",2022,
aa52821f-c0c8-4e35-a560-4e16a5034d08,Jerusalem Venture Partners,company,,,,,,,,ğŸ‡®ğŸ‡± Israel,ğŸ‡®ğŸ‡± Israel,Top European VCs,"â‚¬195,000,000",2019,Bpifrance
b601ab7c-94cf-44c2-aedd-5e6c31af552f,JME Ventures,company,,,,https://jme.vc/,https://jme.vc/,,,"Juan de Mena 8, 28014 Madrid, Spain","Juan de Mena 8, 28014 Madrid, Spain",Top European VCs,"â‚¬60,000,000",2019,"JosÃ© Manuel Entrecanales, Fond.ICO"
2072a3e3-1582-4457-9de3-60ef2996354b,JOIN Capital,company,,,,join.capital,join.capital,,,ğŸ‡©ğŸ‡ª Germany,ğŸ‡©ğŸ‡ª Germany,Top European VCs,,2017,Draper Esprit
9c4f3318-02c2-4fba-b6e6-b045a962b478,Joyance Partners,company,,"Business Development, Financial Services, Service Industry, Venture Capital",,https://www.joyancepartners.com/,https://www.joyancepartners.com/,,,USA,USA,"All VCs ,VC Founds - Seed - US/Europe,Seed & Series A US VC's ,Top European VCs","â‚¬2,750,000",2019,
be084345-4a60-4b54-b52d-8f660b2f1eba,Karma Ventures,company,,,,https://www.karma.vc/,https://www.karma.vc/,,,"Toompuiestee 33a, Tallinn, Harjumaa 10149, EE","Toompuiestee 33a, Tallinn, Harjumaa 10149, EE",Top European VCs,"â‚¬100,000,000",2021,"Baltic Innovation Fund 2 (BIF 2), Jaan Tallinn, Ahti Heinla, Till Quack, Jani Huoponen, Sergei Anikin, Isomer Capital, ASI, Swedbank, LHV, Tesi"
9091c1f9-3cc5-4c56-86a4-9c66c91ea0fc,Kaya VC,company,,,,,,,,ğŸ‡¨ğŸ‡¿ Czech Republic,ğŸ‡¨ğŸ‡¿ Czech Republic,Top European VCs,"â‚¬72,000,000",2021,European Investment Fund (EIF)
9fc6b9a4-12c3-4d6e-8528-b7fb5c47c68b,KBC Focus Fund,company,,,,https://www.focusfund.be/,https://www.focusfund.be/,,,Belgium,Belgium,Top European VCs,"â‚¬50,000,000",2019,KBC
27ba47ba-529d-42c0-a2a4-236a3f27bb29,KEEN Venture Partners,company,,,,,,,,ğŸ‡³ğŸ‡± Netherlands,ğŸ‡³ğŸ‡± Netherlands,Top European VCs,"â‚¬120,000,000",2021,"European Investment Fund (EIF), KPN Ventures"
20fae935-14ad-438c-942e-11c5fa89bf15,K Fund,company,,"K Fund is a venture capital fund backing founders across Southern Europe and Latin America, from Seed to Series B.",,https://en.kfund.vc/,https://en.kfund.vc/,,,"Calle Juan Bravo 10, 28006, Madrid, Spain","Calle Juan Bravo 10, 28006, Madrid, Spain","All VCs ,Top European VCs","â‚¬70,000,000",2020,
1b31c137-c891-4835-8850-e3fa56300216,Kibo Ventures,company,,Kibo Ventures is a venture capital fund investing in early-stage internet and mobile companies.,,http://kiboventures.com/,http://kiboventures.com/,,,"Calle Zurbano 34, 28010 Madrid","Calle Zurbano 34, 28010 Madrid",Top European VCs,"â‚¬55,000,000",2020,"European Investment Fund (EIF), TelefÃ³nica, La Caixa, Mutua, CDTI, Isomer Capital, Cofides, XES Galicia, ICF, Semapa, Tressis"
1d1b3173-430b-47cf-a58f-abe3b4c68c51,kickfund,company,,,,,,,,ğŸ‡¨ğŸ‡­ Switzerland,ğŸ‡¨ğŸ‡­ Switzerland,Top European VCs,"â‚¬55,000,000",2021,
75734384-683b-4c8a-9ff3-d2b516f309f5,Kiko Ventures,company,,,,,,,,ğŸ‡¬ğŸ‡§ UK,ğŸ‡¬ğŸ‡§ UK,Top European VCs,"â‚¬425,000,000",2022,
6018e1da-41a7-4164-a749-35fc3ebd6096,Kindred Capital,company,,,,https://www.kindredcapital.vc/,https://www.kindredcapital.vc/,,,"First Floor, 44-46 Sekforde Street, London, London EC1R0HA, GB","First Floor, 44-46 Sekforde Street, London, London EC1R0HA, GB",Top European VCs,"â‚¬119,000,000",2023,"University of Chicago, British Patient Capital, Isomer Capital, Industry Ventures, Legal & General"
85a56567-afd1-4e4f-bcaf-e14c3cd9ac47,Kjeller Innovation,company,,,,,,,,ğŸ‡³ğŸ‡´ Norway,ğŸ‡³ğŸ‡´ Norway,Top European VCs,"â‚¬20,000,000",2018,European Investment Fund (EIF)
6e27ddf6-50c0-4127-b8d7-fe1c1a111924,Klima Energy Transition Fund,company,,,,,,,,ğŸ‡ªğŸ‡¸ Spain,ğŸ‡ªğŸ‡¸ Spain,Top European VCs,"â‚¬210,000,000",2021,"Alantra, Enagas, European Investment Fund (EIF)"
fcf98460-5fd1-406c-9ceb-ae10ff1ddfdd,Kohli Ventures,company,,,,https://www.kohliventures.com,https://www.kohliventures.com,,,UK,UK,Top European VCs,"â‚¬23,500,000",2017,Tej Kohli
6f4a3159-8fb3-4274-b710-ed24d0764d98,Korelya Capital,company,,Korelya's mission is to broaden the horizon of European tech companies by providing capital for growth and access to Asian markets.,,http://www.korelyacapital.com/,http://www.korelyacapital.com/,,,"France,UK,Estonia,Spain,Germany,Netherlands","France,UK,Estonia,Spain,Germany,Netherlands",Top European VCs,"â‚¬200,000,000",2016,"Naver, Line"
04ce400a-f031-4917-ae69-29f2d63d255e,Korify Capital,company,,,,,,,,ğŸ‡¨ğŸ‡­ Switzerland,ğŸ‡¨ğŸ‡­ Switzerland,Top European VCs,"â‚¬88,500,000",2021,Infinitas Capital
c5eeb84b-f2d5-4529-8e5e-a70f7e84abda,K&T Capital,company,,,,,,,,ğŸ‡¬ğŸ‡§ UK,ğŸ‡¬ğŸ‡§ UK,Top European VCs,"â‚¬20,000,000",2018,
1068e216-5993-4c4d-ad5b-96405a308128,Kurma Partners,company,,"Biotechnology, Financial Services, Health Care, Health Diagnostics, Life Science",,http://www.kurmapartners.com/,http://www.kurmapartners.com/,,,"France,Germany","France,Germany","VC Founds - Seed - US/Europe,Top European VCs","â‚¬160,000,000",2022,
6e197433-a39b-4903-8629-7d9956d811b1,La Famiglia,company,,La Famiglia is an early-stage venture capital fund backing the best tech entrepreneurs across Europe and the US.,,https://www.lafamiglia.vc/home/,https://www.lafamiglia.vc/home/,,,Germany,Germany,"All VCs ,Top European VCs","â‚¬60,000,000",2020,"Mittal, Pictet, Oetker, Hymer and Swarovski families, Voith Group, Franke, Hapag Lloyd, Solvay, Adidas, Valentino, Niklas ZennstrÃ¶m, Alex Chesterman, Hanno Renner"
fa7d26ab-84b5-4a22-9468-e3c3c638d027,La Famiglia (Seed),company,,,,,,,,ğŸ‡©ğŸ‡ª Germany,ğŸ‡©ğŸ‡ª Germany,Top European VCs,"â‚¬165,000,000",2023,"Ilkka Paananen, Ross Mason, Qasar Younis, Hanno Renner, Michael Wax, family office behind Valentino, Adidas, Swarovski, Hapag Lloyd and EstÃ©e Lauder"
b664a5b4-9783-4ae3-b352-689475121550,La FamigliaÂ (Growth),company,,,,,,,,ğŸ‡©ğŸ‡ª Germany,ğŸ‡©ğŸ‡ª Germany,Top European VCs,"â‚¬90,000,000",2023,"Ilkka Paananen, Ross Mason, Qasar Younis, Hanno Renner, Michael Wax, family office behind Valentino, Adidas, Swarovski, Hapag Lloyd and EstÃ©e Lauder"
c59775e6-b320-4093-9921-cbbb916ce8d2,Lakestar,company,,Lakestar is a venture capital firm investing in technology companies led by exceptional entrepreneurs.,,http://lakestar.com,http://lakestar.com,,,ğŸ‡¨ğŸ‡­ Switzerland,ğŸ‡¨ğŸ‡­ Switzerland,"All VCs ,Top European VCs","â‚¬678,000,000",2019,European Investment Fund (EIF)
2cf5905d-7554-4467-8035-b50e90ce67a9,La Poste Ventures,company,,,,,,,,ğŸ‡«ğŸ‡· France,ğŸ‡«ğŸ‡· France,Top European VCs,"â‚¬35,000,000",2021,La Poste
2c3c4ed2-c30c-4b80-aa7f-c3140cd871cd,Large Ventures,company,,,,,,,,ğŸ‡®ğŸ‡¹ Italy,ğŸ‡®ğŸ‡¹ Italy,Top European VCs,"â‚¬150,000,000",2022,CDP Equity
be86ff4d-49e1-4eeb-9f9d-ea6bfd7d7d21,Latitude,company,,"Latitude is the sister fund to London-based seed investor LocalGlobe, supporting founders from series B onwards.",,https://www.latitudeim.com/,https://www.latitudeim.com/,,,ğŸ‡¬ğŸ‡§ UK,ğŸ‡¬ğŸ‡§ UK,Top European VCs,"â‚¬168,000,000",2021,
90f5c7d2-ef61-4db5-ac3c-b107cb833c58,LauncHub Ventures,company,,,,,,,,ğŸ‡§ğŸ‡¬ Bulgaria,ğŸ‡§ğŸ‡¬ Bulgaria,Top European VCs,"â‚¬74,000,000",2021,"European Investment Fund (EIF), IFC"
73215105-81fe-491f-921f-8bf2553135bd,LAUNCHub Ventures,company,,,,https://launchub.vc,https://launchub.vc,,,"bul. Cherni Vrah 47, floor 4, Sofia, Bulgaria","bul. Cherni Vrah 47, floor 4, Sofia, Bulgaria",Top European VCs,"â‚¬18,000,000",2016,European Investment Fund (EIF)
2e560232-acb1-4916-a86d-b853d200bc4f,Lauxera Capital Partners,company,,Health Care,,lauxera.com,lauxera.com,,,ğŸ‡«ğŸ‡· France,ğŸ‡«ğŸ‡· France,"VC Founds - Seed - US/Europe,Top European VCs","â‚¬100,000,000",2021,"Bpifrance, Covea, Tethys, Compagnie Nationale Ã  Portefeuille, FinanciÃ¨re Dassault and Candriam"
033fa9fe-c3d8-44f3-909c-9eec9912c89f,LcX Opportunity Fund,company,,,,,,,,ğŸ‡±ğŸ‡¹ Lithuania,ğŸ‡±ğŸ‡¹ Lithuania,Top European VCs,"â‚¬32,000,000",2018,Invega
8f2e6e62-970f-4120-a2eb-fb751e7c087b,LeadBlock Partners,company,,,,,,,,ğŸ‡¬ğŸ‡§ UK,ğŸ‡¬ğŸ‡§ UK,Top European VCs,,2022,"GSR, Portofino Technologies, Woorton, Keyrock, Yoann Turpin, Cyrus Fazel"
10db1124-9025-4935-b818-1d0a00ab9a66,Leafy Tunnel,company,,,,,,,,ğŸ‡¬ğŸ‡§ UK,ğŸ‡¬ğŸ‡§ UK,Top European VCs,"â‚¬26,700,000",2022,
1e53e0b5-a26c-4429-88a6-ae25bb2eb205,Ledger Cathay Capital,company,,Ledger Cathay Capital operates as a corporate venture firm operated by Ledger.,,https://www.ledger.com/cathay-ledger-fund,https://www.ledger.com/cathay-ledger-fund,,,ğŸ‡«ğŸ‡· France,ğŸ‡«ğŸ‡· France,Top European VCs,"â‚¬100,000,000",2022,BPIFrance
0893e72b-9e99-4e5b-bf5d-b29644bd8e01,Leta Capital,company,,,,https://en.leta.vc/,https://en.leta.vc/,,,"ulitsa Leninskaya Sloboda 26, Moscow, Moscow City 115280, RU","ulitsa Leninskaya Sloboda 26, Moscow, Moscow City 115280, RU",Top European VCs,"â‚¬84,000,000",2021,
5375b6b3-0497-4055-8926-882b8ae24fd9,Lifeline Ventures,company,,"Finance, Financial Services, FinTech, Venture Capital",,http://www.lifelineventures.com/,http://www.lifelineventures.com/,,,Finland,Finland,"All VCs ,VC Founds - Seed - US/Europe,Top European VCs","â‚¬150,000,000",2023,
8fff360a-90d2-42d1-b0e1-3921bcc7fb4a,Lightbird Ventures,company,,,,https://lightbird.vc/,https://lightbird.vc/,,,"Limmatstrasse 214, 8005 ZÃ¼rich, Switzerland","Limmatstrasse 214, 8005 ZÃ¼rich, Switzerland",Top European VCs,,2021,La MobiliÃ¨re
569e2007-d320-4883-9d53-a21dbab1939b,Lighthouse Ventures,company,,An Early-Stage and Acceleration Venture Capital,,https://lhv.vc/,https://lhv.vc/,,,ğŸ‡¨ğŸ‡¿ Czech Republic,ğŸ‡¨ğŸ‡¿ Czech Republic,Top European VCs,"â‚¬23,000,000",2019,European Investment Fund (EIF)
3f420af4-899e-43cc-aa2a-38b03202e2cb,LIghtshift Capital,company,,,,,,,,ğŸ‡µğŸ‡¹ Portugal,ğŸ‡µğŸ‡¹ Portugal,Top European VCs,"â‚¬26,500,000",2022,"DCG, GSR, LD Capital, Protocol Labs"
87a18f87-fb11-4a55-9c7b-5d50105565a0,LionBird,company,,,,,,,,ğŸ‡®ğŸ‡± Israel,ğŸ‡®ğŸ‡± Israel,Top European VCs,"â‚¬22,500,000",2016,
037de18f-fd62-4253-a4ca-473b79f9a488,Localglobe,company,,,,,,,,ğŸ‡¬ğŸ‡§ UK,ğŸ‡¬ğŸ‡§ UK,Top European VCs,"â‚¬126,000,000",2021,
d1288db0-a998-49da-9072-2dd23d2abc32,London Venture Partners,company,,,,https://londonvp.com/,https://londonvp.com/,,,"7 Portland Mews, London W1F 8JQ","7 Portland Mews, London W1F 8JQ","All VCs ,Top European VCs","â‚¬72,500,000",2019,
5af9d82c-3c61-4f87-8c9e-33481d2810f7,Look AI Ventures,company,,,,,,,,ğŸ‡¨ğŸ‡¿ Czech Republic,ğŸ‡¨ğŸ‡¿ Czech Republic,Top European VCs,"â‚¬20,000,000",2023,"Daniel Kunz, Pavel Rosendorf, and Alexander BrÃ¡nyik"
736bdc34-9718-43fa-8228-7eef7e7b0da7,LT Capital,company,,,,http://ltcapital.vc/,http://ltcapital.vc/,,,"Karola Bunscha 18, 30-392 Cracow, Poland","Karola Bunscha 18, 30-392 Cracow, Poland",Top European VCs,"â‚¬10,000,000",2019,"Movens Capital, National Centre of Research and Development"
1549c28a-a5dc-4cfc-9e51-22ec69852068,Luminar Ventures,company,,,,https://www.luminarventures.com/,https://www.luminarventures.com/,,,ğŸ‡¸ğŸ‡ª Sweden,ğŸ‡¸ğŸ‡ª Sweden,Top European VCs,"â‚¬50,000,000",2018,"European Investment Fund (EIF), Saminvest AB"
7a73e909-5c82-48c5-a850-b94f6c54fb0e,Luminous Ventures,company,,,,https://www.luminous.vc/,https://www.luminous.vc/,,,UK,UK,Top European VCs,"â‚¬25,000,000",2018,
0955240b-5687-4799-8fd0-b6ec41f984fc,Lumo Labs,company,,,,https://lumolabs.io/,https://lumolabs.io/,,,ğŸ‡³ğŸ‡± Netherlands,ğŸ‡³ğŸ‡± Netherlands,Top European VCs,"â‚¬20,000,000",2020,
3302224b-35bf-4d9a-a8b6-2c4b246439b6,Lunar Ventures,company,,,,https://lunarventures.eu/,https://lunarventures.eu/,,,"Danziger StraÃŸe, Berlin, Berlin 10405, DE","Danziger StraÃŸe, Berlin, Berlin 10405, DE",Top European VCs,"â‚¬40,000,000",2021,"Isomer Capital, Multiple Capital, Aldea Ventures, Compagnia di San Paolo, European Investment Fund (EIF)"
46d78420-9b0e-4684-931b-9e064c26e301,M7 Structura,company,,,,,,,,ğŸ‡¬ğŸ‡§ UK,ğŸ‡¬ğŸ‡§ UK,Top European VCs,,2019,M7 Real Estate
3bf3b9dc-69fe-4d3b-81e3-25b84da34bef,makesense SEED,company,,,,https://fund.makesense.org/,https://fund.makesense.org/,,,ğŸ‡«ğŸ‡· France,ğŸ‡«ğŸ‡· France,Top European VCs,"â‚¬8,200,000",2019,"European Investment Fund (EIF), Banque des Territoires, BNP Paribas, Revitalâ€™Emploi"
1227a66c-0112-4303-9f35-f6c23ec72476,Maki.vc,company,,,,www.maki.vc,www.maki.vc,,,ğŸ‡«ğŸ‡® Finland,ğŸ‡«ğŸ‡® Finland,Top European VCs,"â‚¬80,000,000",2018,"Risto Siilasmaaâ€‹, Niklas ZennstrÃ¶m, Ilkka Paananen, Mikko Kodisoja, Mistletoe Venture Partners International, OP Financial Groupâ€‹ Ilmarinen Mutual Pension Insurance Company, Nordea, Varma, Tesi"
269f9cbb-4378-4a05-b6c8-0eb95cf2cacd,Mangrove Capital Partners,company,,,,,,,,ğŸ‡±ğŸ‡º Luxemburg,ğŸ‡±ğŸ‡º Luxemburg,Top European VCs,"â‚¬147,900,000",2017,European Investment Fund (EIF)
2b15a407-f943-48b6-834e-0b40f13e4447,Maniv Mobility,company,,,,https://www.maniv.com/,https://www.maniv.com/,,,"Osvaldo Aranha 4, Tel Aviv, Israel 6107006, IL","Osvaldo Aranha 4, Tel Aviv, Israel 6107006, IL","All VCs ,Top European VCs","â‚¬90,000,000",2019,"Aptiv, BMW, Hyundai, Lear Corp, LG Electronics, Renault-Nissan-Mitsubishi Alliance, Shell, Valeo, Deutsche Bahn Digital Ventures, Carasso Motors"
d8bb8de5-ec11-4a9a-9f90-34be89ad211b,Maor,company,,,,,,,,ğŸ‡±ğŸ‡º Luxemburg,ğŸ‡±ğŸ‡º Luxemburg,Top European VCs,"â‚¬90,000,000",2019,Rothschild & Co
d834de5b-19c7-47c6-871d-eeed59571522,Maor Investments,company,,,,https://www.maorinvestments.com,https://www.maorinvestments.com,,,"28th Haarba'a st, Tel Aviv, Israel 6473927, IL","28th Haarba'a st, Tel Aviv, Israel 6473927, IL",Top European VCs,"â‚¬138,000,000",2022,
86261036-96fb-438e-96b3-0083523a3250,Marathon Ventures,company,,,,,,,,ğŸ‡¬ğŸ‡· Greece,ğŸ‡¬ğŸ‡· Greece,Top European VCs,"â‚¬70,000,000",2020,"European Investment Fund (EIF), Hellenic Development Bank of Investments (HDBI), EBRD"
2fa87b7c-ef6c-40f7-a86b-ecc002939ec6,Market One Capital,company,,"Internet, Marketplace, Venture Capital",,http://moc.vc/,http://moc.vc/,,,ğŸ‡µğŸ‡± Poland,ğŸ‡µğŸ‡± Poland,"VC Founds - Seed - US/Europe,Top European VCs","â‚¬80,000,000",2022,European Investment Fund (EIF)
9667e454-8bc8-4d59-b734-e67bf6b03ce3,Matterwave Ventures,company,,,,,,,,ğŸ‡©ğŸ‡ª Germany,ğŸ‡©ğŸ‡ª Germany,Top European VCs,"â‚¬75,000,000",2023,"European Investment Fund (EIF), LfA Bayern, NRW Bank, ZF Ventures, ZEISS Ventures, Montan-Stiftung-Saar"
8d6a457a-11f4-4d2b-8177-09676ef82937,Maven11,company,,,,https://www.maven11.com/,https://www.maven11.com/,,,ğŸ‡³ğŸ‡± Netherlands,ğŸ‡³ğŸ‡± Netherlands,Top European VCs,"â‚¬106,000,000",2021,
c9bd17ac-5afa-4c91-a03b-5631887e1e06,Maven 11 Capital,company,,,,,,,,ğŸ‡³ğŸ‡± Netherlands,ğŸ‡³ğŸ‡± Netherlands,Top European VCs,"â‚¬40,000,000",2021,
788ea53b-c293-47fc-acd9-31b959fc7809,Merantix,company,,,,http://www.linkedin.com/company/merantix,http://www.linkedin.com/company/merantix,,,ğŸ‡©ğŸ‡ª Germany,ğŸ‡©ğŸ‡ª Germany,Top European VCs,"â‚¬25,000,000",2020,"Trusted Insight, Robert Wood Johnson Foundation, W.K. Kellogg Foundation"
8602cfa9-e213-4ca8-9348-d8b86861423c,Mercia Technologies,company,,,,,,,,ğŸ‡¬ğŸ‡§ UK,ğŸ‡¬ğŸ‡§ UK,Top European VCs,"â‚¬50,000,000",2017,Woodford Investment Management
d76be39f-c916-4a0e-b557-449e807153d4,Metavallon VC,company,,,,https://metavallon.vc/,https://metavallon.vc/,,,"Aetideon 13, Cholargos, Athens, Greece","Aetideon 13, Cholargos, Athens, Greece",Top European VCs,"â‚¬32,000,000",2018,"European Investment Fund (EIF), National Bank of Greece"
3a815ee0-808c-45c8-94ca-dbc9304fe34c,MiddleGame Ventures,company,,,,http://www.middlegamevc.com/,http://www.middlegamevc.com/,,,ğŸ‡®ğŸ‡ª Ireland,ğŸ‡®ğŸ‡ª Ireland,Top European VCs,"â‚¬40,000,000",2022,Enterprise Ireland
24c7a7ef-9169-4a14-b037-c99f557d7d81,Milano Investment Partners,company,,,,,,,,ğŸ‡®ğŸ‡¹ Italy,ğŸ‡®ğŸ‡¹ Italy,Top European VCs,"â‚¬100,000,000",2018,Banco Bpm
26d51b7b-c15a-4fd4-b5f0-cdb5e0aa0fdc,MMC Greater London Fund,company,,,,https://mmc.vc/,https://mmc.vc/,,,ğŸ‡¬ğŸ‡§ UK,ğŸ‡¬ğŸ‡§ UK,Top European VCs,"â‚¬59,000,000",2019,"European Regional Development Fund, European Investment Bank, London Waste and Recycling Board"
d65ebe56-7d39-47e5-b924-12fc26518380,MMC Ventures,company,,"Finance, Financial Services, Venture Capital",,https://www.mmcventures.com,https://www.mmcventures.com,,,UK,UK,"All VCs ,VC Founds - Seed - US/Europe,Top European VCs","â‚¬117,000,000",2019,
efb7867e-45bc-4bb4-bbb7-994288c41552,Moneta Venture Capital,company,,,,,,,,ğŸ‡®ğŸ‡± Israel,ğŸ‡®ğŸ‡± Israel,Top European VCs,"â‚¬120,000,000",2022,Isracard
6d48ecbc-a0ba-497c-8ce4-6d77b57a083f,Monterro Growth,company,,,,,,,,ğŸ‡¸ğŸ‡ª Sweden,ğŸ‡¸ğŸ‡ª Sweden,Top European VCs,"â‚¬150,000,000",2023,
f35a7b25-11ae-41d9-ba56-367be0f4bc77,Moonfire Ventures,company,,,,https://www.moonfire.com/,https://www.moonfire.com/,,,"Mortimer House, 37-41 Mortimer St, London W1T 3JH","Mortimer House, 37-41 Mortimer St, London W1T 3JH",Top European VCs,"â‚¬23,200,000",2023,Molten Ventures
53c8860a-2842-49fa-b9cc-dae5379a7cda,Mosaic Ventures,company,,,,https://www.mosaicventures.com/,https://www.mosaicventures.com/,,,"2-3 Golden Square, 3rd floor, London, England W1F 9HR, GB","2-3 Golden Square, 3rd floor, London, England W1F 9HR, GB",Top European VCs,"â‚¬130,500,000",2018,
fc154b6b-cc19-4865-acc6-c8a6569e431b,Mouro Capital,company,,Mouro Capital is a venture capital firm backing entrepreneurs who are shaping the future of financial services.,,https://www.mourocapital.com/,https://www.mourocapital.com/,,,"1 Dufferin Street, London, England EC1Y 8PD, GB","1 Dufferin Street, London, England EC1Y 8PD, GB","All VCs ,Top European VCs","â‚¬170,000,000",2020,Santander
e160e468-d3de-406c-8758-727dc0cda96a,Movens VC,company,,,,,,,,ğŸ‡µğŸ‡± Poland,ğŸ‡µğŸ‡± Poland,Top European VCs,"â‚¬13,000,000",2020,PFR Ventures
a7f8bff7-bb5f-4cbd-ab09-6b6f237f9fa1,Mubadala Ventures,company,,,,https://www.mubadala.com/en/what-we-do/capital/ventures,https://www.mubadala.com/en/what-we-do/capital/ventures,,,"Abu Dhabi, Abu Dhabi, United Arab Emirates","Abu Dhabi, Abu Dhabi, United Arab Emirates",Top European VCs,"â‚¬400,000,000",2018,Mubadala
189641c9-7d70-49ff-b2ba-a839d8384054,Mustard Seed MAZE,company,,,,,,,,ğŸ‡µğŸ‡¹ Portugal,ğŸ‡µğŸ‡¹ Portugal,Top European VCs,"â‚¬40,000,000",2018,European Investment Fund (EIF)
88d4501c-e93a-41a9-85d8-6069fcb2543f,Mutua Ventures,company,,,,,,,,ğŸ‡ªğŸ‡¸ Spain,ğŸ‡ªğŸ‡¸ Spain,Top European VCs,"â‚¬30,000,000",2022,Mutua MadrileÃ±a
14702d5a-4d89-4697-a214-42491c2a5090,Nauta Capital,company,,,,nautacapital.com,nautacapital.com,,,ğŸ‡¬ğŸ‡§ UK,ğŸ‡¬ğŸ‡§ UK,Top European VCs,"â‚¬190,000,000",2020,"European Investment Fund (EIF), British Patient Capital, ICO,â€¯KfW Capital"
6377eda0-66dc-4ac9-a2b1-395167cf3f27,Nauta Capital Sidecar,company,,,,,,,,ğŸ‡¬ğŸ‡§ UK,ğŸ‡¬ğŸ‡§ UK,Top European VCs,"â‚¬55,000,000",2019,"British Patient Capital, European Investment Fund (EIF), ICF, ICO"
425467da-bc68-4771-88f6-ab0144288c4f,Neoteq Ventures,company,,,,https://www.neoteq.de/,https://www.neoteq.de/,,,ğŸ‡©ğŸ‡ª Germany,ğŸ‡©ğŸ‡ª Germany,Top European VCs,"â‚¬30,000,000",2020,"NRW.BANK, hubraum, Henkel AG, Kreissparkasse KÃ¶ln, Sparkasse KÃ¶lnBonn, Stadtsparkasse DÃ¼sseldorf"
36841445-1fd4-45fd-8a6b-b7cd66cedd3b,Nesta,company,,,,http://nesta.org.uk,http://nesta.org.uk,,,ğŸ‡¬ğŸ‡§ UK,ğŸ‡¬ğŸ‡§ UK,Top European VCs,"â‚¬58,000,000",2022,UK National Lottery endowment
f47fa1a2-b6a8-4162-af64-cb246fe5c793,Nestle,company,,,,,,,,ğŸ‡¨ğŸ‡­ Switzerland,ğŸ‡¨ğŸ‡­ Switzerland,Top European VCs,"â‚¬230,000,000",2020,Nestle
03275e8a-b642-4042-9070-3ecd31874a89,Neva,company,,,,,,,,ğŸ‡®ğŸ‡¹ Italy,ğŸ‡®ğŸ‡¹ Italy,Top European VCs,"â‚¬250,000,000",2022,"Intesa Sanpaolo, Compagnia di San Paolo, Cariparo, Carilucca"
91b131ef-1c24-46ae-a1e3-d89260aa476e,Neva Finventures,company,,Intesa Sanpaolo Corporate Venture Capital,,http://www.group.intesasanpaolo.com,http://www.group.intesasanpaolo.com,,,"Turin, Piemonte, Italy","Turin, Piemonte, Italy","Corporate Venture Arms,Top European VCs","â‚¬100,000,000",2016,Intesa Sanpaolo
7b9adf33-639f-412f-8950-430198c40c9a,NewAlpha,company,,,,,,,,ğŸ‡«ğŸ‡· France,ğŸ‡«ğŸ‡· France,Top European VCs,"â‚¬56,000,000",2017,BPIFrance
eb1b86c8-c80e-4a13-926f-525f6430341f,New Era Capital,company,,,,https://www.neweracp.com/,https://www.neweracp.com/,,,ğŸ‡®ğŸ‡± Israel,ğŸ‡®ğŸ‡± Israel,Top European VCs,"â‚¬50,000,000",2019,
2aeab5a7-42c6-42d9-95ea-1f05884cd84a,New Era Capital Partners,company,,,,,,,,ğŸ‡®ğŸ‡± Israel,ğŸ‡®ğŸ‡± Israel,"All VCs ,Top European VCs","â‚¬130,000,000",2022,
e77f84ea-9a4c-4cf4-9b3f-93b17d57cd83,Newfund,company,,,,newfundcap.com,newfundcap.com,,,ğŸ‡«ğŸ‡· France,ğŸ‡«ğŸ‡· France,"All VCs ,Top European VCs","â‚¬130,000,000",2017,
3a3cfdf1-8551-41b7-9835-01feb4635d79,Newion,company,,,,,,,,ğŸ‡³ğŸ‡± Netherlands,ğŸ‡³ğŸ‡± Netherlands,Top European VCs,"â‚¬130,000,000",2022,"BNP Paribas, PMV, European Investment Fund (EIF), Reggeborgh"
9df5eb88-2ca2-426e-9300-89068e5aa3e3,New Vision 3,company,,,,https://www.newvision3.com/,https://www.newvision3.com/,,,ğŸ‡§ğŸ‡¬ Bulgaria,ğŸ‡§ğŸ‡¬ Bulgaria,Top European VCs,"â‚¬23,000,000",2019,"Neveq Capital, European Structural and Investment Funds"
48249a6b-2d40-45a7-a9c1-0ced17fca828,New Wave,company,,,,https://www.newwave.vc/,https://www.newwave.vc/,,,"France,UK,Germany,Sweden,Norway,Finland,Spain","France,UK,Germany,Sweden,Norway,Finland,Spain",Top European VCs,"â‚¬50,000,000",2020,Xavier Niel
7df8b656-6c4d-4290-8c34-6ba148d8d9f7,Next Gear Ventures,company,,,,https://www.nextgear.fund/,https://www.nextgear.fund/,,,ğŸ‡®ğŸ‡± Israel,ğŸ‡®ğŸ‡± Israel,Top European VCs,"â‚¬27,000,000",2019,"Mayer's Cars and Trucks, Ituran Location and Control, Hertz, Volvo Group"
13365177-9612-4dfa-92ca-2a6633583818,Nina Capital,company,,,,https://www.nina.capital/,https://www.nina.capital/,,,"Carrer de Tuset 20, 5, 08006 Barcelona Spain","Carrer de Tuset 20, 5, 08006 Barcelona Spain",Top European VCs,"â‚¬15,000,000",2020,
3e4617ed-7fe8-481a-b967-f59194bb4719,Nokia Growth Partners,company,,,,,,,,ğŸ‡«ğŸ‡® Finland,ğŸ‡«ğŸ‡® Finland,Top European VCs,"â‚¬315,000,000",2016,Nokia
e80b6c3d-a2ef-48e4-84d1-f8c2ec9102bc,Nordic Foodtech,company,,,,,,,,ğŸ‡«ğŸ‡® Finland,ğŸ‡«ğŸ‡® Finland,Top European VCs,"â‚¬24,500,000",2020,"Valion ElÃ¤kekassan, HKScanin, Tradeka-sijoituksen, Tukkuheinon, MaatalousyrittÃ¤jien ElÃ¤kelaitoksen, Business Finland Venture Capital, OP Henkivakuutus, Pohjola Vakuutus Oy, Nordics Plus Group"
a1761f4c-9a79-44fa-b873-4f1891c8a82f,NordicNinja (JB Nordic Fund I),company,,,,,,,,ğŸ‡«ğŸ‡® Finland,ğŸ‡«ğŸ‡® Finland,Top European VCs,"â‚¬100,000,000",2019,"Honda, Panasonic, Omron, and the Japan Bank for International Cooperation (JBIC)"
71c6ff9e-b5b8-4c2f-9eae-b5fd123992fd,Norrsken Founders Fund,company,,,,,,,,ğŸ‡¸ğŸ‡ª Sweden,ğŸ‡¸ğŸ‡ª Sweden,Top European VCs,"â‚¬94,000,000",2016,Niklas Adalberth
8a4f5bf9-6946-40e4-ae4b-576fe1b39c8e,Norrsken VC,company,,Norrsken VC is an impact VC fund investing in start-ups solving the problems while building massive businesses.,,https://www.norrsken.vc/,https://www.norrsken.vc/,,,"Norrsken House, Birger Jarlsgatan 57C, 1135 6 Stockholm, Sweden","Norrsken House, Birger Jarlsgatan 57C, 1135 6 Stockholm, Sweden","All VCs ,Top European VCs","â‚¬123,000,000",2019,"Saminvest AB, founders of Swedish tech unicorn companies (King, Mojang, Klarna), Ramsbury Invest, European Investment Fund (EIF), Nordea, SEB"
444c876a-675e-47cb-9289-df8e4be0abd1,North East Innovation Fund,company,,,,,,,,ğŸ‡¬ğŸ‡§ UK,ğŸ‡¬ğŸ‡§ UK,Top European VCs,"â‚¬31,000,000",2018,European Regional Development Fund
953a2b8c-a4dd-44e6-b533-959e1dcfa77e,North East Venture Fund,company,,,,,,,,ğŸ‡¬ğŸ‡§ UK,ğŸ‡¬ğŸ‡§ UK,Top European VCs,"â‚¬31,000,000",2018,European Regional Development Fund
75955717-946b-4db7-a877-cf3af1d7665b,Northern Gritstone,company,,,,,,,,ğŸ‡¬ğŸ‡§ UK,ğŸ‡¬ğŸ‡§ UK,Top European VCs,"â‚¬252,000,000",2022,"Greater Manchester Pension Fund, West Yorkshire Pension Fund, M&G Investments, Lansdowne Partners, Andrew Law."
f82963a9-d9e7-4ec2-ab7c-e5c92c14ea6a,Northzone,company,,"Business Development, Finance, FinTech, Venture Capital",,https://northzone.com/,https://northzone.com/,,,UK,UK,"All VCs ,VC Founds - Seed - US/Europe,Top European VCs","â‚¬1,000,000,000",2022,
aea25e6f-b445-45d8-be7c-36ac2317bab3,Northzone Ventures,company,,,,,,,,ğŸ‡¸ğŸ‡ª Sweden,ğŸ‡¸ğŸ‡ª Sweden,Top European VCs,"â‚¬450,000,000",2019,"European Investment Fund (EIF), AP3"
9f38e95b-0b02-416f-a183-7bd4486318c0,Notion Capital,company,,,,https://notion.vc/,https://notion.vc/,,,UK,UK,"All VCs ,Top European VCs","â‚¬135,000,000",2019,"British Patient Capital, Nuclear Liabilities Fund, Texas A&M Foundation, S-Cubed Capital, Pentland Group, Key Capital"
2644b619-b835-4db3-aeb3-584811608a40,Notion Capital Opportunities,company,,,,,,,,ğŸ‡¬ğŸ‡§ UK,ğŸ‡¬ğŸ‡§ UK,Top European VCs,"â‚¬40,000,000",2017,European Investment Fund (EIF)
b834788d-b060-4f23-a8e1-737383f6877c,Obratori,company,,,,,,,,ğŸ‡«ğŸ‡· France,ğŸ‡«ğŸ‡· France,Top European VCs,,2017,L'Occitane Group
e3a044f8-a494-400a-8c8d-6248e08fdd29,Ocean 14 Capital,company,,,,,,,,ğŸ‡¬ğŸ‡§ UK,ğŸ‡¬ğŸ‡§ UK,Top European VCs,"â‚¬150,000,000",2021,"European Investment Fund (EIF), Chr. Augustinus Fabrikker, Builders Initiative, Minderoo Foundation, Alex Beard, Niklas ZennstrÃ¶m, Monacoâ€™s sovereign wealth fund, Ingka Investments"
7011127c-f3ae-48de-a5e7-b5bcfc49d7f4,Octopus Ventures,company,,"Finance, Financial Services, Venture Capital",,https://octopusventures.com/b2b-software/,https://octopusventures.com/b2b-software/,,,ğŸ‡¬ğŸ‡§ UK,ğŸ‡¬ğŸ‡§ UK,"VC Founds - Seed - US/Europe,Top European VCs","â‚¬11,600,000",2022,
73e94459-eadf-4bfe-8843-31cb75183f63,Octopus Ventures Growth,company,,,,,,,,ğŸ‡¬ğŸ‡§ UK,ğŸ‡¬ğŸ‡§ UK,Top European VCs,"â‚¬96,000,000",2019,
d8ffb63f-5615-40cf-aef9-fab41aeab1e0,Odense Robotics StartUp Fund,company,,,,,,,,ğŸ‡©ğŸ‡° Denmark,ğŸ‡©ğŸ‡° Denmark,Top European VCs,"â‚¬2,500,000",2022,"Bente Iversen, Enrico Krog Iversen, Niels Jul Jacobsen, Ralf Astrup, Thomas Visti, Universal Robots, CCN Holding, Bitten & Mads Clausens Fond, Den Faberske Fond, Entrepreneur Marius Pedersens Fond, Poul Due Jensens Fond, Novo Nordisk Foundation"
024cde24-c37c-43fc-9db9-d97384b6c032,O.G.Tech,company,,,,,,,,ğŸ‡®ğŸ‡± Israel,ğŸ‡®ğŸ‡± Israel,Top European VCs,"â‚¬400,000,000",2022,Eyal Ofer
c4120c28-cafc-4c01-bb7c-b7d3576431ea,OHB Venture Capital,company,info@ohb-vc.de,OHB Venture Capital specializes in start-up and early stage investments.,info@ohb-vc.de,https://www.ohb-vc.de/,https://www.ohb-vc.de/,,,ğŸ‡©ğŸ‡ª Germany,ğŸ‡©ğŸ‡ª Germany,"Corporate Venture Arms,Top European VCs",,2016,
7721f1cb-0b5a-46bb-a4a7-47320a01a8bb,Oltre Venture,company,,,,https://www.oltreventure.com/en/,https://www.oltreventure.com/en/,,,"Via Bernardino Zenale, 8, 20123 Milan (MI), Italy","Via Bernardino Zenale, 8, 20123 Milan (MI), Italy",Top European VCs,"â‚¬100,000,000",2021,"European Investment Fund (EIF), Fondazione Pesenti"
38e1da55-ba45-4f0a-bd35-f131f1474088,Omers Ventures Europe,company,,,,,,,,ğŸ‡¬ğŸ‡§ UK,ğŸ‡¬ğŸ‡§ UK,Top European VCs,"â‚¬300,000,000",2019,OMERS
f2ff85b9-90e6-4493-b912-12cc1b5a638c,Omnes Capital,company,,Omnes is a leading private equity firm dedicated to energy transition (infrastructure) and innovation (deeptech venture capital).,,omnescapital.com,omnescapital.com,,,ğŸ‡«ğŸ‡· France,ğŸ‡«ğŸ‡· France,Top European VCs,"â‚¬130,000,000",2020,
c0b1ab8f-21c8-459d-8ebb-7d06cb491d99,One Peak,company,,"One Peak is a B2B Tech specialist growth investor, backing leading scale-ups in Europe and Israel.",,http://www.onepeak.tech,http://www.onepeak.tech,,,ğŸ‡¬ğŸ‡§ UK,ğŸ‡¬ğŸ‡§ UK,Top European VCs,"â‚¬950,000,000",2022,
02bd375d-9602-4154-a2c3-0a19f9674f34,Open Circle Capital,company,,,,https://www.opencirclecapital.lt,https://www.opencirclecapital.lt,,,Vilnius,Vilnius,Top European VCs,"â‚¬20,000,000",2017,Invega
e64a49ba-f2a7-4728-ac17-ec2dbad6863d,Open Ocean,company,,,,,,,,ğŸ‡«ğŸ‡® Finland,ğŸ‡«ğŸ‡® Finland,Top European VCs,"â‚¬92,000,000",2021,"European Investment Fund (EIF), Finnish Industry Investment (Tesi), Oxford Universityâ€™s Corpus Christi College"
c73c9a4b-618e-45e7-9f64-bdcbddd49cc0,Orange Ventures,company,digital.ventures@orange.com,"Orange Ventures is a venture fund investing in areas of Orange expertise and beyond, with financial objectives in line with VC standards.",digital.ventures@orange.com,https://ventures.orange.com/,https://ventures.orange.com/,,,"Paris, Ile-de-France, France","Paris, Ile-de-France, France","Corporate Venture Arms,Top European VCs","â‚¬350,000,000",2021,Orange
362e9022-8a0f-49c2-83b5-84b81c37026f,Orbital Ventures,company,,,,,,,,ğŸ‡±ğŸ‡º Luxemburg,ğŸ‡±ğŸ‡º Luxemburg,Top European VCs,"â‚¬120,000,000",2021,"European Investment Fund (EIF), National Credit and Investment Institution (SNCI)"
73994556-2e6f-437d-9e41-a2065e9d3daf,Oskare Capital,company,,,,,,,,ğŸ‡«ğŸ‡· France,ğŸ‡«ğŸ‡· France,Top European VCs,"â‚¬150,000,000",2022,
8787c6bf-a8f8-45f6-b424-a4af100de32a,OTB Ventures,company,,,,https://www.otb.vc/,https://www.otb.vc/,,,Netherlands,Netherlands,Top European VCs,"â‚¬140,000,000",2022,European Investment Bank Group (EIB)
d2721318-adf1-4c77-aa1f-5ed48fd96391,OTB Ventures (Growth),company,,,,,,,,ğŸ‡µğŸ‡± Poland,ğŸ‡µğŸ‡± Poland,Top European VCs,"â‚¬50,000,000",2021,European Investment Fund (EIF)
c211a18d-de9e-4ee5-83a4-65ce04e86b60,OTV,company,,,,,,,,ğŸ‡®ğŸ‡± Israel,ğŸ‡®ğŸ‡± Israel,"All VCs ,Top European VCs","â‚¬140,000,000",2020,
71e11902-a15d-4a3c-8296-7de5be4dbc95,Outsized Ventures,company,,,,https://www.outsized.vc/,https://www.outsized.vc/,,,"71-75 Shelton Street, London, England WC2H 9JQ, GB","71-75 Shelton Street, London, England WC2H 9JQ, GB","All VCs ,Top European VCs","â‚¬60,000,000",2021,"Saul Klein, Robert Paull"
497fe774-8514-4f9b-ada4-f1f3f550deeb,Outward Venture Capital,company,,,,https://outwardvc.com/,https://outwardvc.com/,,,ğŸ‡¬ğŸ‡§ UK,ğŸ‡¬ğŸ‡§ UK,Top European VCs,"â‚¬42,000,000",2019,"Investec, NIBC"
c864057d-94bb-48de-9f1c-8111d54a469d,Ovni Capital,company,,,,,,,,ğŸ‡«ğŸ‡· France,ğŸ‡«ğŸ‡· France,Top European VCs,"â‚¬15,000,000",2023,
b84c80c3-b5f6-40df-bf74-1d3337fdb69a,Oxx,company,,,,,,,,ğŸ‡¬ğŸ‡§ UK,ğŸ‡¬ğŸ‡§ UK,Top European VCs,"â‚¬120,000,000",2020,"British Patient Capital (BCP), Pool Re"
8c5af306-1f36-419c-bfce-d60e373fdea0,P101,company,,"Angel Investment, Finance, Financial Services, Venture Capital",,p101.it,p101.it,,,ğŸ‡®ğŸ‡¹ Italy,ğŸ‡®ğŸ‡¹ Italy,"VC Founds - Seed - US/Europe,Top European VCs","â‚¬150,000,000",2022,"Azimut, CDP, European Investment Fund (EIF), BPM, Inarcassa, ISP Group Pension Fund"
0aa2b472-d700-48d0-9a57-05b383111a5e,P102,company,,,,,,,,ğŸ‡®ğŸ‡¹ Italy,ğŸ‡®ğŸ‡¹ Italy,Top European VCs,"â‚¬100,000,000",2018,"Fondo Italiano dâ€™Investimento, European Investment Fund (EIF), Azimut, Fondazione Sardegna"
3962ed21-2a9f-4bfb-af5f-9bfa6816d60f,Pact,company,,,,https://www.linkedin.com/company/18907200,https://www.linkedin.com/company/18907200,,,ğŸ‡¬ğŸ‡§ UK,ğŸ‡¬ğŸ‡§ UK,Top European VCs,"â‚¬35,000,000",2022,"Campden Hill Capital, Jeff Dean, Yeming Wang, Fahd Beg, Keith Teare, Todd Ruppert, Tilo Bonow, Anne Hathaway"
b01160c3-739c-4f2f-a932-3dd3badcb872,Paladin European Cyber Fund,company,,,,,,,,ğŸ‡±ğŸ‡º Luxemburg,ğŸ‡±ğŸ‡º Luxemburg,Top European VCs,,2017,"European Investment Fund (EIF), Luxemburg Future Fund (LFF), Paladin Capital Group"
c82c4eb1-b258-461d-a1e9-f82b39b23107,Pale Blue Dot,company,,,,https://www.paleblue.vc/#section-0,https://www.paleblue.vc/#section-0,,,ğŸ‡¸ğŸ‡ª Sweden,ğŸ‡¸ğŸ‡ª Sweden,Top European VCs,"â‚¬93,000,000",2023,"Prima Materia, Pirates Impact"
59056c56-ebf5-4187-b22a-e0dfa465b5c5,Pangea Blockchain Fund,company,,,,https://pangeablockchain.ch/,https://pangeablockchain.ch/,,,ğŸ‡¨ğŸ‡­ Switzerland,ğŸ‡¨ğŸ‡­ Switzerland,"All VCs ,Top European VCs","â‚¬20,000,000",2019,"Copernicus Asset Management SA , Roger Ver"
1c3ca858-0b76-499a-9239-c6ec226e40c4,Paris-Saclay Seed Fund,company,,,,https://seedfund.parissaclay.com/,https://seedfund.parissaclay.com/,,,France,France,Top European VCs,"â‚¬50,000,000",2017,Bpifrance
ad148583-b089-461a-bb25-cd282baf1495,Partech Entrepreneur,company,,,,,,,,ğŸ‡«ğŸ‡· France,ğŸ‡«ğŸ‡· France,Top European VCs,"â‚¬120,000,000",2022,
6f6b696f-6f5c-46f1-b52a-34e3b70c119c,Partech Growth,company,,,,,,,,ğŸ‡«ğŸ‡· France,ğŸ‡«ğŸ‡· France,Top European VCs,"â‚¬650,000,000",2021,
ec740353-e664-44fd-9c11-506c706ec7f7,Partech International Ventures,company,,,,,,,,ğŸ‡«ğŸ‡· France,ğŸ‡«ğŸ‡· France,Top European VCs,"â‚¬400,000,000",2016,"Cisco Systems Inc., Nokia OYJ, Renault SA, European Investment Fund (EIF)"
b624dc26-a4a2-47d9-a0ba-5edc5416c194,Passion Capital,company,,,,https://www.passioncapital.com,https://www.passioncapital.com,,,London,London,Top European VCs,"â‚¬52,000,000",2019,British Patient Capital (BPC)
f9278fa5-7c2e-49c1-a679-091241d1cf98,Peak,company,,,,https://peak.capital/,https://peak.capital/,,,ğŸ‡³ğŸ‡± Netherlands,ğŸ‡³ğŸ‡± Netherlands,Top European VCs,"â‚¬150,000,000",2022,
dfd60ec4-608c-449b-bd34-7d7c31098615,Peakbridge,company,,,,,,,,ğŸ‡²ğŸ‡¹ Malta,ğŸ‡²ğŸ‡¹ Malta,Top European VCs,"â‚¬100,000,000",2022,Edmond de Rothschild Private Equity
2d83e5f3-eb8e-43c9-b005-01f3c2c95b41,Peak Capital,company,,,,https://www.peak.capital,https://www.peak.capital,,,"Weesperplein 4B, 1018 XA Amsterdam, Netherlands","Weesperplein 4B, 1018 XA Amsterdam, Netherlands",Top European VCs,"â‚¬66,000,000",2019,"Co-founders of Belvilla, funda, Hippo, IMC, Kleding.nl, Netsociety, Wehkamp, Sundio, World Ticket Center, and Woodwing"
8e246f6a-85b3-4d7b-b359-9c0240689beb,Pentech,company,,,,https://pentech.vc/,https://pentech.vc/,,,"40 Islington High Street, London, England N1 8XB, GB","40 Islington High Street, London, England N1 8XB, GB",Top European VCs,"â‚¬103,840,000",2017,"British Business Bank (BBB), Innotech, Jukeinvest, Randolph Partnership, Erevena, Highland and Universal Securities, University of Edinburgh"
ee39df48-d2fe-4b30-af30-7667d993dd8b,People & Planet Partners,company,,,,https://www.peopleandplanetpartners.com/,https://www.peopleandplanetpartners.com/,,,ğŸ‡ªğŸ‡¸ Spain,ğŸ‡ªğŸ‡¸ Spain,Top European VCs,"â‚¬5,400,000",2019,"Ayuntamiento de Madrid, Instituto Valenciano de Finanzas"
3c1e71c4-c576-4250-b876-b6ad1da3d0fd,People Ventures,company,,,,https://peopleventures.vc/,https://peopleventures.vc/,,,"Erik Husfeldts Vej 7, 2630 Taastrup, Denmark","Erik Husfeldts Vej 7, 2630 Taastrup, Denmark",Top European VCs,"â‚¬50,000,000",2022,"Zibra Family Office, North East Family Office, FÃ¸lsgaard Family Office, Lind Family Holding, Vaekstfonden"
ed13bb17-5e6b-45b1-aacc-5f447386fe5e,Phoenix Court Group,company,,,,,,,,ğŸ‡¬ğŸ‡§ UK,ğŸ‡¬ğŸ‡§ UK,Top European VCs,"â‚¬475,000,000",2022,
8a2128d4-b699-41b4-b804-80bffc0cbb62,PICO Venture Partners,company,,"Apparel, Business Development, Finance, Financial Services",,linkedin.com/company/pico-venture-partners,linkedin.com/company/pico-venture-partners,,,ğŸ‡®ğŸ‡± Israel,ğŸ‡®ğŸ‡± Israel,"VC Founds - Seed - US/Europe,Top European VCs","â‚¬73,000,000",2019,"Honeywell Ventures, partners at Carlyle and Bain Capital"
201bdab1-861b-42d3-9d7b-9d8512c9c18c,Pi Labs,company,,Pi Labs is the VC backing the innovators who are transforming our relationship with the built world.,,https://www.pilabs.co.uk/,https://www.pilabs.co.uk/,,,"151 Wardour Street, London, England GB","151 Wardour Street, London, England GB",Top European VCs,"â‚¬81,300,000",2020,"Great Portland Estates PLC, Assura PLC, PATRIZIA AG, Revcap, APG, Aldar Properties, Sellar, Kingâ€™s Cross Central Limited Partnership, Sino Group, Swire Properties, Kiilto, Hopewell Group, Jaeger Gruppe"
a8e162c3-16bb-49b0-8063-736377f869a1,Pitango Venture Capital,company,,,,pitango.com,pitango.com,,,ğŸ‡®ğŸ‡± Israel,ğŸ‡®ğŸ‡± Israel,Top European VCs,"â‚¬164,500,000",2016,
7685c995-77b1-4dd4-a955-9f47edbd9e2c,Planet A Ventures,company,,,,https://planet-a.com,https://planet-a.com,,,ğŸ‡©ğŸ‡ª Germany,ğŸ‡©ğŸ‡ª Germany,Top European VCs,"â‚¬160,000,000",2023,"BMW, KfW Capital, REWE, Vaekstfonden/EIFO, Rolf SchrÃ¶mgens, Maximilian Backhaus, Rubin Ritter"
17f98c63-42f3-4b31-9979-b709780e0223,Planven Entrepreneur Ventures,company,,,,https://www.planvenev.com/,https://www.planvenev.com/,,,ğŸ‡¨ğŸ‡­ Switzerland,ğŸ‡¨ğŸ‡­ Switzerland,Top European VCs,"â‚¬58,000,000",2019,
48cd5e8e-459e-4ff8-a2ac-1369c9f50bce,Playfair Capital,company,,,,https://playfaircapital.com/,https://playfaircapital.com/,,,UK,UK,"European Family Offices' Founders ,Top European VCs","â‚¬65,000,000",2023,Federico Pirzio-Biroli
d410ad1f-5a97-45f9-a339-f013513b6941,Plural,company,,,,https://pluralplatform.com,https://pluralplatform.com,,,Luxembourg,Luxembourg,Top European VCs,"â‚¬250,000,000",2022,
36590267-204c-4e73-8d97-6a9d983526ca,PMatX,company,,,,,,,,ğŸ‡®ğŸ‡± Israel,ğŸ‡®ğŸ‡± Israel,Top European VCs,"â‚¬20,000,000",2017,"Merck, HP, Battery Ventures"
1627f3e0-6a94-4742-9e8d-62a629be07a8,Point Nine Capital,company,,,,https://www.pointnine.com/,https://www.pointnine.com/,,,"Chausseestrasse 19, 10115 Berlin, Germany","Chausseestrasse 19, 10115 Berlin, Germany",Top European VCs,"â‚¬180,000,000",2022,
ae5161e5-c2f7-4378-a6da-1a5cf145ae77,Poli360,company,,,,,,,,ğŸ‡®ğŸ‡¹ Italy,ğŸ‡®ğŸ‡¹ Italy,Top European VCs,"â‚¬60,000,000",2018,"European Investment Fund (EIF), Cassa Depositi & Prestiti"
4bd8e966-9144-4d8b-b529-51c562705c4d,Polytech Ecosystem Ventures,company,,,,,,,,ğŸ‡¨ğŸ‡­ Switzerland,ğŸ‡¨ğŸ‡­ Switzerland,Top European VCs,"â‚¬36,000,000",2016,
fafee8cb-1baf-45a6-bd9e-8506e940cc48,Practica Capital,company,,,,http://practica.vc/,http://practica.vc/,,,Lithuania,Lithuania,Top European VCs,"â‚¬32,000,000",2022,"Swedbank, Tesonet"
a2284f8d-3b12-4446-8ee6-c4dbc52a3bdd,Praetura Ventures,company,,,,https://www.praeturaventures.com/,https://www.praeturaventures.com/,,,"Manchester, UK","Manchester, UK",Top European VCs,"â‚¬8,500,000",2020,
1084a921-1aa2-46ac-92c1-4b7a931e694e,Prana Ventures,company,,,,,,,,ğŸ‡®ğŸ‡¹ Italy,ğŸ‡®ğŸ‡¹ Italy,Top European VCs,"â‚¬34,000,000",2021,"CDP Venture Capital SGR, Gruppo Adnkronos, Logotel, Corniola, Red Lions, TesiSquare, Nethex, Interconsult"
fee94ea1-ea08-4e96-a088-058a0ebd540c,Prediction Capital,company,,Prediction Capital is a pre-seed/seed investment firm primarily investing in ConsumerTech and FinTech in the DACH region,,https://predictioncapital.vc/,https://predictioncapital.vc/,,,ğŸ‡¨ğŸ‡­ Switzerland,ğŸ‡¨ğŸ‡­ Switzerland,Top European VCs,"â‚¬30,000,000",2022,infinitas Capital
5aaab6d9-93e0-42a2-b076-81e713602366,PreSeed Ventures,company,,,,,,,,ğŸ‡©ğŸ‡° Denmark,ğŸ‡©ğŸ‡° Denmark,Top European VCs,"â‚¬55,000,000",2020,"Danish Growth Fund, ATP"
bfd07339-14c5-4b4a-8ad5-385314d4a23a,Presight Capital,company,,"Presight Capital is a venture capital firm investing in the most ambitious founders across sectors, stages, and geographies.",,https://www.presight.vc/,https://www.presight.vc/,,,ğŸ‡©ğŸ‡ª Germany,ğŸ‡©ğŸ‡ª Germany,"All VCs ,Seed & Series A US VC's ,Top European VCs","â‚¬72,000,000",2019,"Apeiron, Mike Novogratz, Falcon Management president James Leitner, Moore Strategic Ventures, Alexander Schuetz, Nicole Junkermann, the Schadeberg family office, Albright Stonebridge Group executive Michael Shtender-Auerbach, Stern Stewart managing partner Markus Pertl, Uma Thurman"
a51b11a5-e743-484d-8ae3-b7700f469182,Presto Ventures,company,,,,https://prestoventures.com/,https://prestoventures.com/,,,Prague,Prague,Top European VCs,"â‚¬30,000,000",2022,
7cbeafbb-329d-427b-bfa5-c55005c63dd4,Primo Digital,company,,,,,,,,ğŸ‡®ğŸ‡¹ Italy,ğŸ‡®ğŸ‡¹ Italy,Top European VCs,"â‚¬62,000,000",2022,"CDP Venture Capital SGR, Tinexta, Banca Sella Holding"
c498c1bd-35f5-4fb0-8cc5-89b5a53f48b0,Primo Space Fund,company,,,,,,,,ğŸ‡®ğŸ‡¹ Italy,ğŸ‡®ğŸ‡¹ Italy,Top European VCs,"â‚¬58,000,000",2020,"Cdp Venture Capital, European Investment Fund (EIF), Compagnia di Sanpaolo, Luigi Rossi Luciani S.a.p.a., Banca Sella"
d33677fe-3a05-4733-899f-d09f2c595395,Privilege Ventures,company,,,,,,,,ğŸ‡¨ğŸ‡­ Switzerland,ğŸ‡¨ğŸ‡­ Switzerland,Top European VCs,"â‚¬20,000,000",2022,
09f72302-1701-48ed-8b72-e16602540a83,PrivilÃ¨ge Ventures,company,,,,https://privilege-ventures.com/,https://privilege-ventures.com/,,,ğŸ‡¨ğŸ‡­ Switzerland,ğŸ‡¨ğŸ‡­ Switzerland,Top European VCs,"â‚¬4,600,000",2021,
2052cec9-d764-4b64-ace8-fdfd26f57611,Progress Tech Transfer,company,,,,https://www.progressttfund.it/,https://www.progressttfund.it/,,,"Via Turati 40 20121 Milan, Italy","Via Turati 40 20121 Milan, Italy",Top European VCs,"â‚¬40,000,000",2019,"European Investment Fund (EIF), Cassa Depositi & Prestiti"
dbecef01-291a-4faa-9062-743962daa527,Project A,company,,,,https://www.project-a.com,https://www.project-a.com,,,London,London,"All VCs ,Top European VCs","â‚¬180,000,000",2019,"Otto Group, European Investment Fund (EIF), Top Tier Capital Partners"
64e2d2f7-5772-42dc-8d28-259c7fd39643,Project A Ventures,company,,"Project A is an early-stage venture capital firm, combining financial and operational support for technology companies.",,https://www.project-a.com/,https://www.project-a.com/,,,"Julie-Wolfthorn-StraÃŸe 1, Berlin, 10115, DE","Julie-Wolfthorn-StraÃŸe 1, Berlin, 10115, DE",Top European VCs,"â‚¬360,000,000",2022,
11221f5f-f7dd-4af7-ad8d-01c5da2bc1e8,Proof-of-Concept and Early Stage Equity Fund,company,,,,,,,,ğŸ‡¬ğŸ‡§ UK,ğŸ‡¬ğŸ‡§ UK,Top European VCs,"â‚¬26,000,000",2018,British Business Bank
9f902af8-0534-4378-b196-85e63619eee6,Propel Capital,company,,"Propel Capital is the investment arm of Sting, the leading eco system for startups in the Nordics.",,http://www.linkedin.com/company/kivra,http://www.linkedin.com/company/kivra,,,ğŸ‡¸ğŸ‡ª Sweden,ğŸ‡¸ğŸ‡ª Sweden,Top European VCs,"â‚¬6,000,000",2019,Saminvest
861653be-1605-459f-9472-53c0a6589e7f,Proptech1 Ventures,company,,,,http://proptech1.ventures,http://proptech1.ventures,,,ğŸ‡©ğŸ‡ª Germany,ğŸ‡©ğŸ‡ª Germany,Top European VCs,"â‚¬44,000,000",2023,"BRUNATA-METRONA Group, evoreal, JLL Spark Global Ventures, Liechtenstein Group, Otto Wulff, Scout 24 Group, Supernova Group, Helaba, SchÃ¶rghuber Group, Bayerische Hausbau, Paulaner Brewery, Halton Ventures, Thomas Wiegand, Thomas ZinnÃ¶cker, Birgit Rahn-Werner"
9a88abf9-4465-4b77-827b-25bbd65a00c3,PropTech1 Ventures,company,,,,,,,,ğŸ‡©ğŸ‡ª Germany,ğŸ‡©ğŸ‡ª Germany,Top European VCs,"â‚¬50,000,000",2021,Noventic Group
6c5c1cca-a1d4-4869-a7a1-078823cf7699,Prosegur Tech Ventures,company,,,,,,,,ğŸ‡ªğŸ‡¸ Spain,ğŸ‡ªğŸ‡¸ Spain,Top European VCs,"â‚¬30,000,000",2019,Prosegur
8e623d2c-ba60-4bf7-8fbe-de2dc45df5ce,PSL Innovation Fund,company,,,,,,,,ğŸ‡«ğŸ‡· France,ğŸ‡«ğŸ‡· France,Top European VCs,"â‚¬76,000,000",2019,"European Investment Fund (EIF), Bpifrance, Vilmorin & Cie, BNP Paribas, MGEN, KPN Ventures, FamilleC"
187fc0c3-5f7e-4e02-a92a-75d00d13a964,PureTerra Ventures,company,,,,,,,,ğŸ‡§ğŸ‡ª Belgium,ğŸ‡§ğŸ‡ª Belgium,Top European VCs,"â‚¬60,000,000",2022,European Investment Fund (EIF)
9a4cd5a4-7b34-4002-8555-5ca7b9a3c4d0,Qbic,company,,,,,,,,ğŸ‡§ğŸ‡ª Belgium,ğŸ‡§ğŸ‡ª Belgium,Top European VCs,"â‚¬49,000,000",2022,"KBC, BNP Paribas Fortis, SFPI-FPIM, PMV, LRM, Finance&Invest.Brussels, Noshaq"
444a6bab-3d07-4e12-af77-73b005f38ab6,QBIT Capital,company,,,,,,,,ğŸ‡¨ğŸ‡­ Switzerland,ğŸ‡¨ğŸ‡­ Switzerland,Top European VCs,"â‚¬10,000,000",2022,
6ff8faff-46b9-468a-b89a-0bbbea7fd3ef,QDNL Participations,company,,,,,,,,ğŸ‡³ğŸ‡± Netherlands,ğŸ‡³ğŸ‡± Netherlands,Top European VCs,"â‚¬15,000,000",2023,Quantum Delta NL
248fed1c-3cac-427e-bbc0-06d951e1a319,Quadrille Capital,company,,"Finance, Financial Services, Venture Capital",,quadrillecapital.com,quadrillecapital.com,,,ğŸ‡«ğŸ‡· France,ğŸ‡«ğŸ‡· France,"All VCs ,VC Founds - Seed - US/Europe,Top European VCs","â‚¬511,000,000",2018,
469e3401-f15b-40f1-95ed-9f792f59c80f,Quantonation,company,,,,quantonation.com,quantonation.com,,,"58, Rue d'hauteville, Paris, Ile-de-France 75010, FR","58, Rue d'hauteville, Paris, Ile-de-France 75010, FR",Top European VCs,"â‚¬91,000,000",2021,"Thales, Draper Esprit, Alpha Blue Ocean, Bpifrance, BASF Venture Capital"
af28bccd-ec33-4d20-9b03-4f4a87df6089,Qumra Capital,company,,,,http://www.qumracapital.com/,http://www.qumracapital.com/,,,ğŸ‡®ğŸ‡± Israel,ğŸ‡®ğŸ‡± Israel,Top European VCs,"â‚¬212,000,000",2020,
dd8e7e4f-e29d-4216-a512-38166157a614,r24,company,,,,,,,,ğŸ‡®ğŸ‡± Israel,ğŸ‡®ğŸ‡± Israel,Top European VCs,"â‚¬20,000,000",2016,rent24
a9a8afd5-a17e-4d68-b205-874a36178001,Rabo F&A Innovation Fund,company,,,,,,,,ğŸ‡³ğŸ‡± Netherlands,ğŸ‡³ğŸ‡± Netherlands,Top European VCs,,2017,Rabobank
46de3a84-6693-4773-8246-eafc8b859dac,Rabo Frontier Ventures,company,,,,,,,,ğŸ‡³ğŸ‡± Netherlands,ğŸ‡³ğŸ‡± Netherlands,Top European VCs,"â‚¬140,000,000",2018,Rabobank
b7b02eee-5d54-4171-a2e5-ee61297352fe,RacineÂ²,company,,,,,,,,ğŸ‡«ğŸ‡· France,ğŸ‡«ğŸ‡· France,Top European VCs,"â‚¬80,000,000",2022,"MGen, Serena Capital"
19010393-698d-46fd-9e70-867ee1a0789c,RAISE,company,,,,,,,,ğŸ‡«ğŸ‡· France,ğŸ‡«ğŸ‡· France,Top European VCs,"â‚¬40,000,000",2022,"BPI France, Programme dâ€™investissements dâ€™avenir (PIA), Orange, Fnac Darty, Edenred, FDJ"
0d5486fa-55ef-4d47-aaad-e90f0ea0bd09,Raise Ventures,company,,,,https://www.raise.co/,https://www.raise.co/,,,"France,UK,Germany,Austria,Belgium,Denmark,Italy,Spain","France,UK,Germany,Austria,Belgium,Denmark,Italy,Spain",Top European VCs,"â‚¬60,000,000",2018,"Bouygues, Danone, Lâ€™Oreal and Michael Benabou"
41521138-82d8-4062-a86d-f68ff466515e,Redalpine Capital,company,,,,https://redalpine.com/,https://redalpine.com/,,,Switzerland,Switzerland,Top European VCs,"â‚¬110,000,000",2019,
bd8a11ae-c82b-452f-b266-ee70acd948ae,Red Dot Capital Partners,company,,,,https://red-dot.capital/,https://red-dot.capital/,,,ğŸ‡®ğŸ‡± Israel,ğŸ‡®ğŸ‡± Israel,Top European VCs,"â‚¬160,000,000",2020,
898d6911-e4e7-4713-88b9-3e9a57f5475b,Redrice Ventures,company,,,,https://redriceventures.com/,https://redriceventures.com/,,,"11 Emerald Street, London, WC1N 3QL","11 Emerald Street, London, WC1N 3QL",Top European VCs,"â‚¬58,000,000",2021,British Business Bank (BBB)
1007c492-36b9-4bab-9ad9-6968dfb14d51,Remagine Ventures,company,,,,https://remagineventures.com/,https://remagineventures.com/,,,"Rothschild Blvd. 45, 6th floor, Tel Aviv, Israel 6578403, IL","Rothschild Blvd. 45, 6th floor, Tel Aviv, Israel 6578403, IL",Top European VCs,"â‚¬31,400,000",2019,"Sky, Axel Springer, ProSiebenSat.1 Media SE, Adways, FutureTV Group, Liontree"
7269c6fb-4026-4c95-9caf-83a383ac4198,Repsol Corporate Venturing,company,,,,,,,,ğŸ‡ªğŸ‡¸ Spain,ğŸ‡ªğŸ‡¸ Spain,Top European VCs,"â‚¬85,000,000",2018,Repsol
ef62219f-5ad1-4657-ae6a-921503d4aa6f,Resonance,company,,Resonance is a social impact investment company with over a decade of experience working with social enterprises throughout the UK.,,http://resonance.ltd.uk/,http://resonance.ltd.uk/,,,ğŸ‡«ğŸ‡· France,ğŸ‡«ğŸ‡· France,Top European VCs,"â‚¬150,000,000",2022,Pierre-Edouard StÃ©rin
2ff9fcbd-0794-41bd-8cc0-a73c9e726f2b,Rethink Ventures,company,,,,,,,,ğŸ‡©ğŸ‡ª Germany,ğŸ‡©ğŸ‡ª Germany,Top European VCs,"â‚¬50,000,000",2023,"ZF Ventures, Hellmann Worldwide Logistics, KION Group, Berylls, HAVI, European Investment Fund (EIF)"
c1a1edda-c026-4f80-bb21-713500a0c85d,Revaia (fka Gaia Capital Partners),company,,,,,,,,ğŸ‡«ğŸ‡· France,ğŸ‡«ğŸ‡· France,Top European VCs,"â‚¬250,000,000",2021,"BPIFrance, Generali, Allianz, MAIF"
dc3a5b49-64d3-47ce-952a-53cbd93ba836,Revent,company,,,,https://www.revent.vc/#Team,https://www.revent.vc/#Team,,,Netherlands,Netherlands,Top European VCs,"â‚¬60,000,000",2021,"Benjamin Otto, Michael Otto, Sascha Konietzke, Max Tayenthal, Luis Hanemann, Benjamin Roth, Florian Heinemann, European Investment Fund (EIF)"
2defa209-7542-461c-bc4c-dc144dba4188,Revo Capital,company,,,,https://www.revo.vc/,https://www.revo.vc/,,,"Amsterdam, Netherlands","Amsterdam, Netherlands",Top European VCs,"â‚¬40,000,000",2020,European Bank for Reconstruction and Development (EBRD)
60e2c353-57af-46c1-9254-62b9d0141699,Rewired,company,,,,https://rewired.com,https://rewired.com,,,Switzerland,Switzerland,Top European VCs,"â‚¬80,000,000",2017,Cascade Global
5336b1d7-bcd7-4783-be64-3782ddbbba75,Ring Capital,company,,,,ringcp.com,ringcp.com,,,ğŸ‡«ğŸ‡· France,ğŸ‡«ğŸ‡· France,Top European VCs,"â‚¬165,000,000",2018,"Bpifrance, AG2R La Mondiale, BRED, Danone, Tikehau Capital, Morgane SÃ©zalory, Hugues Le Bret, Thierry Petit, Swen Capital, Xavier Niel, Sofiouest"
f052cc83-2661-4350-aaec-46755431facd,Rise PropTech,company,,,,,,,,ğŸ‡§ğŸ‡ª Belgium,ğŸ‡§ğŸ‡ª Belgium,Top European VCs,"â‚¬12,000,000",2021,"Abacus Group (Matexi), Ardent Invest, Balteau Group, Eloy Group, the Knauf family, the Moury group, Noshaq Immo, Uhoda Group"
f201ddf7-23e8-4098-bd6c-3caeb36a8bf8,Robert Bosch Venture Capital,company,,,,http://www.rbvc.com,http://www.rbvc.com,,,"Stuttgart, Baden-Wurttemberg, Germany","Stuttgart, Baden-Wurttemberg, Germany",Top European VCs,"â‚¬250,000,000",2022,Robert Bosch
67b7cdb6-d6e7-4307-80ca-948b6a3a5a7d,Robin Capital,company,,Robin Capital focuses on software and technology solutions that address meaningful problems but am vertical agnostic.,,http://www.linkedin.com/company/robincapital,http://www.linkedin.com/company/robincapital,,,ğŸ‡©ğŸ‡ª Germany,ğŸ‡©ğŸ‡ª Germany,Top European VCs,,2022,
1e1f20f0-35e2-4506-aad8-95522a310dbc,ROCH Ventures,company,,,,,,,,ğŸ‡«ğŸ‡· France,ğŸ‡«ğŸ‡· France,Top European VCs,"â‚¬100,000,000",2022,
b1b349c4-0a9d-4615-b55e-b50e6a8ef854,Rocket Internet Capital Partners,company,,,,,,,,ğŸ‡©ğŸ‡ª Germany,ğŸ‡©ğŸ‡ª Germany,Top European VCs,"â‚¬620,000,000",2019,"European Investment Fund (EIF), Rocket Internet Group"
bb01f7e9-2a65-44ea-85f0-9daa08b2a4db,Rockstart,company,,"Rockstart is an early stage investor that empowers purpose-driven founders across Energy, AgriFood and EmergingTech",,https://www.rockstart.com/,https://www.rockstart.com/,,,ğŸ‡³ğŸ‡± Netherlands,ğŸ‡³ğŸ‡± Netherlands,Top European VCs,"â‚¬27,000,000",2022,
cba163b7-5845-42a7-a8a4-d6c623eadb1b,Rooks Nest Ventures,company,,,,http://www.rooksnestventures.com/,http://www.rooksnestventures.com/,,,ğŸ‡¬ğŸ‡§ UK,ğŸ‡¬ğŸ‡§ UK,Top European VCs,"â‚¬32,200,000",2017,Michael Sackler
84df82da-6ec5-47cd-90c6-9cbbb71f9bc7,Round Hill Ventures,company,,,,https://www.roundhill.ventures/,https://www.roundhill.ventures/,,,ğŸ‡¬ğŸ‡§ UK,ğŸ‡¬ğŸ‡§ UK,Top European VCs,,2020,Round Hill Capital
78281ea0-39f7-4190-9a29-cee35ab42f80,Rubio Impact Ventures,company,,,,https://www.rubio.vc/news/,https://www.rubio.vc/news/,,,"Geneva, Switzerland","Geneva, Switzerland",Top European VCs,"â‚¬55,000,000",2020,"European Investment Fund (EIF), Dutch RVO"
c0402a8b-16f2-4f0c-8a21-fe11f70cf14f,Runa Capital,company,,"Finance, FinTech, Machine Learning, SaaS, Venture Capital",,http://www.runacap.com/,http://www.runacap.com/,,,"459 Hamilton Avenue, Office #306, Palo Alto, CA 94301, US","459 Hamilton Avenue, Office #306, Palo Alto, CA 94301, US","All VCs ,VC Founds - Seed - US/Europe,Top European VCs","â‚¬55,000,000",2022,"Nicolai Tangen, Andreas Gauger"
ad80de9a-7215-4378-8239-d1a39f4542ce,RUNI Ventures,company,,,,,,,,ğŸ‡®ğŸ‡± Israel,ğŸ‡®ğŸ‡± Israel,Top European VCs,"â‚¬27,500,000",2023,
e9abcf40-c570-4418-a732-82a8a433ca7b,Sababa Ventures,company,,,,,,,,ğŸ‡®ğŸ‡± Israel,ğŸ‡®ğŸ‡± Israel,Top European VCs,"â‚¬6,360,000",2019,
bb99dc64-1b33-4a50-b94d-3067dd45e4d9,Sabadell SelecciÃ³n Ventures,company,,,,,,,,ğŸ‡ªğŸ‡¸ Spain,ğŸ‡ªğŸ‡¸ Spain,Top European VCs,"â‚¬60,000,000",2020,Banco Sabadell clients
6d14e282-c333-4f83-a27a-056109917adf,Sabadell Venture Capital,company,,Sabadell Venture Capital is the venture capital division of Banc Sabadell.,,https://sabadellventurecapital.com,https://sabadellventurecapital.com,,,"Barcelona, Catalonia, Spain","Barcelona, Catalonia, Spain","Corporate Venture Arms,Top European VCs","â‚¬25,000,000",2016,Banco Sabadell
d9b499dc-a8ae-429a-b8ba-c072ae9b1213,Salesforce Europe Trailblazer Fund,company,,,,,,,,ğŸ‡¬ğŸ‡§ UK,ğŸ‡¬ğŸ‡§ UK,Top European VCs,"â‚¬110,000,000",2019,Salesforce
e0b1fdf1-f125-466c-a0a3-0497ce35d85d,Samaipata,company,,,,https://samaipata.vc/,https://samaipata.vc/,,,"Calle VelÃ¡zquez 18 Piso 2Âº Izquierda, Madrid, Madrid 28001, ES","Calle VelÃ¡zquez 18 Piso 2Âº Izquierda, Madrid, Madrid 28001, ES",Top European VCs,"â‚¬75,000,000",2020,"European Investment Fund (EIF), Institut CatalÃ¡ de Finances (ICF)"
ee580b3d-790c-4b08-b7c8-2379974729a4,Sandwater,company,,,,https://www.sandwater.com,https://www.sandwater.com,,,"MÃ¸llergata 6, 0170, Oslo, Norway","MÃ¸llergata 6, 0170, Oslo, Norway",Top European VCs,"â‚¬64,000,000",2022,"NysnÃ¸, Canica, LÃ¦rdal, LGT, the HÃ¸egh family"
b12f9aab-b039-4110-8f87-72d312e05983,Santander InnoVentures,company,,,,https://santanderinnoventures.com/,https://santanderinnoventures.com/,,,"London, England, United Kingdom","London, England, United Kingdom",Top European VCs,"â‚¬90,000,000",2016,Santander
37f44951-7f19-4462-ac84-1451309882bc,Sarona Ventures,company,,"Sarona Ventures is the investment arm of the largest startup ecosystem in Israel, investing in seed and series-a Israeli talent globally",,https://sarona.vc/,https://sarona.vc/,,,ğŸ‡®ğŸ‡± Israel,ğŸ‡®ğŸ‡± Israel,Top European VCs,"â‚¬19,000,000",2022,"Anish Acharya, Afflelou family, Johann 'Hansi' Hansmann, Justin Mateen, Dr. Ravi Dattatreya, Olivier Elbaz"
25ee15bf-2263-4fe1-a59e-6aed4456b02d,Satgana,company,,,,https://satgana.com/,https://satgana.com/,,,"Luxembourg City, LU","Luxembourg City, LU",Top European VCs,,2022,"Thibaud Hug de Larauze, Josef Bovet, Fabrice de Gaudemar, Elsa Hermal, Cullom Capital"
6db3e038-039e-4c43-baee-963e9f43e297,ScaleUp-Fonds Bayern,company,,,,,,,,ğŸ‡©ğŸ‡ª Germany,ğŸ‡©ğŸ‡ª Germany,Top European VCs,"â‚¬200,000,000",2021,LfA Foerderbank Bayern
966f704a-bfc4-4c71-b743-50e8106a65e0,Scania Growth Capital,company,,Scania Growth Capital is a corporate venture capital fund.,,http://www.scania.com/group/en/section/innovation/scania-growth-capital/,http://www.scania.com/group/en/section/innovation/scania-growth-capital/,,,"SÃ¶dertÃ¤lje, Vasternorrlands Lan, Sweden","SÃ¶dertÃ¤lje, Vasternorrlands Lan, Sweden","Corporate Venture Arms,Top European VCs","â‚¬183,500,000",2022,Scania
b3f7cd2f-6b1a-4465-b551-93bff395ab6c,S Capital,company,,,,,,,,ğŸ‡®ğŸ‡± Israel,ğŸ‡®ğŸ‡± Israel,"All VCs ,Top European VCs","â‚¬110,000,000",2020,
7cc1ec69-f6b2-4d1b-85a2-dc61d82d0b18,Science Creates Ventures,company,,,,https://sciencecreates.co.uk/,https://sciencecreates.co.uk/,,,ğŸ‡¬ğŸ‡§ UK,ğŸ‡¬ğŸ‡§ UK,Top European VCs,"â‚¬16,400,000",2020,Harry Destecroix
0869320d-c653-4acf-a287-12ff0c50e049,SC Net Zero Tech Ventures,company,,,,,,,,ğŸ‡ªğŸ‡¸ Spain,ğŸ‡ªğŸ‡¸ Spain,Top European VCs,"â‚¬50,000,000",2022,Repsol
e99a75ff-a38f-47c0-a0ee-d6c306b04028,Scottish Equity Partners,company,,,,https://www.sep.co.uk/,https://www.sep.co.uk/,,,UK,UK,Top European VCs,"â‚¬290,000,000",2016,"European Investment Fund (EIF), British Patient Capital"
e50ef9ff-d276-4af3-a360-c7ea60a1b9e1,Seaya Andromeda,company,,,,,,,,ğŸ‡ªğŸ‡¸ Spain,ğŸ‡ªğŸ‡¸ Spain,Top European VCs,"â‚¬130,000,000",2022,"Iberdrola, Nortia, Fond-ICO Next Tech"
7e2da4a3-aa7c-4260-93d1-4e9dc66f05a1,Seaya Ventures,company,,,,https://seayaventures.com/,https://seayaventures.com/,,,"Austin, USA","Austin, USA",Top European VCs,"â‚¬165,000,000",2020,"European Investment Fund (EIF), Banco Santander, Cathay Innovation"
011841df-66a2-4055-b31d-83d3136c87a6,Seedcamp,company,,Seedcamp is a European seed fund that identifies and invests early in founders attacking global markets.,,http://seedcamp.com/,http://seedcamp.com/,,,"5 Bonhill St, Shoreditch, London EC2A 4BX","5 Bonhill St, Shoreditch, London EC2A 4BX","All VCs ,Top European VCs","â‚¬166,000,000",2023,"Jeppe Rindom, Johnny Boufarhat, Taavet Hinrikus, Daniel Dines, Mridula Pore, Eldad Fuks, Vintage IP, TIFF, Ref Cap, Harbourvest, LGT, Legal & General, Arcano Partners, Sofina Group, EU VC, Michael Pennington, Will Neale, Paul Forster, Ilkka Paananen, Shakil Khan, KÃ¤rt Siilats"
7d4e8792-512e-4a1c-91e0-5e9754421f1c,Seed Capital,company,,,,https://seedcapital.dk/,https://seedcapital.dk/,,,"HÃ¸jbro Plads 10, KÃ¸benhavn K, Capital Region 1200, DK","HÃ¸jbro Plads 10, KÃ¸benhavn K, Capital Region 1200, DK",Top European VCs,"â‚¬67,000,000",2020,"Chr. Augustinus Fabrikker, Dansk VÃ¦kstkapital, Preben Damgaard"
df77fb2a-63cf-4489-9c72-27decf67d73d,SEED Capital,company,,,,,,,,ğŸ‡©ğŸ‡° Denmark,ğŸ‡©ğŸ‡° Denmark,Top European VCs,"â‚¬110,000,000",2016,"ATP Private Equity K/S, VÃ¦kstfonden, Dansk VÃ¦kstkapital, C.L. Davids Fond og Samling, Augustinus Fonden, Pre-Seed Innovation A/S, Sampension, Niels Peter Louis-Hansen, VV Private Equity, Novo A/S, PFA Pension"
2b495716-4eb9-4d36-837c-4da7a4678a58,Seed Capital (Growth),company,,,,,,,,ğŸ‡©ğŸ‡° Denmark,ğŸ‡©ğŸ‡° Denmark,Top European VCs,"â‚¬62,500,000",2021,"PFA, VÃ¦kstfonden, DVK III, Augustinus, Sampension"
f296dfc6-5b7e-4e94-be58-137a6e0f454b,Seeder,company,,,,,,,,ğŸ‡§ğŸ‡ª Belgium,ğŸ‡§ğŸ‡ª Belgium,Top European VCs,"â‚¬15,000,000",2022,"Belfius Insurance, SFPI, Sambrinvest, ULB"
40a28fce-6726-4ddf-918b-35c270a2fdf4,SeedRocket 4Founders Capital,company,,,,http://www.4founderscapital.com/,http://www.4founderscapital.com/,,,Spain,Spain,Top European VCs,"â‚¬12,000,000",2016,
f64c8261-523a-46ce-b51c-28ea6d93e2f9,Seedstars,company,,Impacting peopleâ€™s lives in emerging & frontier markets through technology and entrepreneurship,,https://www.seedstars.com/,https://www.seedstars.com/,,,ğŸ‡¨ğŸ‡­ Switzerland,ğŸ‡¨ğŸ‡­ Switzerland,"All VCs ,Top European VCs","â‚¬20,000,000",2022,"International Finance Corporation (IFC), Visa Foundation, The Rockefeller Foundation, and Symbiotics"
523227d9-80ad-4316-9358-5c3bbeb14143,Sentient Ventures,company,,,,https://sentientventures.co.uk/,https://sentientventures.co.uk/,,,"Santa Clara, USA","Santa Clara, USA",Top European VCs,"â‚¬35,000,000",2022,
6b7400a8-4a67-43e8-a146-a26fc02e10e4,Seraphim Space Fund,company,,,,,,,,ğŸ‡¬ğŸ‡§ UK,ğŸ‡¬ğŸ‡§ UK,Top European VCs,"â‚¬58,500,000",2016,"British Business Bank (BBB), Airbus"
3c995b5b-5de1-4b38-b169-2a373bd76300,Seraphim Space Investment Trust,company,,,,,,,,ğŸ‡¬ğŸ‡§ UK,ğŸ‡¬ğŸ‡§ UK,Top European VCs,"â‚¬210,000,000",2021,
6bd31541-38cd-4ea9-9cda-c82d2f802373,Serena Capital,company,,,,,,,,ğŸ‡«ğŸ‡· France,ğŸ‡«ğŸ‡· France,Top European VCs,"â‚¬300,000,000",2021,"BPI France, European Investment Fund (EIF)"
1e8dc0b5-ee2a-4026-b102-74382322820e,Serena Data Ventures,company,,,,,,,,ğŸ‡«ğŸ‡· France,ğŸ‡«ğŸ‡· France,Top European VCs,"â‚¬80,000,000",2017,"ALLIANZ, BNP Paribas, Bpifrance, MACSF, MAIF"
145c1dbb-1a73-47f8-8f37-10ad360586ec,SET Ventures,company,,,,www.setventures.com,www.setventures.com,,,"London, England","London, England",Top European VCs,"â‚¬100,000,000",2019,"European Investment Fund (EIF), Korys, PTT Group Thailand, Shell Ventures, BNP Paribas, ENERGIIQ, Sitra, BOM Brabant Ventures"
ccf3a313-f00c-4b62-adbb-d8ade650975e,SE Ventures,company,amit.chaturvedy@se.com,SE Ventures is a $1B+ global venture capital fund backed by Schneider Electric.,amit.chaturvedy@se.com,http://www.se.ventures,http://www.se.ventures,,,"2882 Sand Hill Road Suite 118 Menlo Park, CA 94025","2882 Sand Hill Road Suite 118 Menlo Park, CA 94025","Corporate Venture Arms,Top European VCs","â‚¬500,000,000",2022,Schneider Electric SE
1d484dde-7f99-4a7c-9a5d-d985a6789254,Shamrock Ventures,company,,,,,,,,ğŸ‡³ğŸ‡± Netherlands,ğŸ‡³ğŸ‡± Netherlands,Top European VCs,"â‚¬10,000,000",2022,
4fe6735e-f4f9-47ff-b363-5a2246eb7297,SHIFT,company,,,,,,,,ğŸ‡³ğŸ‡± Netherlands,ğŸ‡³ğŸ‡± Netherlands,Top European VCs,"â‚¬110,000,000",2020,"KLM, NS, Royal Schiphol Group, European Investment Fund (EIF), Invest-NL, TNO"
1b64c2d1-9627-409e-91bb-da5d4c88d238,Shift4Good,company,,,,,,,,ğŸ‡«ğŸ‡· France,ğŸ‡«ğŸ‡· France,Top European VCs,"â‚¬100,000,000",2022,"Groupe Renault, European Investment Fund (EIF), Bpifrance"
32f5734d-6941-4ee2-92c8-a327a111ee37,Shilling Founders Fund,company,,,,,,,,ğŸ‡µğŸ‡¹ Portugal,ğŸ‡µğŸ‡¹ Portugal,Top European VCs,"â‚¬30,000,000",2021,Atomico
5f73b46f-956a-4cee-bedb-bdd2fbb36de9,Silk Ventures [part Europe],company,,,,,,,,ğŸ‡¬ğŸ‡§ UK,ğŸ‡¬ğŸ‡§ UK,Top European VCs,"â‚¬450,000,000",2017,Assets Supervision and Administration Commission (SASAC) Shenzhen
263e7d6d-c5f5-446c-a674-dec0dbc8a7e6,Simon Capital,company,,,,,,,,ğŸ‡©ğŸ‡ª Germany,ğŸ‡©ğŸ‡ª Germany,Top European VCs,"â‚¬105,000,000",2023,
49c03302-f7ef-415a-ab52-cba9716ef940,Simpact Ventures,company,,,,,,,,ğŸ‡µğŸ‡± Poland,ğŸ‡µğŸ‡± Poland,Top European VCs,"â‚¬21,200,000",2022,European Investment Fund (EIF)
17dfe714-3aa2-4f34-9900-ab81e7672690,Simplyhealth Ventures,company,,,,,,,,ğŸ‡¬ğŸ‡§ UK,ğŸ‡¬ğŸ‡§ UK,Top European VCs,"â‚¬68,000,000",2022,Simplyhealth
1b3e7aa6-99f3-4cf1-84a2-52b7831ac47b,Sinergia Venture Fund,company,,,,,,,,ğŸ‡®ğŸ‡¹ Italy,ğŸ‡®ğŸ‡¹ Italy,Top European VCs,"â‚¬30,000,000",2021,
d6a88f6f-1a3e-4988-9ee7-f80ee0587aff,Singular,company,,,,https://singular.vc,https://singular.vc,,,"22 boulevard Malesherbes, 75008 Paris, France","22 boulevard Malesherbes, 75008 Paris, France",Top European VCs,"â‚¬225,000,000",2021,"Ontario Teachersâ€™ Pension Plan, Bpifrance, Vintage Investment Partners, Axa Venture Partners, Sofina, MACSF, Mubadala Capital"
4eed8958-65cb-4031-ac27-72f1515c9030,SINTEF Venture,company,,,,,,,,ğŸ‡³ğŸ‡± Netherlands,ğŸ‡³ğŸ‡± Netherlands,Top European VCs,"â‚¬50,000,000",2018,"European Investment Fund (EIF), SINTEF Venture, KLP, Gjensidigestiftelsen, Sparebankstiftelsen, SpareBank1 SMN Invest, MP Pensjon, Reitan Kapital, Orkla"
0117ac5f-4a62-4743-92a8-6b5f7d3e5700,Sista,company,,,,www.sistaparis.com,www.sistaparis.com,,,ğŸ‡«ğŸ‡· France,ğŸ‡«ğŸ‡· France,Top European VCs,"â‚¬30,000,000",2022,"CÃ©line Lazorthes, Steve Anavi, Nathalie Balla, Adrien Nussenbaum, Nicolas Hernandez."
b2beeeff-60ad-4302-a34a-7bbc88e7f7aa,SIX Fintech Ventures,company,,,,https://www.six-group.com/en/company/innovation/start-ups.html,https://www.six-group.com/en/company/innovation/start-ups.html,,,"Hardturmstrasse 201, 8005 Zurich, Switzerland","Hardturmstrasse 201, 8005 Zurich, Switzerland",Top European VCs,"â‚¬43,000,000",2017,SIX Group
2f7c36f1-6db6-4fa0-acbf-62205ab6187b,Skyfall Ventures,company,,,,https://www.skyfallventures.no/,https://www.skyfallventures.no/,,,Norway,Norway,Top European VCs,"â‚¬25,000,000",2022,"Montin, Investinor, Wallcross, Sirius Securities, Leif HÃ¸egh Foundation, the Haudemann-Andersen family, Middelborg Invest, Fredriksborg Investor"
665bc5fc-37a5-4c83-8f6d-6ed4d7ad95ea,Sky Ocean Ventures,company,,A bold new creation that will support breakthrough thinking and invest in promising new ideas .,,https://www.skyoceanventures.com,https://www.skyoceanventures.com,,,ğŸ‡¬ğŸ‡§ UK,ğŸ‡¬ğŸ‡§ UK,Top European VCs,"â‚¬117,000,000",2018,Sky
02709a27-f0cc-4e61-b8ae-7f3cd61414ec,Slingshot Ventures,company,,,,,,,,ğŸ‡³ğŸ‡± Netherlands,ğŸ‡³ğŸ‡± Netherlands,Top European VCs,"â‚¬57,000,000",2018,
9be2a69d-98d2-4ba7-a557-bd0f047c5bb7,SmartFin Capital,company,,,,https://smartfinvc.com/,https://smartfinvc.com/,,,ğŸ‡§ğŸ‡ª Belgium,ğŸ‡§ğŸ‡ª Belgium,Top European VCs,"â‚¬240,000,000",2019,"Belgian Growth Fund, ING, BNP Paribas, Team.Blueâ€™s Jonas Dhaenens"
fd8965f9-36fc-4efc-b4fa-bcbc839178b9,SMOK Ventures,company,,,,,,,,ğŸ‡µğŸ‡± Poland,ğŸ‡µğŸ‡± Poland,Top European VCs,"â‚¬11,000,000",2019,"Polish Development Fund (PFR), Wiktor Schmidt, Jan Stasz, Konrad Wawruch, PaweÅ‚ Zylm, Przemek Å»ebrowski"
38bab584-402a-499a-a294-4d9e1216fd5b,SNÃ– Ventures,company,,,,,,,,ğŸ‡³ğŸ‡´ Norway,ğŸ‡³ğŸ‡´ Norway,Top European VCs,"â‚¬82,500,000",2021,Peter Thiel
e809cf6a-8645-491b-b8de-0de8e414e5c9,Sodexo Ventures,company,,Sodexo Ventures is the venture capital arm of Sodexo.,,https://sodexo-ventures.com/,https://sodexo-ventures.com/,,,France,France,"Corporate Venture Arms,Top European VCs","â‚¬50,000,000",2016,Sodexo
dedf0caa-1e7a-480d-8f37-2f3c730325cb,Sondo Capital,company,,,,,,,,ğŸ‡³ğŸ‡´ Norway,ğŸ‡³ğŸ‡´ Norway,Top European VCs,"â‚¬18,000,000",2022,"Founders of Kahoot, Dune, Ardoq, Gelato, Nurx, Cognite, Spacemaker, Xeneta, Huddly, Energy Micro and Oda"
8cceb7c8-4a92-4460-bcc8-5f5ab2108d30,Sova VC,company,,,,https://sova.vc/,https://sova.vc/,,,"88 Wood Street, London, EC@V 7RS, UK","88 Wood Street, London, EC@V 7RS, UK","All VCs ,Top European VCs","â‚¬50,000,000",2020,Sova Capital
6c5f7f38-f454-40eb-ac49-690ade24ac5b,Sparkmind,company,,,,https://www.sparkmind.vc/,https://www.sparkmind.vc/,,,ğŸ‡«ğŸ‡® Finland,ğŸ‡«ğŸ‡® Finland,Top European VCs,"â‚¬55,000,000",2020,"Finnish Industry Investment (Tesi), KRR III, Elo Mutual Pension Insurance Company, the Jenny and Antti Wihuri Foundation, the Saastomoinen Foundation, the Konstsamfundet foundation, the Trade Union of Education OAJ, OP Financial Group, the City of Espoo, Tradeka-sijoitus, the University of JyvÃ¤skylÃ¤, Jacobs Foundation, Kelonia, Finnish Cultural Foundation, Taaleri (Aktia) Impact Fund"
2038585d-eaf4-4667-93a8-9d9a61fd8fc0,Speedinivest,company,,,,,,,,ğŸ‡©ğŸ‡ª Germany,ğŸ‡©ğŸ‡ª Germany,Top European VCs,"â‚¬80,000,000",2021,"New Enterprise Associates (NEA), KNAPP, Greiner AG, HEINZEL GROUP"
63d1aefe-7045-446a-811e-4fe46c5e3aa8,Speedinvest,company,,,,https://speedinvest.com/,https://speedinvest.com/,,,"PraterstraÃŸe 1, 3rd Floor, Wien, Wien 1020, AT","PraterstraÃŸe 1, 3rd Floor, Wien, Wien 1020, AT","All VCs ,Top European VCs","â‚¬200,000,000",2022,"New Enterprise Associates (NEA), European Investment Fund (EIF), Bpifrance"
3043a9b8-1f39-438a-9067-4203b05af16b,Speedinvest X,company,,,,,,,,ğŸ‡¦ğŸ‡¹ Austria,ğŸ‡¦ğŸ‡¹ Austria,Top European VCs,"â‚¬60,000,000",2020,JÃ¶rg Gerbig
a5feb727-57d2-4a84-965e-ff0ec5e2a81a,Spicehaus Partners,company,,,,https://www.spicehaus.com/,https://www.spicehaus.com/,,,ğŸ‡¨ğŸ‡­ Switzerland,ğŸ‡¨ğŸ‡­ Switzerland,Top European VCs,"â‚¬45,000,000",2019,
fac0f459-4c4d-4cc6-a359-b81895efe729,Spintop Ventures,company,,"Finance, Financial Services, Venture Capital",,https://spintopventures.com/,https://spintopventures.com/,,,"Stockholm, SE","Stockholm, SE","VC Founds - Seed - US/Europe,Top European VCs",,2022,"European Investment Fund (EIF), Saminvest"
ff22d7d4-d223-4e99-a287-82593aefe5f8,Sport & Performance Capital,company,,,,,,,,ğŸ‡«ğŸ‡· France,ğŸ‡«ğŸ‡· France,Top European VCs,"â‚¬80,000,000",2019,Caisse dâ€™Epargne
2f2533bd-78b6-4f00-9e2f-ba8d6ec126f1,SquareOne (pka Paua Ventures),company,,,,,,,,ğŸ‡©ğŸ‡ª Germany,ğŸ‡©ğŸ‡ª Germany,Top European VCs,"â‚¬100,000,000",2022,
7eca889d-2985-49bf-89a8-67a96b6f6137,SSE Ventures,company,,,,,,,,ğŸ‡¸ğŸ‡ª Sweden,ğŸ‡¸ğŸ‡ª Sweden,Top European VCs,"â‚¬3,700,000",2022,"Willard Ahdritz and Johan HÃ¤gglund, Pia Engholm and Christine Ahlstrand, Bonniergruppen, Anna Nordell-Westling"
0619aaab-c2ca-4385-8785-4832c920bebd,StartupLab,company,,,,https://startuplab.no/accelerator,https://startuplab.no/accelerator,,,US,US,Top European VCs,"â‚¬7,560,000",2016,
50576ea6-b166-4c7a-bb6e-49230c2f4c8d,Startup Wise Guys,company,,Startup Wise Guys is a B2B startup accelerator.,,https://startupwiseguys.com/,https://startupwiseguys.com/,,,"A. Lauteri 3, City Centre, Harju 10114, EE","A. Lauteri 3, City Centre, Harju 10114, EE",Top European VCs,"â‚¬25,000,000",2023,
e7c78afc-d35c-4609-903e-6ec371a1cd09,State of Mind Ventures,company,,,,,,,,ğŸ‡®ğŸ‡± Israel,ğŸ‡®ğŸ‡± Israel,Top European VCs,"â‚¬67,500,000",2016,
2835ae21-1abc-46d5-959d-2571cd086e88,Stellantis Ventures,company,stellantisventures@stellantis.com,Stellantis Ventures will focus on early and later-stage startup companies developing cutting-edge technologies.,stellantisventures@stellantis.com,https://www.stellantis.com/q/stellantis-ventures,https://www.stellantis.com/q/stellantis-ventures,,,ğŸ‡³ğŸ‡± Netherlands,ğŸ‡³ğŸ‡± Netherlands,"Corporate Venture Arms,Top European VCs","â‚¬300,000,000",2022,Stellantis
ca7068ba-8f63-4820-b7d2-ca459f9be92f,Stride Ventures,company,,,,,,,,ğŸ‡¬ğŸ‡§ UK,ğŸ‡¬ğŸ‡§ UK,Top European VCs,"â‚¬115,000,000",2021,
77d73097-be1a-4f40-af96-30dc95f6883e,Suir Valley Ventures,company,,,,,,,,ğŸ‡®ğŸ‡ª Ireland,ğŸ‡®ğŸ‡ª Ireland,Top European VCs,"â‚¬20,000,000",2017,"Enterprise Ireland, Irish Government Agency, Shard Capital"
3c501af9-7b7d-4fa4-a66a-431b5ca9e4a2,Sunfish Partners,company,,,,https://www.sunfish-partners.com/,https://www.sunfish-partners.com/,,,"Warsaw, Mazowieckie 00-855, PL","Warsaw, Mazowieckie 00-855, PL",Top European VCs,"â‚¬15,000,000",2019,PFR Ventures
66323e9f-1979-4386-b458-99e2b2b3bb11,Sunstone Progression Alpha,company,,,,,,,,ğŸ‡©ğŸ‡° Denmark,ğŸ‡©ğŸ‡° Denmark,Top European VCs,"â‚¬47,000,000",2017,
e259344f-d5d9-4743-85fb-c74fa25becc8,Sunstone Technology Fund,company,,,,,,,,ğŸ‡©ğŸ‡° Denmark,ğŸ‡©ğŸ‡° Denmark,Top European VCs,"â‚¬112,000,000",2017,European Investment Fund (EIF)
f6699e24-c02b-45f5-9a04-6d9d853cec10,Superangel,company,,,,https://www.superangel.io,https://www.superangel.io,,,Tallinn,Tallinn,Top European VCs,"â‚¬50,000,000",2022,"Smartcap, Triin Hertmann, Kersti Kaljulaid"
29576c30-68e4-4a79-8c7b-7c77d506c3da,Superhero Capital,company,,,,https://superherocapital.com,https://superherocapital.com,,,"Baltics,Finland","Baltics,Finland",Top European VCs,"â‚¬30,000,000",2020,"Finnish Industry Investment (Tesi), Kasvurahastojen Rahasto III, founders of Marketing Clinic, Fellow Finance, and Nitor."
a6a828d7-1c7f-47bb-82f5-75bbffd8a01a,Supernova Invest,company,,"Finance, Financial Services, Venture Capital",,http://supernovainvest.com/,http://supernovainvest.com/,,,France,France,"VC Founds - Seed - US/Europe,Top European VCs","â‚¬75,000,000",2017,"CrÃ©dit Agricole Sud RhÃ´ne Alpes, Bpifrance, CEA Investissement"
f9d01f91-8319-426a-b421-cf77a00c4236,SuperSeed,company,,,,https://www.superseed.com/,https://www.superseed.com/,,,"231-232 Strand, London, WC2R 1DA, United Kingdom","231-232 Strand, London, WC2R 1DA, United Kingdom",Top European VCs,"â‚¬37,000,000",2022,British Business Bank (BBB)
043ac8a7-60af-4931-b2a9-34e20e6b9957,Sure Valley Ventures,company,,,,https://surevalleyventures.com/,https://surevalleyventures.com/,,,ğŸ‡¬ğŸ‡§ UK,ğŸ‡¬ğŸ‡§ UK,Top European VCs,"â‚¬100,000,000",2022,British Business Bank (BBB)
54ef6c61-e449-4006-87df-1571d6223e26,Sustainable Future Ventures,company,,,,,,,,ğŸ‡¬ğŸ‡§ UK,ğŸ‡¬ğŸ‡§ UK,Top European VCs,"â‚¬100,000,000",2022,Patrizia AG
25e8510e-4d1b-4a4a-b51b-a9d8f6819ab7,Swanlaab Giza Venture Fund,company,,,,,,,,ğŸ‡ªğŸ‡¸ Spain,ğŸ‡ªğŸ‡¸ Spain,Top European VCs,"â‚¬40,000,000",2016,CDTI
494673c0-f905-4bae-8a4d-0f1fecf02e4c,Swisscomm Digital Transformation Fund,company,,,,,,,,ğŸ‡¨ğŸ‡­ Switzerland,ğŸ‡¨ğŸ‡­ Switzerland,Top European VCs,"â‚¬180,000,000",2018,Swisscomm
09dcad46-4c5e-40c8-8cd8-a91b19e84aca,Swisscomm Fintech Fund,company,,,,,,,,ğŸ‡¨ğŸ‡­ Switzerland,ğŸ‡¨ğŸ‡­ Switzerland,Top European VCs,"â‚¬9,000,000",2016,Swisscomm
e44a1c19-5124-48d5-8763-7e1d8ec4b642,Synthesis Capital,company,,,,,,,,ğŸ‡¬ğŸ‡§ UK,ğŸ‡¬ğŸ‡§ UK,Top European VCs,"â‚¬280,000,000",2022,"CPT Capital, SociÃ©tÃ© Familiale dâ€™Investissements, Nuveen, Credit Suisse Climate Innovation Fund, Dynamic Loop Capital, DisruptAD, The Nest, Heyi Holdings, Interogo Holding, WTT Investment Ltd , CIFF"
a1ca898a-66ad-4923-9895-8e60051cf4be,Systemiq Capital,company,,,,,,,,"Paris, France","Paris, France",Top European VCs,"â‚¬70,000,000",2022,
57c1e2cb-5d74-4a32-823f-8a6056500a45,System.One,company,,,,,,,,ğŸ‡©ğŸ‡ª Germany,ğŸ‡©ğŸ‡ª Germany,Top European VCs,"â‚¬8,200,000",2016,
f46c6211-81b5-4c96-96b5-b7ac5757e444,Talis Capital,company,,"Finance, Financial Services, FinTech, Venture Capital",,https://www.taliscapital.com,https://www.taliscapital.com,,,UK,UK,"VC Founds - Seed - US/Europe,Top European VCs","â‚¬164,000,000",2023,
531c81a3-0e47-4f11-8c32-9495606321a5,Tapestry,company,,,,,,,,ğŸ‡®ğŸ‡ª Ireland,ğŸ‡®ğŸ‡ª Ireland,Top European VCs,"â‚¬30,000,000",2022,
f7a3ae8d-77d4-4879-b9d9-732a485f5f1c,Target Global,company,,Target Global is a venture capital firm that invests in tech companies across all stages of their lifecycle.,,http://targetglobal.vc/,http://targetglobal.vc/,,,ğŸ‡©ğŸ‡ª Germany,ğŸ‡©ğŸ‡ª Germany,Top European VCs,"â‚¬120,000,000",2020,
40cf21a3-709b-42cd-8e33-052d3a469338,Team8,company,,"Team8 creates and invests in companies specializing in enterprise technologies, cyber, AI, and fintech.",,https://team8.vc/,https://team8.vc/,,,"Totseret ha-Arets St 7, Tel Aviv-Yafo, 6789104","Totseret ha-Arets St 7, Tel Aviv-Yafo, 6789104","All VCs ,Top European VCs","â‚¬92,500,000",2020,
70ba2555-0f2e-4c8d-9995-8e92b14f5af4,TeamABC Ventures,company,,,,,,,,ğŸ‡®ğŸ‡ª Ireland,ğŸ‡®ğŸ‡ª Ireland,Top European VCs,"â‚¬30,000,000",2021,
2bdc0a68-20c6-4f2c-b2a3-1bc9ab2d91e5,technocom3,company,,,,,,,,ğŸ‡«ğŸ‡· France,ğŸ‡«ğŸ‡· France,Top European VCs,"â‚¬40,000,000",2019,"Bpifrance, Cemag Invest, Seb Alliance, SITA, Soitec"
1b0489de-962f-43b3-83fa-2b0a117a4042,TechnoFounders,company,,,,https://www.technofounders.com/,https://www.technofounders.com/,,,ğŸ‡«ğŸ‡· France,ğŸ‡«ğŸ‡· France,Top European VCs,"â‚¬23,400,000",2019,"Bpifrance, Groupama RhÃ´ne-Alpes, Jean-Michel Aulas"
6091209e-5bc3-49fc-ae50-553077a45df3,TelefÃ³nica Tech Ventures,company,,,,https://techventures.telefonica.com/,https://techventures.telefonica.com/,,,ğŸ‡ªğŸ‡¸ Spain,ğŸ‡ªğŸ‡¸ Spain,Top European VCs,,2020,Telefonica
0e69d3fd-4980-4423-9802-3f767364e0c3,Tenity,company,,Tenity is a global innovation ecosystem and early-stage investor powering the future of finance.,,https://www.tenity.com,https://www.tenity.com,,,ğŸ‡¨ğŸ‡­ Switzerland,ğŸ‡¨ğŸ‡­ Switzerland,Top European VCs,,2023,"SIX Group, UBS Next, Julius Baer, Generaliâ€™s House of InsurTech"
5234a5d0-99c2-472a-8f4b-0e353ad129cb,Tera Ventures,company,,,,http://www.tera.vc/,http://www.tera.vc/,,,ğŸ‡ªğŸ‡ª Estonia,ğŸ‡ªğŸ‡ª Estonia,Top European VCs,"â‚¬43,000,000",2021,"European Investment Fund (EIF), LHV Pension Funds, ITOCHU Corporation, Mistletoe Venture Partners International, Perot Jain, MasterBorn, Inc., Eastport Strategies Principl Jonas E. Neihardt"
e302dd52-0857-4d13-a44e-03989379dc25,The Nordic Web Ventures,company,,,,https://www.thenordicweb.vc/,https://www.thenordicweb.vc/,,,ğŸ‡©ğŸ‡° Denmark,ğŸ‡©ğŸ‡° Denmark,Top European VCs,"â‚¬1,300,000",2019,"Martin Mignot, Christoph Janz, Philipp Moehring, Andy Chung, Niklas ZennstrÃ¶m, Sophia Bendz"
6e8d42b0-b652-4304-9e5a-e0ba8c5afb59,The Techshop,company,,,,,,,,ğŸ‡®ğŸ‡¹ Italy,ğŸ‡®ğŸ‡¹ Italy,Top European VCs,"â‚¬32,500,000",2022,CDP Venture Capital SGR
247136a2-2e18-4b73-b3cc-6fd39c7b7ce1,The Valley Venture Capital,company,,,,,,,,ğŸ‡ªğŸ‡¸ Spain,ğŸ‡ªğŸ‡¸ Spain,Top European VCs,"â‚¬15,000,000",2020,
7ea09b60-ff52-4375-8cbb-97e01c26e4b9,Think Bigger Capital,company,,,,https://thinkbigger.vc/,https://thinkbigger.vc/,,,ğŸ‡ªğŸ‡¸ Spain,ğŸ‡ªğŸ‡¸ Spain,Top European VCs,"â‚¬24,000,000",2020,"Fond-ICO, IVF (Institute ValenciÃ  de Finances)"
56b7f139-bf2d-4fa1-90ed-017becda6f21,Tilia Impact Ventures,company,,,,http://tiliaimpactventures.cz/,http://tiliaimpactventures.cz/,,,"Drtinova 557/10, Praha, Czech Republic 150 00, CZ","Drtinova 557/10, Praha, Czech Republic 150 00, CZ",Top European VCs,"â‚¬1,700,000",2018,
7ca09033-61e8-45d2-ae47-d9ae6df3b22b,Titanium VC,company,,,,,,,,ğŸ‡·ğŸ‡º Russia,ğŸ‡·ğŸ‡º Russia,Top European VCs,"â‚¬45,000,000",2016,
96a1a6f1-8f84-4030-aac6-dbe03939d879,TLV Opportunity,company,,,,,,,,ğŸ‡®ğŸ‡± Israel,ğŸ‡®ğŸ‡± Israel,Top European VCs,"â‚¬55,000,000",2020,
4665155f-b15a-422c-aaee-0ef24e49d52a,TLV Partners,company,,TLV Partners is an early-stage venture capital firm investing in Israeli entrepreneurs who are pushing the boundaries of what is possible.,,https://www.tlv.partners/,https://www.tlv.partners/,,,ğŸ‡®ğŸ‡± Israel,ğŸ‡®ğŸ‡± Israel,"All VCs ,Top European VCs","â‚¬135,000,000",2020,
79248c55-147b-488e-97f1-34302e1ea1e5,Tomahawk,company,,,,,,,,ğŸ‡¨ğŸ‡­ Switzerland,ğŸ‡¨ğŸ‡­ Switzerland,Top European VCs,"â‚¬18,300,000",2020,
0a7899a0-a686-4f9a-9aef-8d904a340354,Trind VC,company,,,,,,,,ğŸ‡ªğŸ‡ª Estonia,ğŸ‡ªğŸ‡ª Estonia,Top European VCs,"â‚¬55,000,000",2022,"European Investment Fund (EIF), Finnish Industry Investment (Suomen Teollisuussijoitus), LHV Pension Funds, Swedbank Investment Funds"
fb391027-6b34-4c2d-a707-cc30889dd3be,Trind Ventures,company,,,,http://trind.vc/,http://trind.vc/,,,Estonia,Estonia,"All VCs ,Top European VCs","â‚¬21,000,000",2018,"European Investment Fund (EIF), LHV pension funds"
e7c2c139-c4e9-4a19-92a2-a9fdb7b290ac,Triventures,company,,"Cyber Security, FinTech, Health Care, Medical Device, mHealth, Venture Capital",,http://www.triventures.net,http://www.triventures.net,,,ğŸ‡®ğŸ‡± Israel,ğŸ‡®ğŸ‡± Israel,"All VCs ,VC Founds - Seed - US/Europe,Top European VCs","â‚¬36,000,000",2019,
c21707c2-f49f-4154-ab64-17f48f351b8a,Truffle Capital,company,,,,https://www.truffle.com/,https://www.truffle.com/,,,"France,Belgium,Germany,Italy,Netherlands","France,Belgium,Germany,Italy,Netherlands",Top European VCs,"â‚¬140,000,000",2017,"Obratori (Groupe l'Occitane), Groupe Guerbet, Groupe Agrica, Cipav, Groupe BPCE, Caisse Centrale de RÃ©assurances (CCR), ProBTP, Sopra Steria"
f305af37-a0c9-41fe-b302-f4d189b3a658,TRUMPF Venture,company,venture@trumpf.com,TRUMPF Venture is the Corporate Venture Capital unit of the TRUMPF group,venture@trumpf.com,http://www.trumpf.com/s/venture,http://www.trumpf.com/s/venture,,,ğŸ‡©ğŸ‡ª Germany,ğŸ‡©ğŸ‡ª Germany,"Corporate Venture Arms,Top European VCs","â‚¬40,000,000",2016,
ed955b24-8ef1-4e57-96bf-13362f140b81,Trust Esport,company,,,,https://www.trust-esport.com/en/,https://www.trust-esport.com/en/,,,"France,Portugal,Germany,Belgium,Spain,Sweden,Denmark,Finland,Netherlands,Poland","France,Portugal,Germany,Belgium,Spain,Sweden,Denmark,Finland,Netherlands,Poland",Top European VCs,"â‚¬10,000,000",2018,Fimalac
d913882a-05ed-42d4-9cd1-b897770cf4c2,UBS Next,company,,,,,,,,ğŸ‡¨ğŸ‡­ Switzerland,ğŸ‡¨ğŸ‡­ Switzerland,Top European VCs,"â‚¬170,000,000",2020,UBS
9f8c312f-663f-467b-8cb9-ca534c339b47,UCL Technology Fund,company,,,,https://www.ucltf.co.uk/,https://www.ucltf.co.uk/,,,UK,UK,Top European VCs,"â‚¬130,500,000",2020,British Patient Capital (BCP)
5fec8c79-bde9-463c-8f2d-999944af0507,Uebermonger Ventures,company,,,,,,,,ğŸ‡¨ğŸ‡­ Switzerland,ğŸ‡¨ğŸ‡­ Switzerland,Top European VCs,"â‚¬18,300,000",2019,
ae9a7d38-9c72-4229-b7fc-95beed35cb53,Unconventional Ventures,company,,,,,,,,ğŸ‡©ğŸ‡° Denmark,ğŸ‡©ğŸ‡° Denmark,Top European VCs,"â‚¬30,000,000",2022,"Atomico, Vaekstfonden, Inner Foundation, Chr. Augustinus Fabrikker, Investinor"
73fc4770-178d-4d59-b5ca-092363f2e7ff,Underline Ventures,company,,,,,,,,ğŸ‡·ğŸ‡´ Romania,ğŸ‡·ğŸ‡´ Romania,Top European VCs,"â‚¬10,000,000",2022,
d830e8ff-633e-45eb-b4b8-ad7c3074a79b,UniCredit evo Investment Partnership,company,,,,,,,,ğŸ‡®ğŸ‡¹ Italy,ğŸ‡®ğŸ‡¹ Italy,Top European VCs,"â‚¬200,000,000",2016,Unicredit
9c688a28-cfb7-4d68-badf-520025454e45,UNIIQ,company,,,,,,,,ğŸ‡³ğŸ‡± Netherlands,ğŸ‡³ğŸ‡± Netherlands,Top European VCs,"â‚¬22,000,000",2016,
5b9c6587-823b-4d8a-8c0c-07ecdf4b66d0,United Ventures,company,,,,https://unitedventures.com/,https://unitedventures.com/,,,"Piazza Fontana, 1, Milano, Lombardia 20122, IT","Piazza Fontana, 1, Milano, Lombardia 20122, IT",Top European VCs,"â‚¬120,000,000",2017,"Fondo Italiano dâ€™Investimento, European Investment Fund (EIF), Banca Mediolanum, Banca Sella Holding, Fondazione di Sardegna"
c816e2cd-7ced-4cd2-b4c1-5a94e2cbfe05,University Bridge Fund (ABV),company,,,,,,,,ğŸ‡®ğŸ‡ª Ireland,ğŸ‡®ğŸ‡ª Ireland,Top European VCs,"â‚¬80,000,000",2021,"Trinity College Dublin (TCD), University College Dublin (UCD), University College Cork (UCC), European Investment Fund (EIF), Enterprise Ireland (EI), Allied Irish Banks (AIB)"
a39e07e0-4b93-4f99-8e09-0fef74536d1a,Unruly Capital,company,,,,,,,,ğŸ‡®ğŸ‡¹ Italy,ğŸ‡®ğŸ‡¹ Italy,Top European VCs,"â‚¬18,000,000",2022,"Albert Wenger, Boris Wertz, Hunter Walk, Ryan Hoover"
c26c3e60-f9fb-473d-9052-450786ebdb23,Untitled Ventures,company,,,,,,,,ğŸ‡¬ğŸ‡§ UK,ğŸ‡¬ğŸ‡§ UK,Top European VCs,"â‚¬100,000,000",2021,Vladimir Vedeenev
3781967f-02bd-4eb3-a032-cd3d5391f065,Upfin,company,,,,,,,,ğŸ‡©ğŸ‡° Denmark,ğŸ‡©ğŸ‡° Denmark,Top European VCs,"â‚¬30,000,000",2022,"VÃ¦kstfonden, Veliv, Finansforbundet"
618acf38-800c-437a-af49-eb2921fee098,UVC Partners,company,,We partner with Europe's most ambitious early-stage B2B tech startups.,,https://www.uvcpartners.com/,https://www.uvcpartners.com/,,,"Lichtenbergstr. 6 85748 Garching by Munich, Germany","Lichtenbergstr. 6 85748 Garching by Munich, Germany",Top European VCs,"â‚¬105,000,000",2020,"Lanxess AG, European Investment Fund (EIF)"
eaa65c41-419b-4999-ab3c-4828d8e9f4c4,UV T-Growth,company,,,,,,,,ğŸ‡®ğŸ‡¹ Italy,ğŸ‡®ğŸ‡¹ Italy,Top European VCs,"â‚¬100,000,000",2021,Tim Ventures
25c53e39-196f-40ef-ae78-c0db759c5588,V3 Ventures,company,,,,http://www.linkedin.com/company/v3-venture,http://www.linkedin.com/company/v3-venture,,,ğŸ‡¬ğŸ‡§ UK,ğŸ‡¬ğŸ‡§ UK,Top European VCs,"â‚¬100,000,000",2022,Verlinvest
0d660404-a737-4701-b389-ad3f7671001a,ValidÃ©,company,,"ValidÃ© is one of Norways largest government funded incubators and seed investor, based in the Rogaland-region.",,https://valide.no/,https://valide.no/,,,ğŸ‡³ğŸ‡´ Norway,ğŸ‡³ğŸ‡´ Norway,Top European VCs,"â‚¬2,100,000",2020,"Lyse, TDVeen, DSD, Stavanger municipality"
9279fe6a-a6b3-4fff-953d-7e9f19d1370a,Vektor Partners,company,,,,,,,,ğŸ‡¬ğŸ‡§ UK,ğŸ‡¬ğŸ‡§ UK,Top European VCs,"â‚¬50,000,000",2022,
98beefb8-cdce-4e48-879f-7f37768e5abb,Velocity Capital Fintech Venture Fund,company,,,,,,,,ğŸ‡³ğŸ‡± Netherlands,ğŸ‡³ğŸ‡± Netherlands,Top European VCs,"â‚¬105,000,000",2019,
7cce42d2-3de3-41a6-8805-5ae0d5a70fdb,Vendep Capital,company,,,,https://www.vendep.com/,https://www.vendep.com/,,,"Keilaranta 8, Espoo, Finland","Keilaranta 8, Espoo, Finland",Top European VCs,"â‚¬30,000,000",2017,"KRR II, Tesi, Elo Mutual Pension Insurance Company, The Finnish Innovation Fund Sitra, AI-Partners, Gerako Ltd., GÃ¶sta Serlachius Fine Arts Foundation, Saastamoinen Foundation"
7f04e98e-f538-48c3-b19d-8836661c2edc,Ventech,company,,,,https://www.ventechvc.com/,https://www.ventechvc.com/,,,"France,Germany,Austria,Switzerland,Netherlands,Belgium,Sweden,Finland,Denmark,Norway,Poland,Spain,Italy,Portugal,Czech Republic,Slovakia,Latvia,Lithuania,Estonia,Romania,UK,Ireland","France,Germany,Austria,Switzerland,Netherlands,Belgium,Sweden,Finland,Denmark,Norway,Poland,Spain,Italy,Portugal,Czech Republic,Slovakia,Latvia,Lithuania,Estonia,Romania,UK,Ireland","All VCs ,Top European VCs","â‚¬140,000,000",2018,European Investment Fund (EIF)
b73724d8-fc58-4638-a5a8-887cef1b8beb,VentureFriends,company,,,,https://venturefriends.vc/,https://venturefriends.vc/,,,"Athens, Greece 15125, GR","Athens, Greece 15125, GR","All VCs ,Top European VCs","â‚¬90,000,000",2021,"European Investment Fund (EIF), Hellenic Development Bank of Investments"
b0c04c3b-e29b-4ef1-85ef-5d55c334b8a7,Venture Israel,company,,,,https://ventureisrael.com/,https://ventureisrael.com/,,,ğŸ‡®ğŸ‡± Israel,ğŸ‡®ğŸ‡± Israel,Top European VCs,,2020,
56b9918b-e13d-4d2c-a4dc-b9d10595441c,VentureWave Capital,company,,,,https://venturewave.com/,https://venturewave.com/,,,ğŸ‡®ğŸ‡ª Ireland,ğŸ‡®ğŸ‡ª Ireland,Top European VCs,"â‚¬20,000,000",2020,"Adam Clayton, The Edge, Liam Neeson, Stephen Vernon, Mary Ann Oâ€™Brien, Bob McCann, Rob Perdue, Kurt Long, Eugene McQuade, Anne Heraty, Stanley Quek"
fab960ce-01ed-4744-b346-13483409a4a3,Vertis,company,,,,,,,,ğŸ‡®ğŸ‡¹ Italy,ğŸ‡®ğŸ‡¹ Italy,Top European VCs,"â‚¬30,000,000",2017,"Fondo Italiano d'investimento, European Investment Fund (EIF)"
78143629-8ba8-41d7-9dec-e277dec7866e,Vertis Venture Scaleup,company,,,,,,,,ğŸ‡®ğŸ‡¹ Italy,ğŸ‡®ğŸ‡¹ Italy,Top European VCs,"â‚¬40,000,000",2021,CDP Venture
aba13e16-6ed0-40f4-b289-48a54b3bae58,Vestas Ventures,company,,Vestas Ventures is a corporate venture capital arm of Vestas.,,https://www.vestas.com/en/about/our-partners/vestas-ventures,https://www.vestas.com/en/about/our-partners/vestas-ventures,,,Denmark,Denmark,"Corporate Venture Arms,Top European VCs",,2020,Vestas Wind Systems A/S
3b0904b5-d848-43e8-b50d-fb9ad206a9bc,VGames,company,,,,https://www.vgames.vc/,https://www.vgames.vc/,,,ğŸ‡®ğŸ‡± Israel,ğŸ‡®ğŸ‡± Israel,Top European VCs,"â‚¬26,300,000",2020,Viola Ventures
775d526e-9d1b-44bc-b44f-a4c190b60b84,Viola Fintech,company,,,,,,,,ğŸ‡®ğŸ‡± Israel,ğŸ‡®ğŸ‡± Israel,Top European VCs,"â‚¬85,000,000",2017,"Scotiabank, The Travelers Companies, Bank Hapoalim"
a970886b-ff40-48d4-9162-efb33e54ae07,Viola Ventures,company,,,,"https://www.viola-group.com/
 https://www.viola-group.com/fund/violaventures/","https://www.viola-group.com/
 https://www.viola-group.com/fund/violaventures/",,,ğŸ‡®ğŸ‡± Israel,ğŸ‡®ğŸ‡± Israel,"All VCs ,Top European VCs","â‚¬146,200,000",2017,
bb9e1ca3-fa19-4843-a0af-dad24479e849,VI Partners Swiss Innovation,company,,,,,,,,ğŸ‡¨ğŸ‡­ Switzerland,ğŸ‡¨ğŸ‡­ Switzerland,Top European VCs,"â‚¬71,000,000",2020,"ABB, BÃ¼hler, CrÃ©dit Suisse, ETH, Hilti, McKinsey, NestlÃ©, Schindler, Sulzer, Suva, ZKB), European Investment Fund (EIF), Swiss Entrepreneurs KmGK"
90e7d89a-514b-409b-b728-069f0082b65b,Visionaries Club (early growth),company,,,,,,,,ğŸ‡©ğŸ‡ª Germany,ğŸ‡©ğŸ‡ª Germany,Top European VCs,"â‚¬200,000,000",2022,"Hanno Renner, Jenny Podewils, Daniel Khachab, Christian Reber"
4014fc95-117f-4bfc-a285-809284f64adc,Visionaries Club [Growth],company,,,,,,,,ğŸ‡©ğŸ‡ª Germany,ğŸ‡©ğŸ‡ª Germany,Top European VCs,"â‚¬70,000,000",2021,"Niklas ZennstrÃ¶m, Jochen Engert, Dominik Richter, Daniel Dines, David Nothacker, Felix Fiege (Fiege logistics), Selina Stihl, Dr. Oetker, Bitburger"
390d622d-d940-440a-8bcb-28b06892301d,Visionaries Club (seed),company,,,,,,,,ğŸ‡©ğŸ‡ª Germany,ğŸ‡©ğŸ‡ª Germany,Top European VCs,"â‚¬150,000,000",2022,"Hanno Renner, Jenny Podewils, Daniel Khachab, Christian Reber"
dc4bb695-8661-4be2-9ad7-a0bd6eef5efa,Visionaries Club [Seed],company,,,,,,,,ğŸ‡©ğŸ‡ª Germany,ğŸ‡©ğŸ‡ª Germany,Top European VCs,"â‚¬70,000,000",2021,"Niklas ZennstrÃ¶m, Jochen Engert, Dominik Richter, Daniel Dines, David Nothacker, Felix Fiege (Fiege logistics), Selina Stihl, Dr. Oetker, Bitburger"
601cd93c-fd30-4e8a-804b-6855f55fb6ae,Visionaries Club (Tomorrow),company,,,,,,,,ğŸ‡©ğŸ‡ª Germany,ğŸ‡©ğŸ‡ª Germany,Top European VCs,"â‚¬50,000,000",2022,"Hanno Renner, Jenny Podewils, Daniel Khachab, Christian Reber"
90a51cb0-41a3-4099-be01-9ea76c0718fc,Vitosha Venture Partners,company,,"EUR 20m acceleration, seed, and post-seed fund based in Sofia, Bulgaria.",,http://vitosha.vc,http://vitosha.vc,,,ğŸ‡§ğŸ‡¬ Bulgaria,ğŸ‡§ğŸ‡¬ Bulgaria,Top European VCs,"â‚¬26,000,000",2021,European Regional Development Fund (ERDF)
dbabca7c-73d4-4fb1-a6f0-37278ed833b1,Voima Ventures,company,,,,https://voimaventures.com/,https://voimaventures.com/,,,"Helsinki, Finland","Helsinki, Finland","VC Founds - Seed - US/Europe,Top European VCs","â‚¬40,000,000",2019,"VTT Technical Research Centre of Finland, European Investment Fund (EIF)"
d28e5b44-21bb-4ebf-b85b-659a0db659b3,Volta Ventures,company,,,,https://www.volta.ventures/,https://www.volta.ventures/,,,ğŸ‡§ğŸ‡ª Belgium,ğŸ‡§ğŸ‡ª Belgium,Top European VCs,"â‚¬35,000,000",2019,
4f65e60a-a1f6-4666-a1d9-147f31d78a06,Volvo Cars Tech Fund,company,vctf@volvocars.com,Provides strategic investments and global market access for innovative auto and tech start-ups.,vctf@volvocars.com,https://group.volvocars.com/company/innovation/volvo-cars-tech-fund,https://group.volvocars.com/company/innovation/volvo-cars-tech-fund,,,"Mountain View, California, United States","Mountain View, California, United States","Corporate Venture Arms,Top European VCs",,2018,Volvo
8d237455-d3a9-4a5f-8b92-a129c9dabb29,Vorwerk Ventures,company,,,,https://vorwerkventures.com/,https://vorwerkventures.com/,,,"Fehrbelliner StraÃŸe 45, Berlin, 10119, DE","Fehrbelliner StraÃŸe 45, Berlin, 10119, DE",Top European VCs,"â‚¬150,000,000",2022,Vorwerk family
1d9b3a20-b32d-49c7-ba44-c8256a824f35,VP Capital / Larnabel Enterprises,company,,,,,,,,ğŸ‡·ğŸ‡º Russia,ğŸ‡·ğŸ‡º Russia,Top European VCs,"â‚¬97,000,000",2016,"Viktor Prokopenya, Gutseriev Family"
89a3c582-b49b-44f5-b638-d03858262065,VR Ventures,company,,,,https://www.vr-ventures.vc/,https://www.vr-ventures.vc/,,,ğŸ‡©ğŸ‡ª Germany,ğŸ‡©ğŸ‡ª Germany,Top European VCs,"â‚¬40,000,000",2020,"Berliner Volksbank, Ideal Lebensversicherung, Volksbank Bielefeld-GÃ¼tersloh, Rheingauer Volksbank, VR-Bank SÃ¼dpfalz"
47c5c0d4-0d17-42bd-8c8b-542cfb171a31,Vsquared Ventures,company,,Embracing technologies that advance society,,https://www.vsquared.vc/,https://www.vsquared.vc/,,,ğŸ‡©ğŸ‡ª Germany,ğŸ‡©ğŸ‡ª Germany,Top European VCs,"â‚¬159,000,000",2022,European Investment Fund (EIF)
788bc2c3-fc85-4a83-8bb5-c71565bfa9df,VSquared Ventures,company,,,,https://vsquared.vc/,https://vsquared.vc/,,,ğŸ‡©ğŸ‡ª Germany,ğŸ‡©ğŸ‡ª Germany,Top European VCs,"â‚¬65,000,000",2020,
c2809e70-7ee3-45d6-8966-33e2e014542c,Wave Ventures,company,,,,https://www.wave.ventures/,https://www.wave.ventures/,,,"Fredrikinkatu 42, Helsinki, 00100, FI","Fredrikinkatu 42, Helsinki, 00100, FI",Top European VCs,"â‚¬2,000,000",2022,"Risto Siilasmaa, Herlini and Ehnrooth families, founders of Supercell, Wolt, Smartly, Aiven, Oura"
19cf616a-416d-4594-8eb6-a3bfe6d699cb,Wellness Ventures,company,,,,,,,,ğŸ‡®ğŸ‡¹ Italy,ğŸ‡®ğŸ‡¹ Italy,Top European VCs,,2021,Nerio Alessandri
1df7fda9-721e-43ff-b2c2-4e7661fd2311,Whitestar Capital,company,,,,,,,,ğŸ‡¬ğŸ‡§ UK,ğŸ‡¬ğŸ‡§ UK,Top European VCs,"â‚¬153,000,000",2018,"Caisse de dÃ©pÃ´t et placement du QuÃ©bec (CDPQ), Fonds de solidaritÃ© FTQ (FSTQ), the Business Development Bank of Canada (BDC), Korea Venture Investment Corporation (KVIC), Investissement Quebec, ARKEA Group, Mizuho Securities, Swen Capital Partners, Isomer Capital, Walter Financial, Clerville Investment Management, Temaris Capital, Simone Investments, and Portag3 Ventures, Veolia, La Capitale, Corporate Groupe ADP, Ubisoft and Unisys Corporation through Canal Ventures"
d5cd281d-5620-419f-964f-cb29682c53a7,Wingman Ventures,company,,,,https://www.wingman.ch/,https://www.wingman.ch/,,,ğŸ‡¨ğŸ‡­ Switzerland,ğŸ‡¨ğŸ‡­ Switzerland,Top European VCs,"â‚¬70,000,000",2019,"founders of Digitec/Galaxus, Bexio, Duolingo, U-Blox, Xovis, Netcentric, VIU, Doodle, GetYourGuide and Contovista"
d9893631-f703-45d9-9de7-89e4e4e0d834,Wise Guys Pre-seed Fund,company,,,,,,,,ğŸ‡±ğŸ‡¹ Lithuania,ğŸ‡±ğŸ‡¹ Lithuania,Top European VCs,"â‚¬4,800,000",2019,Invega
594decaf-aeec-4133-9873-55afa7b65567,Wise Guys Seed Fund,company,,,,,,,,ğŸ‡±ğŸ‡¹ Lithuania,ğŸ‡±ğŸ‡¹ Lithuania,Top European VCs,"â‚¬2,900,000",2019,Invega
61c14b53-65a4-4777-bfd3-6b3fec90a9d2,World Fund,company,,,,https://www.worldfund.vc/,https://www.worldfund.vc/,,,"GerichtstraÃŸe 23 (Hof 4) 13347 Berlin, Deutschland","GerichtstraÃŸe 23 (Hof 4) 13347 Berlin, Deutschland",Top European VCs,"â‚¬350,000,000",2021,"European Investment Fund (EIF), Rolf SchrÃ¶mgens, Econos, Verena Pausder, Pausder, the founder of Thermondo, PwC, Mario Gotze"
aa7c67e7-ba6d-4e31-bd28-ac37254fd4a1,XAnge,company,,,,https://www.xange.fr/,https://www.xange.fr/,,,"France,Germany,Belgium,Luxembourg,Switzerland,Austria","France,Germany,Belgium,Luxembourg,Switzerland,Austria",Top European VCs,"â‚¬220,000,000",2022,
323cf4e3-bc39-45af-baa1-b086fa8e4552,Xange Digital,company,,,,,,,,ğŸ‡«ğŸ‡· France,ğŸ‡«ğŸ‡· France,Top European VCs,"â‚¬90,000,000",2018,"La Poste, Bpifrance, CNP"
29a472ad-380c-401d-83c9-fda86d9e98c9,XPRESS Ventures,company,,,,,,,,ğŸ‡©ğŸ‡ª Germany,ğŸ‡©ğŸ‡ª Germany,Top European VCs,,2021,Fiege Group
901f944d-d576-44bc-9bd4-0e7af8722b69,Yield Lab Europe,company,,,,https://yieldlab.ie/,https://yieldlab.ie/,,,ğŸ‡®ğŸ‡ª Ireland,ğŸ‡®ğŸ‡ª Ireland,Top European VCs,"â‚¬50,000,000",2019,"Enterprise Ireland (EI), Allied Irish Banks (AIB), European Investment Fund (EIF), Invest-NL"
4072023d-1902-42fb-9eb8-c752e6673609,YL Ventures,company,,,,https://www.ylventures.com,https://www.ylventures.com,,,Mill Valley,Mill Valley,"All VCs ,Seed & Series A US VC's ,Top European VCs","â‚¬105,000,000",2019,
36100308-bf12-4d05-8db4-3b96bd19cfc9,YZR Capital,company,,,,,,,,ğŸ‡©ğŸ‡ª Germany,ğŸ‡©ğŸ‡ª Germany,Top European VCs,"â‚¬100,000,000",2022,
52bcba84-ab25-4a4a-8b04-8f81c2f5a374,Zero Carbon Capital,company,,,,zerocarbon.capital,zerocarbon.capital,,,ğŸ‡¬ğŸ‡§ UK,ğŸ‡¬ğŸ‡§ UK,Top European VCs,"â‚¬14,750,000",2023,"Isomer Capital, Extantia"
b4cfa2a0-105a-4a5c-96fc-69123d31c5d1,ZGI-4,company,,,,,,,,ğŸ‡ªğŸ‡ª Estonia,ğŸ‡ªğŸ‡ª Estonia,Top European VCs,"â‚¬25,000,000",2018,"Development Finance Institution ALTUM, Swedbank IeguldÄ«jumu PÄrvaldes SabiedrÄ«ba, Balcia Insurance SE"
74dffd33-ebb4-4a58-8310-36914ae6d31b,Zinc,company,,Zinc.VC is a London-based business builder that runs 9 month mission-led programmes to build scalable commercial impact-led businesses.,,http://www.zinc.vc/,http://www.zinc.vc/,,,ğŸ‡¬ğŸ‡§ UK,ğŸ‡¬ğŸ‡§ UK,Top European VCs,"â‚¬32,900,000",2022,"British Business Bank (BBB), Big Society Capital, Molten Ventures, Isomer, Dunhill Medical Trust, Atomico, Anthemis Group, Taavet Hinrikus, Illka Paannan, Sarah Wood"
98bdc4cb-d350-445f-a00d-1fd81d122aec,Zintinus,company,,,,,,,,ğŸ‡©ğŸ‡ª Germany,ğŸ‡©ğŸ‡ª Germany,Top European VCs,"â‚¬150,000,000",2021,European Investment Fund (EIF)
