id,name,contactType,favoriteEmail,description,emails,favoriteUrl,urls,favoritePhone,phones,favoriteAddress,addresses,groups,Number of Exits,Number of Investments,Number of Portfolio Organizations
1017bbda-5b8b-4aba-8b47-c1148ce202dd,1Digi,company,,1Digi is an Investment management firm.,,,,,,"Dubai, United Arab Emirates","Dubai, United Arab Emirates",All Asian Family Offices,,3,2
2d45291a-d519-4a37-b631-40b37e8d518d,3PEL Ventures,company,eliran@3pel.com,"Fast track to innovation - investments, dev & biz dev, marketing",eliran@3pel.com,https://www.3pel.com/,https://www.3pel.com/,,,"Tel Aviv, Tel Aviv, Israel","Tel Aviv, Tel Aviv, Israel",All Asian Family Offices,,,
d226580d-e243-4a7a-a37a-c1ba53e25572,6G Capital,company,info@sixg.vc,"6G Capital is the family office arm of the Allana Group, which invests in diverse sectors ranging from retail, healthcare, and fintech.",info@sixg.vc,6g.capital,6g.capital,,,"Dubai, United Arab Emirates","Dubai, United Arab Emirates",All Asian Family Offices,1,2,2
4656d5fd-9302-4626-8d5b-ce410b5cd978,78 Ventures,company,contact@78vc.com,78 Ventures is a venture capital firm.,contact@78vc.com,https://78vc.com,https://78vc.com,,,"Singapore, Central Region, Singapore","Singapore, Central Region, Singapore",All Asian Family Offices,,,
94fba308-3c03-406c-b8f8-13855a83b4d8,7-Main,company,,7-Main,,,,,,"Herzliya, Tel Aviv, Israel","Herzliya, Tel Aviv, Israel",All Asian Family Offices,,1,1
7171566c-b196-456e-8685-931de55055e4,8finity Global,company,ketan@8finity.global,8finity Global provides an incubation by providing the necessary resources to execute a venture.,ketan@8finity.global,https://8finity.global,https://8finity.global,,,"Mumbai, Maharashtra, India","Mumbai, Maharashtra, India",All Asian Family Offices,1,2,2
a521a9b8-69f5-4857-a7b8-7df9059560f4,Abdulaal Group,company,info@abdulaal.net,"Technology group in the Middle East, with investments in the Telecom, security and Industrial sectors.",info@abdulaal.net,http://www.abdulaal.net,http://www.abdulaal.net,,,"Manama, Al Manamah, Bahrain","Manama, Al Manamah, Bahrain",All Asian Family Offices,,1,1
7b96a264-2844-40b4-a023-6e3f99fc7cd3,Abdul Latif Jameel,company,,Abdul Latif Jameel is a diversified business comprised of independent entities that include automotive distribution.,,http://www.alj.com/,http://www.alj.com/,,,"Jeddah, Makkah, Saudi Arabia","Jeddah, Makkah, Saudi Arabia",All Asian Family Offices,2,5,5
10de424d-c86a-4bed-a3b4-3b4aa6cb3ef8,Abeer Fund,company,media@abeer.com.au,A Specialist Fund Targeting World Changing Innovation,media@abeer.com.au,https://www.abeer.com.au/,https://www.abeer.com.au/,,,"Dubai, Dubai, United Arab Emirates","Dubai, Dubai, United Arab Emirates",All Asian Family Offices,,,
4ba8254b-5796-49dd-86ea-a933f517ad0f,Abu Dhabi Capital Group,company,,One of MENA's largest institutional investment groups,,abudhabicapitalgroup.com,abudhabicapitalgroup.com,,,"Abu Dhabi, United Arab Emirates","Abu Dhabi, United Arab Emirates",All Asian Family Offices,2,6,4
d7a56bc0-27f4-4f3f-9dd9-7933f8224412,Acuitas Capital,company,,Acuitas Capital is a financial services company.,,https://www.acuitascapital.in,https://www.acuitascapital.in,,,"Mumbai, Maharashtra, India","Mumbai, Maharashtra, India",All Asian Family Offices,2,2,2
ecebd84a-87d0-437e-ac47-cdb85bec5e5a,Adani Capital,company,contact.acpl@adani.com,"Adani Capital, the non-banking financial company.",contact.acpl@adani.com,https://www.adanicapital.in/,https://www.adanicapital.in/,,,"Mumbai, Maharashtra, India","Mumbai, Maharashtra, India",All Asian Family Offices,1,2,2
0dafefa5-b386-4dd0-a8a3-a716144fccc4,Aditya Vuchi's family office,company,,Aditya vuchi's family office is an investment firm.,,,,,,"Hyderabad, Andhra Pradesh, India","Hyderabad, Andhra Pradesh, India",All Asian Family Offices,,1,1
a43a8be6-914c-479d-8198-c2c4c997d715,Aglaia Family Office,company,,Aglaia Family Office provide comprehensive and bespoke family office services to ultra high net worth families.,,https://aglaiaim.com/,https://aglaiaim.com/,,,"Singapore, Central Region, Singapore","Singapore, Central Region, Singapore",All Asian Family Offices,,3,3
e219c30f-934f-4a23-ae58-e8ce63790c4b,AIJ Global,company,info@aij.global,We support entrepreneurial growth stories globally. We are PE/VC & Search Fund investors.,info@aij.global,https://www.aij.global,https://www.aij.global,,,"Abu Dhabi, Abu Dhabi, United Arab Emirates","Abu Dhabi, Abu Dhabi, United Arab Emirates",All Asian Family Offices,,3,2
7c8813fe-3d21-45f6-a4c5-340ab62acc6f,Ajax Capital,company,,"Ajax Capital, the family office of entrepreneur Ajay Gupta.",,,,,,"New Delhi, Delhi, India","New Delhi, Delhi, India",All Asian Family Offices,,2,2
ddcc4d4c-cd24-4fc3-b50a-98b2839bfcc9,AJ Capital,company,,AJ Capital is a family office of Jhunjhunwala family.,,https://ajcapital.com,https://ajcapital.com,,,"Singapore, Central Region, Singapore","Singapore, Central Region, Singapore",All Asian Family Offices,,4,4
f0aa56f1-099a-4854-8c13-81479b9b1e58,Albeed Group,company,,Abu Dhabi-based family office,,albeedgroup.com,albeedgroup.com,,,"Abu Dhabi, United Arab Emirates","Abu Dhabi, United Arab Emirates",All Asian Family Offices,,1,1
353b716a-c4d6-4444-8c5c-0dd05bff5211,Alchemie Ventures,company,,Alchemie Ventures is the family office arm of Mr. Chandrakant Gogri.,,,,,,"Mumbai, Maharashtra, India","Mumbai, Maharashtra, India",All Asian Family Offices,,1,1
79948231-3a2a-45ca-b80c-5aec5ebac5c2,Aldebaran Capital,company,,Aldebaran Capital is an investment firm.,,https://aldebarancapital.asia/,https://aldebarancapital.asia/,,,"Singapore, Central Region, Singapore","Singapore, Central Region, Singapore",All Asian Family Offices,,1,1
bc493161-e717-4952-ad19-041a970d100c,Al Falaj Investment Company,company,,Al Falaj Investment Company operates as a private family office.,,alfalajinv.com,alfalajinv.com,,,"Abu Dhabi, United Arab Emirates","Abu Dhabi, United Arab Emirates",All Asian Family Offices,1,10,10
dfefe394-34b1-4743-b113-8b5e20cdf081,Allegoria Capital,company,info@allegoriacapital.com,"Allegoria Capital is a consulting firm that provides management consultancy, corporate valuation, advisory, and private placement services.",info@allegoriacapital.com,allegoriacapital.com,allegoriacapital.com,,,"Dubai, United Arab Emirates","Dubai, United Arab Emirates",All Asian Family Offices,,1,1
bbbaae24-f90f-46a2-b4b2-c024e00e9f74,All Properties,company,info@alnoororchards.com,"Al Noor Orchard area is the most essential area on the guide, 3 km from Faizpur Trade, inverse Al-Raziq Garden.",info@alnoororchards.com,https://alnoororchards.com/,https://alnoororchards.com/,,,"Lahore, Punjab, Pakistan","Lahore, Punjab, Pakistan",All Asian Family Offices,,,
05464519-e897-47f3-9371-b149b0ff86fa,AL Maktoum Family,company,,AL Maktoum Family is an family investments office.,,https://www.maktoum.ae,https://www.maktoum.ae,,,"Dubai, Dubai, United Arab Emirates","Dubai, Dubai, United Arab Emirates",All Asian Family Offices,1,2,1
77050c48-7d70-4cef-8324-8ac6ba476a66,Almoayed Ventures,company,ventures@ag.bh,Almoayed Ventures is the venture investment arm of Almoayed General based in Bahrain.,ventures@ag.bh,http://www.almoayed.bh,http://www.almoayed.bh,,,"Manama, Al Manamah, Bahrain","Manama, Al Manamah, Bahrain",All Asian Family Offices,,22,22
8985fd3f-1e04-4d30-9630-e19c58280ba6,Alriyadah Investments,company,info@alriyadah-investments.com,Alriyadah Investments is a family-owned closed real estate and energy development fund.,info@alriyadah-investments.com,https://www.alriyadah-investments.com/,https://www.alriyadah-investments.com/,,,"Jeddah, Makkah, Saudi Arabia","Jeddah, Makkah, Saudi Arabia",All Asian Family Offices,,1,1
475939a6-6a56-4b75-92fd-0641dff0fb48,Al-Romaizan Family Office,company,,Al-Romaizan Family Office is a family investment office.,,,,,,"Riyadh, Ar Riyad, Saudi Arabia","Riyadh, Ar Riyad, Saudi Arabia",All Asian Family Offices,,1,1
286f0e9f-ccfc-4365-aa06-deb896455744,Al Serkal Group,company,,Leading family-office in the UAE with over 60 years of history,,alserkal.group,alserkal.group,,,"Dubai, United Arab Emirates","Dubai, United Arab Emirates",All Asian Family Offices,,1,1
0e688c79-2345-41ec-9f30-a19d6b2b4188,Alto Partners Multi-Family Office,company,info@alto-partners.com,A Multi-Family Office investment partnership in Asia comprising prominent entrepreneurs and next-generation wealth,info@alto-partners.com,http://www.alto-partners.com,http://www.alto-partners.com,,,"Singapore, Central Region, Singapore","Singapore, Central Region, Singapore",All Asian Family Offices,6,62,57
74157ef7-34f4-401a-9bff-5b5a19d0b8e1,Altoukhi Family Office,company,,Altoukhi Family Office operates as a family investment office.,,,,,,"Riyadh, Ar Riyad, Saudi Arabia","Riyadh, Ar Riyad, Saudi Arabia",All Asian Family Offices,,1,1
fe555375-2652-4768-872d-1005fdabd2eb,AlTouq Group,company,admin@altouq.com,AlTouq Group is an investment vehicle for the AlTouq family.,admin@altouq.com,http://www.altouq.com,http://www.altouq.com,,,"Riyadh, Ar Riyad, Saudi Arabia","Riyadh, Ar Riyad, Saudi Arabia",All Asian Family Offices,1,3,2
49404304-f617-44d5-944f-c2f913a46818,AM Capital,company,am@amcapital.pro,"AM Capital is a Fintech service that provides access to investment products such as venture capital deals, and real estate.",am@amcapital.pro,https://app.amcapital.pro,https://app.amcapital.pro,,,"Dubai, Dubai, United Arab Emirates","Dubai, Dubai, United Arab Emirates",All Asian Family Offices,,,
7495b0c5-3cf1-4c4d-82e0-64158ca89e93,AMKM Investments,company,info@amkm.ae,AMKM Investments is a single-family office that makes direct investments and funds its projects.,info@amkm.ae,amdar.me,amdar.me,,,"Dubai, United Arab Emirates","Dubai, United Arab Emirates",All Asian Family Offices,,,
dda9d4e3-ea5c-410e-b4bb-ee00c45b3d1b,Annex Investments,company,info@annexinvestments.com,Annex Investments is a leading Hybrid Venture SFO Founded by Ahmed Nasser Al Nowais,info@annexinvestments.com,The domain name of Anshu Vij is anshuvij.com,The domain name of Anshu Vij is anshuvij.com,,,"Abu Dhabi, United Arab Emirates","Abu Dhabi, United Arab Emirates",All Asian Family Offices,,8,8
ebc07d6e-f5d6-440c-be17-8268bc5e16bf,Apar Investments,company,,"Capital Markets, Real Estate, Wealth Management",,,,,,"Singapore, Central Region, Singapore","Singapore, Central Region, Singapore",All Asian Family Offices,,1,1
1d3dcd8c-f6e8-4756-b44b-24001fc8306e,AP Investment,company,info@apinvestmentco.com,AP Investment is a Hong Kong-based investment company,info@apinvestmentco.com,https://www.apinvestmentco.com/,https://www.apinvestmentco.com/,,,"Hong Kong, Hong Kong Island, Hong Kong","Hong Kong, Hong Kong Island, Hong Kong",All Asian Family Offices,1,4,3
0d5ebaae-9266-459f-8701-1eb2646b4b1f,Arete Capital Asia Limited,company,contact@arete-asia.com,Arete Capital Asia is a Multi-Family Office and a Boutique Financial Advisory Company.,contact@arete-asia.com,http://arete-asia.com,http://arete-asia.com,,,"Hong Kong, Hong Kong Island, Hong Kong","Hong Kong, Hong Kong Island, Hong Kong",All Asian Family Offices,,1,1
c9183c03-ff35-4e4a-a3c5-c8ecb78107f4,Arkblu Capital,company,hi@arkblucap.com,Private investment group managing a global business and investment portfolio to uncover the best market opportunities,hi@arkblucap.com,http://www.arkblucap.com,http://www.arkblucap.com,,,"Jakarta, Jakarta Raya, Indonesia","Jakarta, Jakarta Raya, Indonesia",All Asian Family Offices,,6,5
cd0b26fd-e85c-47ab-ab6b-4a11db97abbb,Arora Family Holdings,company,,Single Family Office - Holding Company,,https://www.linkedin.com/company/arorasfo/,https://www.linkedin.com/company/arorasfo/,,,"Delhi, Delhi, India","Delhi, Delhi, India",All Asian Family Offices,1,1,1
0d1f960e-6494-40cb-af76-be57b909c80f,Arrow Capital,company,,Arrow Capital is a financial and investment advisory firm that provides investment management and asset management services.,,arrow-capital.com,arrow-capital.com,,,"Dubai, United Arab Emirates","Dubai, United Arab Emirates",All Asian Family Offices,,1,1
137508c3-2bee-4269-a62e-7cd57e020173,Atinum Partners,company,,"Atinum Partners is a venture capital firm that invests in the growth stage startups in the IT, biotech, and healthcare sectors.",,http://www.atinuminvest.co.kr/,http://www.atinuminvest.co.kr/,,,"Seoul, Seoul-t'ukpyolsi, South Korea","Seoul, Seoul-t'ukpyolsi, South Korea",All Asian Family Offices,5,149,101
24d8461e-ad06-4da3-bdbf-591226b1b1a9,Atlas Global Kapital,company,,Atlas Global Kapital is an investment firm.,,,,,,"Jakarta, Jakarta Raya, Indonesia","Jakarta, Jakarta Raya, Indonesia",All Asian Family Offices,,1,1
ef1062b9-4d62-4077-8d51-63ac2c34c7fe,August One,company,operations@august.one,August One is a private investment firm and a MAS regulated Venture Capital,operations@august.one,http://www.august.one,http://www.august.one,,,"Singapore, Central Region, Singapore","Singapore, Central Region, Singapore",All Asian Family Offices,3,16,14
571d0978-a089-4c22-82bb-abe6a6650cfd,Aument Capital Partners,company,,Aument Capital Partners is a multi-family office that provides a full suite of family office services.,,https://www.aument-capital.com,https://www.aument-capital.com,,,"Singapore, Central Region, Singapore","Singapore, Central Region, Singapore",All Asian Family Offices,,2,2
9921c428-7311-4bd7-8b1f-3c7eeb9da957,Aura Group,company,info@aura.co,"Aura Group is a financial services business providing tailored wealth, funds management and corporate advisory solutions to clients.",info@aura.co,http://www.aura.co,http://www.aura.co,,,"Singapore, Central Region, Singapore","Singapore, Central Region, Singapore",All Asian Family Offices,,6,5
972d7b3f-0361-4170-a773-2a443ccb4e1c,AVA Angels,company,ava@angeltoventure.com,AVA Angels is an angel network that focuses in connecting startups with the angel and venture stages.,ava@angeltoventure.com,https://www.angeltoventure.com/,https://www.angeltoventure.com/,,,"Taipei, T'ai-pei, Taiwan","Taipei, T'ai-pei, Taiwan",All Asian Family Offices,,20,17
b4983888-e1b5-4b77-b89f-483a2c5f9a43,Avenue Partners,company,info@avenue-partners.co,Avenue Partners is an Asia based family office that specializes in alternative investments.,info@avenue-partners.co,https://www.avenue-partners.co/,https://www.avenue-partners.co/,,,"Hong Kong, Hong Kong Island, Hong Kong","Hong Kong, Hong Kong Island, Hong Kong",All Asian Family Offices,,,
d92e17eb-54d5-4430-b179-3d492ba1e628,Aviondor Group,company,,Global Alternative Asset Manager,,https://www.aviondor.com,https://www.aviondor.com,,,"Tokyo, Tokyo, Japan","Tokyo, Tokyo, Japan",All Asian Family Offices,,1,1
6425eca6-18ab-4c3f-ac4f-fe2fb325cdf1,AWJ Holding Company,company,,AWJ Holding Company is a family investment company specializing in real estate and investment.,,https://awjholding.com/,https://awjholding.com/,,,"Riyadh, Ar Riyad, Saudi Arabia","Riyadh, Ar Riyad, Saudi Arabia",All Asian Family Offices,,,
5fa18b8d-311a-4198-b229-e8f6ccd36a6c,AzurX,company,space@azurx.com,Space & Strategic Technologies,space@azurx.com,https://www.azurx.com/,https://www.azurx.com/,,,"Dubai, Dubai, United Arab Emirates","Dubai, Dubai, United Arab Emirates","Corporate Venture Arms,All Asian Family Offices",,1,1
2211a222-17a1-4f20-b460-056e99eada88,Baksh Capital,company,,Baksh Capital is a family office incorporated to facilitate and consolidate the investments for the family in the region.,,http://baksh.sg/,http://baksh.sg/,,,"Singapore, Central Region, Singapore","Singapore, Central Region, Singapore",All Asian Family Offices,,6,6
67127089-f1a4-49db-b959-9cf934841790,Banvest,company,ailan@jisrpartners.com,"Banvest, previously JISR Venture Partners, is an investment company that focuses on early and growth stage investments around the globe.",ailan@jisrpartners.com,banvest.com,banvest.com,,,"Dubai, United Arab Emirates","Dubai, United Arab Emirates",All Asian Family Offices,,7,7
178abf4e-7d2c-4efc-b8ff-3b11fc42227c,BF Belmont,company,,BF Belmont is a family investment office,,https://www.bfbelmont.com/,https://www.bfbelmont.com/,,,"Hong Kong, Hong Kong Island, Hong Kong","Hong Kong, Hong Kong Island, Hong Kong",All Asian Family Offices,,1,1
efe6c2cb-d0b9-4f6c-9450-45ec31a08830,Bhatia Ventures,company,vireshbhatia@gmaill.com,Bhatia Ventures is an advisory capital firm focused on technical software investments.,vireshbhatia@gmaill.com,http://www.bhatiaventures.com,http://www.bhatiaventures.com,,,"Chennai, Tamil Nadu, India","Chennai, Tamil Nadu, India",All Asian Family Offices,,,
5f9b272e-38eb-4c7b-9fe8-b8d7d9365dd3,Black Kite Capital,company,,Black Kite Capital is a single-family investment office based in Singapore.,,https://blackkitecapital.com,https://blackkitecapital.com,,,"Singapore, Central Region, Singapore","Singapore, Central Region, Singapore",All Asian Family Offices,,9,8
d5777194-a320-45cd-a233-962372adc24a,Blauwpark Partners,company,,"Blauwpark Partners is a single-family office for multiple families', with a focus on private equity, impact investment.",,https://www.blauwparkpartners.com/,https://www.blauwparkpartners.com/,,,"Singapore, Central Region, Singapore","Singapore, Central Region, Singapore",All Asian Family Offices,,4,3
36ce0be1-ab80-4fdb-b1b0-588acb3e6a7e,Blue7,company,,Blue7 is a Singapore based impact investor.,,https://www.blue7.sg/,https://www.blue7.sg/,,,"Singapore, Central Region, Singapore","Singapore, Central Region, Singapore",All Asian Family Offices,,7,6
1de0c90b-331e-4ed5-8a5c-2263c9fce8b6,Brama One Ventures,company,,Brama One Ventures (BOV) is a family office investing across a variety of industries from Seed Stage and beyond.,,https://www.brama-one.com/,https://www.brama-one.com/,,,"Surabaya, Jawa Timur, Indonesia","Surabaya, Jawa Timur, Indonesia",All Asian Family Offices,,4,3
ff9c617f-d014-4699-9879-2e5a21d06b97,Bridge Capital Holding,company,hello@bch.co,"Bridge Capital Holding is a family office investing in real estate, private equity and investment funds.",hello@bch.co,https://bch.co,https://bch.co,,,"Beirut, Beyrouth, Lebanon","Beirut, Beyrouth, Lebanon",All Asian Family Offices,,,
17059961-7ccc-45d2-9a66-c8da1e48e96c,Bright Success Capital,company,info@bright-success.com,Bright Success Capital is a family office fund based in Hong Kong that makes venture capital investments and provides strategic value,info@bright-success.com,https://www.bright-success.com/,https://www.bright-success.com/,,,"Admiralty, Hong Kong Island, Hong Kong","Admiralty, Hong Kong Island, Hong Kong",All Asian Family Offices,1,11,8
e3aefa1f-ae2f-4ed3-8118-7c2ce25f0c91,Buckscapital,company,mohandas@buckscapital.com,"First crowdfunding website helps, connect investors to business, entrepreneurs to find investments for ideas in Middle East, U A E, India",mohandas@buckscapital.com,buckscapital.com,buckscapital.com,,,"Sharjah, United Arab Emirates","Sharjah, United Arab Emirates",All Asian Family Offices,,,
509be914-21de-417f-8e61-0c964657c811,Bunny Capital,company,hello@bunny.capital,Bunny Capital is a digital asset focused investment firm.,hello@bunny.capital,https://bunny.capital,https://bunny.capital,,,"Hong Kong, Hong Kong Island, Hong Kong","Hong Kong, Hong Kong Island, Hong Kong",All Asian Family Offices,,,
3e984f5f-18df-4e26-92d0-f03bc33da013,Burman Family Holdings,company,,Burman Family Holdings is a strategic investment platform.,,burmanfh.com,burmanfh.com,,,"New Delhi, Delhi, India","New Delhi, Delhi, India",All Asian Family Offices,,4,4
85e2218a-da96-4a86-8646-46d868798ec4,BVC Ventures,company,info@bvcventures.com,"BVC Ventures is a family angel fund and entity of BVC Group, which is into logistics, security and tourism.",info@bvcventures.com,http://www.bvcventures.com/,http://www.bvcventures.com/,,,"Mumbai, Maharashtra, India","Mumbai, Maharashtra, India",All Asian Family Offices,1,6,6
21c09ff4-2d8e-4ccc-b249-61ab0589145b,Cachet Group,company,info@cachetam.com,Cachet is an asset management firm.,info@cachetam.com,https://www.cachet-group.com/,https://www.cachet-group.com/,,,"Central, Hong Kong Island, Hong Kong","Central, Hong Kong Island, Hong Kong",All Asian Family Offices,1,4,4
eb61f3d8-3f15-468a-a078-570065cbecf2,Camtech Diagnostics,company,mhk@camtech.com.sg,"Camtech Diagnostics develops, manufactures and commercialises rapid point of care testing for self testing, point of care and food safety",mhk@camtech.com.sg,http://www.Camtechdiagnostics.com,http://www.Camtechdiagnostics.com,,,"Bukit Merah, Central Region, Singapore","Bukit Merah, Central Region, Singapore",All Asian Family Offices,,1,1
685c7a83-e93b-4f18-8375-6fb7f1a4a9dc,CapB,company,info@capb.me,"A multifaceted, multipurpose and multinational investment office",info@capb.me,https://capb.me,https://capb.me,,,"Beirut, Beyrouth, Lebanon","Beirut, Beyrouth, Lebanon",All Asian Family Offices,,,
179d6e2c-1849-4145-a470-a3612cf45ace,Capikris Foundation,company,capikrisfoundation@gmail.com,"Experienced Investor in seed, pre-series A, series A and follow on stages; global, scalable and relevant technologies",capikrisfoundation@gmail.com,https://www.linkedin.com/in/capikris-foundation-b31628165/?original_referer=https%3A%2F%2Fwww%2Egoogle%2Ecom%2F&originalSubdomain=sg,https://www.linkedin.com/in/capikris-foundation-b31628165/?original_referer=https%3A%2F%2Fwww%2Egoogle%2Ecom%2F&originalSubdomain=sg,,,"Singapore, Central Region, Singapore","Singapore, Central Region, Singapore",All Asian Family Offices,4,11,11
f8be2cd0-c83d-4c7a-9559-118d40255b58,Capital Union Investments,company,,"Capital Union Investments is a leader in private investment for early stage, growth, mezzanine, and pre-IPO capital.",,www.linkedin.com/company/capital-union-investments,www.linkedin.com/company/capital-union-investments,,,"Hong Kong, Hong Kong Island, Hong Kong","Hong Kong, Hong Kong Island, Hong Kong",All Asian Family Offices,2,11,9
a958aeae-d933-4f24-a685-244a6540a4ba,Celeres Investments,company,enquiries@celeresinvestments.com,"Celeres' VC arm consists of start-ups across a variety of sectors AI, Cybersecurity, Digital Health, FinTech, F&B and Logistics.",enquiries@celeresinvestments.com,http://www.celeresinvestments.com,http://www.celeresinvestments.com,,,"Hong Kong, Hong Kong Island, Hong Kong","Hong Kong, Hong Kong Island, Hong Kong",All Asian Family Offices,3,16,11
e6aac383-38c2-460a-8d47-8e83c7c7bbb0,Centaurus Capital LP,company,,Centaurus Capital LP is a family office investment fund with a specific focus on the energy industry.,,,,,,"Hong Kong, Hong Kong Island, Hong Kong","Hong Kong, Hong Kong Island, Hong Kong",All Asian Family Offices,,1,1
0b038f5b-79ca-4bfd-a073-315314bdaca1,Chandurkar Family Office,company,,Chandurkar Family Office is an family investment office.,,,,,,"Mumbai, Maharashtra, India","Mumbai, Maharashtra, India",All Asian Family Offices,,,
7e3fd599-dad7-407f-8178-96d93815225b,Chhatisgarh Investments,company,,"Chhattisgarh Investments invests in real estate, investments, socio-forestry, and horticulture.",,https://cginvest.co.in,https://cginvest.co.in,,,"Raipur, Chhattisgarh, India","Raipur, Chhattisgarh, India",All Asian Family Offices,1,3,3
3736b459-a59d-4a93-bd69-c5835750ddab,China Asset Management,company,service@chinaamc.com,China Asset Management is a fund management company in China that focuses on mutual funds assets under management.,service@chinaamc.com,http://www.chinaamc.com.hk,http://www.chinaamc.com.hk,,,"Beijing, Beijing, China","Beijing, Beijing, China",All Asian Family Offices,15,17,17
8494653a-3f50-43b0-b18e-a0aeafffd23e,China Poly Group,company,dr.lingye@chinapolygrpup.ltd,China Poly Group Corporation Ltd is a large scale central state-owned enterprise under the management an of the family run SASAC.,dr.lingye@chinapolygrpup.ltd,http://www.poly.com.cn,http://www.poly.com.cn,,,"Beijing, Beijing, China","Beijing, Beijing, China",All Asian Family Offices,,2,2
3a954a78-546b-4b6e-aab6-4f4f6e7829bf,Chris Archer,company,contact@systema.vc,Chris Archer Personal Portfolio,contact@systema.vc,archer22.com,archer22.com,,,"Dubai, United Arab Emirates","Dubai, United Arab Emirates",All Asian Family Offices,4,38,34
4196a291-75e3-4305-9cff-e1b5da0da9da,Clearmind Capital Limited,company,info@clearmindcapital.co,Clearmind Capital is a investment office specialised in private equity and venture capital in Hong Kong.,info@clearmindcapital.co,https://www.clearmindcapital.co/,https://www.clearmindcapital.co/,,,"Central, Hong Kong Island, Hong Kong","Central, Hong Kong Island, Hong Kong",All Asian Family Offices,,2,1
eb594d7f-6dc6-44f6-a43f-6b058debfd9f,Clements Group Holdings,company,info@clementsgroupholdings.com,Clements Group Holdings is a private owned investment holding company based in Hong Kong.,info@clementsgroupholdings.com,https://clementsgroupholdings.com/,https://clementsgroupholdings.com/,,,"Shanghai, Shanghai, China","Shanghai, Shanghai, China",All Asian Family Offices,,1,1
c3756bdd-fb4a-4b64-b8c7-1ea0920c4ca2,Credence Family Office,company,,"Credence Family Office is a provider of advisory services including wealth management, insurance and risk management, and legal services.",,http://credencefamilyoffice.com/,http://credencefamilyoffice.com/,,,"Bengaluru, Karnataka, India","Bengaluru, Karnataka, India",All Asian Family Offices,1,4,4
5194a462-2813-4bf2-a980-09434db17629,Crystal Century Investment,company,info@crystalcenturyinvestment.com,Alternative investment management,info@crystalcenturyinvestment.com,https://www.crystalcenturyinvestment.com,https://www.crystalcenturyinvestment.com,,,"North Point, Hong Kong Island, Hong Kong","North Point, Hong Kong Island, Hong Kong",All Asian Family Offices,,,
6bf1aed1-6393-46f5-99e8-8eb4f43d2e12,Daher Capital,company,contact@dahercapital.com,Daher Capital is a family office that invests in public and private equity markets globally.,contact@dahercapital.com,dahercapital.com,dahercapital.com,,,"Dubai, United Arab Emirates","Dubai, United Arab Emirates",All Asian Family Offices,14,51,34
e936baeb-7344-4651-bfdb-b8f25e657217,Damingo Ventures,company,michel@damingo.ai,"Venture building, Investments, consultancy, advisory",michel@damingo.ai,,,,,"Singapore, Central Region, Singapore","Singapore, Central Region, Singapore",All Asian Family Offices,2,3,3
9fcbca48-d397-4ca4-a710-d5a5b563bd50,Darahim Investment,company,mansoor.alnajar@darahiminvestment.ae,"Wealth management, Private Equity, Venture Capital, Venture Debt, Real Estate Agency, Forex Accounts Manager, Low Carbon Energy Projects",mansoor.alnajar@darahiminvestment.ae,darahim.com,darahim.com,,,"Abu Dhabi, United Arab Emirates","Abu Dhabi, United Arab Emirates","Corporate Venture Arms,All Asian Family Offices",2,7,7
91225294-21bd-41c0-a806-8f9103c865e1,DAS Capital,company,,"Das Capital is an investment bank providing private placement, M&A, and strategic consulting services in the Chinese healthcare industry.",,https://dascapital.cn/about/?lang=en,https://dascapital.cn/about/?lang=en,,,"Shanghai, Shanghai, China","Shanghai, Shanghai, China",All Asian Family Offices,,1,1
e795d1ec-8b7f-4971-af18-a68f4cffb3c2,De Capital,company,,De Capital operates as a VC/PE and hedge fund.,,https://de-capital.co.jp/,https://de-capital.co.jp/,,,"Tokyo, Tokyo, Japan","Tokyo, Tokyo, Japan",All Asian Family Offices,,2,2
413d2243-a9b4-4a6a-899b-fa5747ce6d7f,DeepSky Capital,company,,DeepSky Capital is a family investment vehicle and private capital markets investor and advisor.,,http://www.deepskycapital.com,http://www.deepskycapital.com,,,"Hong Kong, Hong Kong Island, Hong Kong","Hong Kong, Hong Kong Island, Hong Kong",All Asian Family Offices,,1,1
de554085-be34-4215-98fa-cbd718575910,Dekko Isho Technologies Ltd. (DITECH),company,,"Sector Agnostic Early stage to Pre-series A Investor, Bangladesh Focused",,https://ditech.co/,https://ditech.co/,,,"Singapore, Central Region, Singapore","Singapore, Central Region, Singapore","Corporate Venture Arms,All Asian Family Offices",,1,1
3ef9c0f9-01c5-455d-93cf-dd898ec5b631,Desai Ventures,company,,Desai Ventures is a family office that supports founders and makes investments.,,https://www.desaiventures.io,https://www.desaiventures.io,,,"Ahmedabad, Gujarat, India","Ahmedabad, Gujarat, India",All Asian Family Offices,,2,2
3bc82af0-5f6a-484a-a08d-330e101a2ae4,DH Venture Holdings,company,,Investing in Sustainable Businesses for a better tomorrow,,https://www.linkedin.com/company/dh-venture-holdings,https://www.linkedin.com/company/dh-venture-holdings,,,"Singapore, Central Region, Singapore","Singapore, Central Region, Singapore",All Asian Family Offices,4,14,14
dab545de-06da-4e4d-81aa-ef6c752ff215,Dinesh Hinduja Family Office,company,,Dinesh Hinduja Family Office is a family investment firm.,,,,,,"Mumbai, Maharashtra, India","Mumbai, Maharashtra, India",All Asian Family Offices,,1,1
24669cf9-80e5-439c-a13a-f06f6c8f882a,Dingyu Capital,company,kelvin@tdcapitalhk.com,Dingyu Capital is a joint family office focusing on multi-field investment for family fund investors.,kelvin@tdcapitalhk.com,https://www.dingyucapital.com/,https://www.dingyucapital.com/,,,"Hong Kong, Hong Kong Island, Hong Kong","Hong Kong, Hong Kong Island, Hong Kong",All Asian Family Offices,,1,1
4716b01d-672e-46d3-8f3d-8c4b98d0e0d7,District Capital,company,info@districtcapital.co,A Hong Kong based impact venture investment firm,info@districtcapital.co,http://www.districtcapital.co,http://www.districtcapital.co,,,"Hong Kong, Hong Kong Island, Hong Kong","Hong Kong, Hong Kong Island, Hong Kong",All Asian Family Offices,,1,1
3539fc95-8d7e-44d0-9e6b-f527c7203818,DivCapital,company,info@div.capital,DivCapital provides personalized investments and financial services.,info@div.capital,https://div.capital,https://div.capital,,,"Beirut, Beyrouth, Lebanon","Beirut, Beyrouth, Lebanon",All Asian Family Offices,,1,1
f9bf9ef3-8483-407a-bd81-faf0734fd9a8,Double Peak Group,company,,Double Peak Group is a early stage venture capital fund focused on digital assets,,https://doublepeak.io,https://doublepeak.io,,,"Hong Kong, Hong Kong Island, Hong Kong","Hong Kong, Hong Kong Island, Hong Kong",All Asian Family Offices,1,98,96
d1df2758-ccd8-4ae7-884b-12c9b750f717,Dynamic Loop Capital,company,info@dlcap.com,Dynamic Loop Capital invests in and supports socially responsible and disruptive technology companies.,info@dlcap.com,https://www.dlcap.com/,https://www.dlcap.com/,,,"Herzliyya, Tel Aviv, Israel","Herzliyya, Tel Aviv, Israel",All Asian Family Offices,1,13,8
76e1c7a9-2c04-4804-b58b-b69b7c2f78fa,Early Capital Group,company,,"Early Stage Investment, Advisory & Venture Builder | We support passionate entrepreneurs to build iconic companies.",,https://www.earlycapitalgroup.com/,https://www.earlycapitalgroup.com/,,,"Hong Kong, Hong Kong Island, Hong Kong","Hong Kong, Hong Kong Island, Hong Kong",All Asian Family Offices,1,3,3
6f7bbc2e-ba15-4584-b018-d87570b74d4b,Eightstone Oclaner,company,enquiries@oclaner.com,Oclaner Asset Management is an independent asset management firm and Capital Markets Services license holder.,enquiries@oclaner.com,http://oclaner.com/,http://oclaner.com/,,,"Singapore, Central Region, Singapore","Singapore, Central Region, Singapore",All Asian Family Offices,,1,1
bb694185-839a-4b33-97d8-6e69f57d28c5,Eiosoft Capital (DIFC) Ltd,company,customercare@eiosoftcapital.ae,"We are Eiosoft Capital (DIFC) Ltd , a part EIOSOFT CAPITAL Group LLC",customercare@eiosoftcapital.ae,eiosoft.com,eiosoft.com,,,"Dubai, United Arab Emirates","Dubai, United Arab Emirates","Corporate Venture Arms,All Asian Family Offices",1,1,1
25fe21ab-343a-47c1-9bc2-952a53d9584e,ElDaba Holdings,company,vheld@dabatco.net,ElDaba Holdings is a family investment office.,vheld@dabatco.net,eldabaholdings.com,eldabaholdings.com,,,"Dubai, United Arab Emirates","Dubai, United Arab Emirates",All Asian Family Offices,,1,1
866a36f9-7152-4537-b2ab-3d772fe82dbb,Element 8 Group,company,info@e8gh.com,Element 8 provides an enterprise ecosystem to derive growth within its venture firms while advancing its research activities.,info@e8gh.com,https://www.e8gh.com/,https://www.e8gh.com/,,,"Singapore, Central Region, Singapore","Singapore, Central Region, Singapore",All Asian Family Offices,,1,1
fc06bb51-2110-4370-8c49-e2e9ee1cb915,Entrust Family Office,company,reachus@entrust.co.in,Entrust Family Office exclusively caters to the investment and non-investment needs of those with exceptional wealth to help them flourish.,reachus@entrust.co.in,https://www.entrustfamilyoffice.com/,https://www.entrustfamilyoffice.com/,,,"Bangalore, Karnataka, India","Bangalore, Karnataka, India",All Asian Family Offices,,1,1
79864f08-3308-41d7-9700-2e96216d4fa5,ENVINARY,company,hello@envinary.com,Financial & Strategic Advisory. To be enlightening visionary. To be Envinary.,hello@envinary.com,https://envinary.com,https://envinary.com,,,"Hong Kong, Hong Kong Island, Hong Kong","Hong Kong, Hong Kong Island, Hong Kong",All Asian Family Offices,,,
37058e4c-399f-4293-aa7a-167c08a9123a,Eudaimonia Capital,company,chris@eudaimoniacapital.com,Early stage investment firm.,chris@eudaimoniacapital.com,http://www.eudaimoniacapital.com/,http://www.eudaimoniacapital.com/,,,San Francisco,San Francisco,All Asian Family Offices,3,25,24
5c0d9be8-4945-49a5-8214-dab8d74f651e,EU Family Office,company,,EU Family Office is a family investment office.,,http://www.eufamilyoffice.eu/,http://www.eufamilyoffice.eu/,,,"Hong Kong, Hong Kong Island, Hong Kong","Hong Kong, Hong Kong Island, Hong Kong",All Asian Family Offices,,1,1
f0ea70d5-80d2-4c90-9bde-c397b4a627bd,ExitHub,company,support@mehlpartners.com,Venture Capital and Startup Studio,support@mehlpartners.com,https://www.mehlpartners.com,https://www.mehlpartners.com,,,"Jerusalem, Yerushalayim, Israel","Jerusalem, Yerushalayim, Israel",All Asian Family Offices,,,
b3525323-5c69-45b5-b9e7-e91b15e3ffd4,Exponential Growth Partners,company,aj@expo.ventures,"A boutique business consulting and private placement agency with 45 years of combined experience, focused on raising funds for exception venture capital firms, private equity and hedge funds, accelerators, incubators and foundries.",aj@expo.ventures,https://expo.ventures,https://expo.ventures,,,"Bene Beraq, Tel Aviv, Israel","Bene Beraq, Tel Aviv, Israel",All Asian Family Offices,,,
07167ceb-bc04-4106-a063-4dd5a0a808b0,Falguni and Sanjay Nayar Family Office,company,,Falguni and Sanjay Nayar Family Office is a family investment firm.,,,,,,"Mumbai, Maharashtra, India","Mumbai, Maharashtra, India",All Asian Family Offices,,3,2
c5efe81e-7c4e-444f-8300-50db9cee0f21,Fang Group,company,,FangGroup is a group investment company specializing in investment and asset management.,,http://en.fanggroup.com/,http://en.fanggroup.com/,,,"Chaoyang, Liaoning, China","Chaoyang, Liaoning, China",All Asian Family Offices,,3,3
a1942829-2c70-4b08-a349-ec58e8a3b891,Far East Capital,company,,"Far East Capital is the family office of Far East Organization, one of the largest private real estate developers in Singapore.",,https://www.fareast.capital/,https://www.fareast.capital/,,,"Singapore, Central Region, Singapore","Singapore, Central Region, Singapore",All Asian Family Offices,2,11,10
aa4f46a5-4716-4479-834d-a498f2c2f44a,Far East Organization,company,,Far East Organization is the largest private property developer in Singapore. It was founded by Singaporean billionaire Ng Teng Fong in,,http://www.fareast.com.sg,http://www.fareast.com.sg,,,"Singapore, Central Region, Singapore","Singapore, Central Region, Singapore","Corporate Venture Arms,All Asian Family Offices",,1,1
fb6e3f95-7169-40d7-8f66-ae088c5d446b,F. A. Sharf & Co.,company,,F. A. Sharf & Co. is a family office focused on venture capital and private equity investments solutions.,,,,,,"Ranchi, Jharkhand, India","Ranchi, Jharkhand, India",All Asian Family Offices,2,7,4
db5bec6c-8c93-413e-bf1f-d8c61d9b6806,Fazal Din Group,company,info@sehat.com.pk,"A Pakistani healthcare group with interests in hospitals, pharma manufacturing, brick & mortar/online pharmacies & medical device agencies",info@sehat.com.pk,http://www.fazaldin.com,http://www.fazaldin.com,,,"Lahore, Punjab, Pakistan","Lahore, Punjab, Pakistan",All Asian Family Offices,,2,2
d22cf37f-19d4-4613-8249-dc34ab5895af,FHS Capital,company,,FHS Capital primarily invests in innovative and forward-thinking businesses.,,fhscapital.com,fhscapital.com,,,"Dubai, United Arab Emirates","Dubai, United Arab Emirates",All Asian Family Offices,,4,4
50ef6338-0b89-4bd3-b4ef-50025c6d980e,Financial Horizon Group,company,info@f-horizon.com,Family office that manages diversified investments and businesses,info@f-horizon.com,http://www.f-horizon.com/,http://www.f-horizon.com/,,,"Al Khobar, Ash Sharqiyah, Saudi Arabia","Al Khobar, Ash Sharqiyah, Saudi Arabia",All Asian Family Offices,1,5,5
06a8381b-bd98-41ca-883a-7c3d95cf88ff,Fincasa Ventures,company,info@fincasacapital.com,Fincasa Ventures is a venture capital firm.,info@fincasacapital.com,fincasaventures.com,fincasaventures.com,,,"Dubai, United Arab Emirates","Dubai, United Arab Emirates","Corporate Venture Arms,All Asian Family Offices",,1,1
ad5697aa-f553-4e87-9ac9-ea26bb6dd8bd,Fisher8 Capital,company,,Fisher8 Capital operates as an investment firm.,,https://www.fisher8.capital/,https://www.fisher8.capital/,,,"Singapore, Central Region, Singapore","Singapore, Central Region, Singapore",All Asian Family Offices,,4,4
b1826d5a-1177-4605-b31d-0b75b4ed0089,Flmoat Inc.,company,info@flmoat.com,an investment firm focused on Africa-based companies maintaining the long-term float and a wide moat.,info@flmoat.com,https://flmoat.com/,https://flmoat.com/,,,"Tokyo, Tokyo, Japan","Tokyo, Tokyo, Japan",All Asian Family Offices,,,
5d8bd813-160e-4b49-953c-28a582ac8117,Footprints Investments,company,,Footprints Investments is an investment firm.,,,,,,"Singapore, Central Region, Singapore","Singapore, Central Region, Singapore",All Asian Family Offices,,2,1
0b202760-e2ec-4360-bbf0-008668902435,frwrd.fund,company,,frwrd.fund is a Dubai based family office investing in early-stage startups.,,frwrd.fund,frwrd.fund,,,"Dubai, United Arab Emirates","Dubai, United Arab Emirates",All Asian Family Offices,,1,1
dc85a719-cd7d-48fd-9acd-399b9277fb8d,Gate Business Service,company,,Gate Business Service is a private family investment office,,gatebusinessservice.com,gatebusinessservice.com,,,"Abu Dhabi, United Arab Emirates","Abu Dhabi, United Arab Emirates",All Asian Family Offices,1,1,1
7c96f96a-8c39-4e8d-a8b4-f07db3cb7105,Gerstenbrot Capital,company,,Gerstenbrot Capital is a family office specialising in digital assets.,,http://www.gerstenbrot.com,http://www.gerstenbrot.com,,,"Hong Kong, Hong Kong Island, Hong Kong","Hong Kong, Hong Kong Island, Hong Kong",All Asian Family Offices,,4,4
0ee2f268-6707-4551-97b4-87e12d1c8012,GMT Venture,company,,Venture Capital Firm Focused on Technologies That are Serving Global Markets,,https://www.gmtventure.com,https://www.gmtventure.com,,,"Netanya, HaMerkaz, Israel","Netanya, HaMerkaz, Israel",All Asian Family Offices,,4,2
486b3cb2-59e8-42c6-aa3c-fa3b2f5ac567,Grand China Capital,company,yum@grandchncap.com,Grand China Capital provides education and training services to capital market investors and high-net-worth individuals.,yum@grandchncap.com,http://www.grandchncap.com,http://www.grandchncap.com,,,"Wan Chai, Hong Kong Island, Hong Kong","Wan Chai, Hong Kong Island, Hong Kong",All Asian Family Offices,,,
84f697fa-c663-40ea-a50f-0f684e4c29be,Greenstone Equity Partners,company,info@gsequity.com,The largest fund placement firm based in the Middle East,info@gsequity.com,greenstoneequity.com,greenstoneequity.com,,,"Dubai, United Arab Emirates","Dubai, United Arab Emirates",All Asian Family Offices,,,
1ea84018-d1e9-49fb-a2fe-41d6b0a3a922,Group Meeran,company,,Group Meeran is a family investment office that manages the private investments of the Meeran family.,,http://www.groupmeeran.com/,http://www.groupmeeran.com/,,,"Kochi, Kerala, India","Kochi, Kerala, India",All Asian Family Offices,,1,1
7fddd02d-2c10-4c7e-abbb-29573b28be79,Group SNS,company,porus.satwe@groupsns.com,Group SNS is a privately-owned conglomerate focused on international investments and commercial trade.,porus.satwe@groupsns.com,groupsns.com,groupsns.com,,,"Dubai, United Arab Emirates","Dubai, United Arab Emirates",All Asian Family Offices,1,1,1
88dae978-9f4c-44ab-8c34-9dbf99a84194,Gulia Ventures LLP,company,contact@gulia.in,Private Investment Office,contact@gulia.in,http://gulia.in/,http://gulia.in/,,,"Jaipur, Rajasthan, India","Jaipur, Rajasthan, India",All Asian Family Offices,,,
645fe608-b56f-4a71-b52b-acf968c7975f,Gund Investment LLC,company,investment@gundinvest.mn,"Gund Investment LLC is investment holding company located in Mongolia and has operations in financial service, business incubation and more",investment@gundinvest.mn,https://gundinvest.mn,https://gundinvest.mn,,,"Ulaanbaatar, Ulaanbaatar, Mongolia","Ulaanbaatar, Ulaanbaatar, Mongolia",All Asian Family Offices,,1,1
88b88227-c591-467a-8189-e5745c077346,Habaple Limited,company,sagar.habaple.partner@outlook.com,Building up a next generation utility service,sagar.habaple.partner@outlook.com,https://www.linkedin.com/company/habaple-limited/,https://www.linkedin.com/company/habaple-limited/,,,"Rajkot, Gujarat, India","Rajkot, Gujarat, India",All Asian Family Offices,,1,1
4783c2be-b852-47d9-978b-3ae17e033451,Hamad Ali Sagri family office,company,,Hamad Ali Sagri family office operates as a family investment firm.,,,,,,"Dubai, Dubai, United Arab Emirates","Dubai, Dubai, United Arab Emirates",All Asian Family Offices,,1,1
40765f87-9530-4616-84e3-501da9340d47,Hanking Family Office,company,,Hanking Family Office is an investment firm.,,http://www.hkfof.com/12/about.asp,http://www.hkfof.com/12/about.asp,,,"Shanghai, Shanghai, China","Shanghai, Shanghai, China",All Asian Family Offices,,2,2
097d4bc1-07d2-4e86-8665-73b352b362ba,HAOSHi Accelerator,company,hello@hao-shi.org,"Accelerator, Investment",hello@hao-shi.org,https://www.hao-shi.org,https://www.hao-shi.org,,,"Taipei, T'ai-pei, Taiwan","Taipei, T'ai-pei, Taiwan",All Asian Family Offices,,,
5c68a168-2752-4170-bcdc-9dc8b86247a6,Harmony Advisors,company,,Harmony Advisors is an asset management company that provides investment management and advisory services.,,https://www.harmonyadvisors.com/,https://www.harmonyadvisors.com/,,,"Hong Kong, Hong Kong Island, Hong Kong","Hong Kong, Hong Kong Island, Hong Kong",All Asian Family Offices,,1,1
6c400861-aa98-4af9-8909-c11830ca3d69,Hatton Capital Limited,company,info@hattoncapital.com,We are family office that seeks to invest or acquire growth stage companies in the agri and FMCG space,info@hattoncapital.com,http://www.hattoncapital.com,http://www.hattoncapital.com,,,"Hong Kong, Hong Kong Island, Hong Kong","Hong Kong, Hong Kong Island, Hong Kong",All Asian Family Offices,,1,1
8a5de308-21fe-4d67-b381-a56771a00731,Hawksburn Capital,company,info@hawksburncapital.com,Hawksburn Capital operates as independent asset management and advisory firm.,info@hawksburncapital.com,http://www.hawksburncapital.com,http://www.hawksburncapital.com,,,"Singapore, Central Region, Singapore","Singapore, Central Region, Singapore",All Asian Family Offices,,1,1
5c1a3e20-1d9d-4aa7-b7c0-ef772987304c,HB Investments,company,ventures@hbinvestments.com,Family Investment Office,ventures@hbinvestments.com,https://hbinvestments.com/,https://hbinvestments.com/,,,"Dubai, United Arab Emirates","Dubai, United Arab Emirates",All Asian Family Offices,,5,4
4cf6ecf7-714f-425c-87e0-2620cf1f8601,HCL Capital,company,,HCL Capital operates as a family investment office.,,https://www.hcl-capital.com,https://www.hcl-capital.com,,,"Hong Kong, Hong Kong Island, Hong Kong","Hong Kong, Hong Kong Island, Hong Kong",All Asian Family Offices,,3,2
4a6c2b97-f19a-41ab-9517-abd95e1e04ae,HC Ventures,company,info@kuvcapital.com,HC ventures is an investing firm that does seed investments for startups.,info@kuvcapital.com,http://www.hervecuviliez.com,http://www.hervecuviliez.com,,,"Beirut, Beyrouth, Lebanon","Beirut, Beyrouth, Lebanon",All Asian Family Offices,,1,1
1a62bd3d-8ae9-4058-b37b-7b73aad09b5d,HELLOHEALTH,company,work@hellohealthplus.com,A tech-oriented platform offering subscription-based healthcare services in tier 2 & below with its efficient marketing channels.,work@hellohealthplus.com,http://hellohealthplus.com,http://hellohealthplus.com,,,"Jaipur, Rajasthan, India","Jaipur, Rajasthan, India",All Asian Family Offices,,,
ed6762fd-c0ce-4db2-92db-55b4e35ba46e,HH Family,company,info@hh-family.com,"Family Office with a focus on growing, building and investing in ventures that solve meaningful problems.",info@hh-family.com,http://www.linkedin.com/company/hh-vc-investments,http://www.linkedin.com/company/hh-vc-investments,,,"Singapore, Central Region, Singapore","Singapore, Central Region, Singapore",All Asian Family Offices,,17,13
b10d035d-eac2-4499-ad19-1cbea843f364,High House Iinvestments,company,,High House Investment is a family office focused on deep-technology and climate-tech investments.,,http://www.high-house.vc/,http://www.high-house.vc/,,,"Tel Aviv-yafo, Tel Aviv, Israel","Tel Aviv-yafo, Tel Aviv, Israel",All Asian Family Offices,,1,1
98dd3f4d-d2f9-4e80-9e16-667ea251b957,HireSEOAgency,company,,Futuristic Online Marketing Company,,https://hireseoagency.com/,https://hireseoagency.com/,,,"Ahmedabad, Gujarat, India","Ahmedabad, Gujarat, India",All Asian Family Offices,,,
cc0fb64a-c0ca-4b6d-a685-684041aeca4b,Hothaat Marketplace Private Limited,company,ram.shinde@ringbelldeal.com,Hothaat Marketplace Private Limited is an online marketplace that allows resellers to select and sell its products online.,ram.shinde@ringbelldeal.com,http://www.hothaat.com,http://www.hothaat.com,,,"Mumbai, Maharashtra, India","Mumbai, Maharashtra, India",All Asian Family Offices,,,
0e017ca7-f0da-4339-b110-d028ed94a0a0,HT Capital,company,,"Asset Management, Venture Capital, Fund of Funds",,https://htcapital.org/,https://htcapital.org/,,,"Beijing, Beijing, China","Beijing, Beijing, China",All Asian Family Offices,3,20,19
1eb2d260-1eea-478b-942b-473088144945,iArgento,company,office@iargento.com,"iArgento is a multi-family office specializing in wealth management, alternative investments, and digital assets.",office@iargento.com,https://www.iargento.com/,https://www.iargento.com/,,,"Jerusalem, Yerushalayim, Israel","Jerusalem, Yerushalayim, Israel",All Asian Family Offices,1,9,6
a8300f1f-9296-436d-80dd-d89b38b8e8b1,ICS FO,company,peter.balint@ics-im.com,ICS is a Family Office focused on growth investing,peter.balint@ics-im.com,https://www.ics-im.com/,https://www.ics-im.com/,,,"Dubai, Dubai, United Arab Emirates","Dubai, Dubai, United Arab Emirates",All Asian Family Offices,1,9,9
0d4c0a59-dca4-4ea7-9556-c980c9c14575,IDT Holding,company,,Focusing into NFC and Access Control Markets,,idt.net,idt.net,,,"Ras Al Khaimah, United Arab Emirates","Ras Al Khaimah, United Arab Emirates",All Asian Family Offices,,3,2
c89c1aa5-bfa3-4f18-b06a-33f9c5a228a6,Imaginal Seeds,company,,Imaginal Seeds,,,,,,"Singapore, Central Region, Singapore","Singapore, Central Region, Singapore",All Asian Family Offices,,4,4
372d47f3-5f99-44df-90b1-f5cdbf00e9b2,Inheritance Enterprises,company,,Inheritance Enterprises is a family office and an investment holding company.,,http://www.inheritance.group,http://www.inheritance.group,,,"Singapore, Central Region, Singapore","Singapore, Central Region, Singapore",All Asian Family Offices,,1,1
c8abbbd2-393a-4067-bc8b-82cb6ed9881e,IntelMutya Group,company,contact@intelmutyagroup.com,"IntelMutya Group, a dynamic and innovative private conglomerate, focuses on Technology, Real Estate, FMCG, and Private Equity Ventures.",contact@intelmutyagroup.com,https://intelmutyagroup.com,https://intelmutyagroup.com,,,"Taguig, Rizal, Philippines","Taguig, Rizal, Philippines",All Asian Family Offices,,1,1
465fd1be-fb96-404c-b064-5044c4242630,IONIA Máy lọc nước ion kiềm,company,maylocnuocionkiem@gmail.com,IONIA thành lập vào 5-1982 là công ty hàng đầu Thế giới về sản xuất kinh doanh máy lọc nước ion kiềm,maylocnuocionkiem@gmail.com,https://ionia.com.vn/,https://ionia.com.vn/,,,"Hanoi, NA - Vietnam, Vietnam","Hanoi, NA - Vietnam, Vietnam",All Asian Family Offices,,,
480c1f7e-fad1-4749-be27-d463757375a0,Izaki Ventures,company,,"Angel investor, focusing on Climatech, Energy, Food, Agriculture, and Supply Chain startups.",,https://www.izakivc.com/,https://www.izakivc.com/,,,"Tel Aviv, Tel Aviv, Israel","Tel Aviv, Tel Aviv, Israel",All Asian Family Offices,,5,5
fe708fad-39a8-450b-9891-a0213edff2a4,Jafferjee Brothers Group,company,,"JB Securities is a member of CSE, Sri Lanka. We are currently the dedicated stock brokering arm of the Jafferjee Brothers Group.",,https://www.jbs.lk/,https://www.jbs.lk/,,,"Colombo, Western, Sri Lanka","Colombo, Western, Sri Lanka",All Asian Family Offices,,1,1
724df2c5-a162-425e-a44f-468cbf8525ed,J&A Partners,company,,J&A Partners is a venture capital investment firm.,,,,,,"Delhi, Delhi, India","Delhi, Delhi, India",All Asian Family Offices,,2,2
1ad7372a-fcf4-41b7-8584-1c18e35e9682,Jeejeebhoy Family Office,company,,Jeejeebhoy Family operates as an investment office.,,,,,,"Mumbai, Maharashtra, India","Mumbai, Maharashtra, India",All Asian Family Offices,,3,3
6f9c5433-9d85-4dbe-9490-306972ec1dc2,Jinhe Investment,company,jinhezb@sina.com,Jinhe Investment is an investment firm that offer asset management and investment management service.,jinhezb@sina.com,http://www.jinhezb.com/,http://www.jinhezb.com/,,,"Wuhan, Hubei, China","Wuhan, Hubei, China",All Asian Family Offices,2,2,2
b8d2e472-2644-4de6-8798-5cd96987f283,JJ Family Office,company,,JJ Family Office is a family investment office.,,,,,,"Mumbai, Maharashtra, India","Mumbai, Maharashtra, India",All Asian Family Offices,,1,1
793c1d8f-cdef-45ad-abcd-954bc69ba8b1,JMCR Partners,company,info@jmcrpartners.com,JMCR Partners is a family office that provides corporate and individual investment financing solutions.,info@jmcrpartners.com,http://www.jmcrpartners.com/,http://www.jmcrpartners.com/,,,"Hong Kong, Hong Kong Island, Hong Kong","Hong Kong, Hong Kong Island, Hong Kong",All Asian Family Offices,3,23,18
80f94e1a-420b-43c2-89f3-bf8d59961863,Kairos Capital Group,company,general@kairos-cp.com,"Kairos Capital Group provides bespoke multi-family office investment services for high net worth individuals, families and institutions.",general@kairos-cp.com,https://kairos-cp.com,https://kairos-cp.com,,,"Singapore, Central Region, Singapore","Singapore, Central Region, Singapore",All Asian Family Offices,,2,2
6c5a1e5f-24fb-4bdd-a0a7-319d7090cf29,KAIZEN FZCO,company,,"KAIZEN FZCO is a family office based in Dubai, UAE, with a focus on investments in the MENA and CIS region.",,kaizenfzco.com,kaizenfzco.com,,,"Dubai, United Arab Emirates","Dubai, United Arab Emirates",All Asian Family Offices,,1,1
7e59974a-4bfe-4726-8227-785ffec56069,Kamet Capital Partners,company,,Kamet Capital Partners is a venture capital firm that combines investing and innovation to establish a new realm of wealth management.,,https://kametcapital.com/,https://kametcapital.com/,,,"Singapore, Central Region, Singapore","Singapore, Central Region, Singapore",All Asian Family Offices,1,7,4
26d6cf0a-4767-4c53-8e58-96230ce78877,Kanoria Family Office,company,,Kanoria Family Office is an Investment firm.,,,,,,"Kolkata, West Bengal, India","Kolkata, West Bengal, India",All Asian Family Offices,,1,1
f9ab4208-fc41-49d4-b287-df7e3b57500f,Kapower,company,info@kapower.org,"The Kapower Investment Cooperative is pursuing investment opportunities in Emerging Markets, focused on digitalization.",info@kapower.org,kapower.energy,kapower.energy,,,"Dubai, United Arab Emirates","Dubai, United Arab Emirates",All Asian Family Offices,,,
c9dde88a-6329-477c-87b5-5cd504daba60,KECH,company,,Private Company,,http://kech.sg,http://kech.sg,,,"Woodlands, North Region, Singapore","Woodlands, North Region, Singapore",All Asian Family Offices,,,
8f101055-f92f-4d46-8f60-b5e2626f4b49,Kemexel Ventures (KEMEXEL GROUP COMPANIES),company,info@kemexel.com,We at KEMEXEL eCommerce Companies starting from Inventory Management & Ventures (Family Office),info@kemexel.com,http://kemexel.com/,http://kemexel.com/,,,"New Delhi, Delhi, India","New Delhi, Delhi, India","Corporate Venture Arms,All Asian Family Offices",1,3,1
89ea1b73-9872-4d25-a2d9-a2bda3615430,Khimji Ramdas,company,info@ahliaenv.com,Khimji Ramdas LLC (KR) is a leading corporate house in the Sultanate of Oman.,info@ahliaenv.com,http://www.khimji.com/,http://www.khimji.com/,,,"Muscat, Masqat, Oman","Muscat, Masqat, Oman",All Asian Family Offices,,2,2
e73651b6-bba0-4756-9505-56f81c7999aa,Kimera,company,,Kimera is a Dubai-based family office which provides financial planning and investment advisory services.,,kimera.ai,kimera.ai,,,"Dubai, United Arab Emirates","Dubai, United Arab Emirates",All Asian Family Offices,,5,3
0b96ce35-04aa-4be4-beb9-6569963f5988,Kingbridge,company,,"Kingbridge, a Singapore-based family office.",,https://kingsbridgecp.com/,https://kingsbridgecp.com/,,,"Central and Western, Hong Kong Island, Hong Kong","Central and Western, Hong Kong Island, Hong Kong",All Asian Family Offices,,1,1
3120dff0-715b-45b4-9d06-e2ec317f20af,Kingsley Asset Management,company,,"Kingsley Asset Management specializes in wealth management, family office, asset allocation, and investment management advisory services.",,http://www.kingsleykorea.com/,http://www.kingsleykorea.com/,,,"Seoul, Seoul-t'ukpyolsi, South Korea","Seoul, Seoul-t'ukpyolsi, South Korea",All Asian Family Offices,,1,1
01ae4004-cf8b-4617-975a-1cf0b85a358d,Klein Family Office,company,,Klein Family Office provides enterprises opportunities for investment.,,https://www.kfo.co.il,https://www.kfo.co.il,,,"Tel Aviv, Tel Aviv, Israel","Tel Aviv, Tel Aviv, Israel",All Asian Family Offices,,1,1
0b9632a9-60dd-416a-bfca-09877a106fa2,Kliff Capital,company,,Kliff Capital operates as an investment firm.,,https://kliffcapital.com,https://kliffcapital.com,,,"Bangkok, Krung Thep, Thailand","Bangkok, Krung Thep, Thailand",All Asian Family Offices,,1,1
1957de4e-767c-4996-9d31-fff838c94f00,Kolte Patil Family Office,company,,KPFO endeavors to create a gen-next investment ecosystem that supports new-age businesses that are innovative and disruptive.,,https://kpfoventures.com/,https://kpfoventures.com/,,,"Pune, Maharashtra, India","Pune, Maharashtra, India",All Asian Family Offices,,2,2
164a7462-d1e9-4c18-93a1-3413e5721f74,KPB Family Trust,company,,KPB Family Trust a family office of KP Balaraj.,,https://www.kpbfamilytrust.com/,https://www.kpbfamilytrust.com/,,,"Bangalore, Karnataka, India","Bangalore, Karnataka, India",All Asian Family Offices,,1,1
ba7e3f89-24e2-44eb-98fd-5276be3512fa,Lake Bleu Capital,company,,Lake Bleu Capital is a Hong Kong-based investment platform that specializes in healthcare.,,https://lakebleu-cap.com/,https://lakebleu-cap.com/,,,"Hong Kong, Hong Kong Island, Hong Kong","Hong Kong, Hong Kong Island, Hong Kong",All Asian Family Offices,9,31,31
3d67bb79-7e65-4c46-a480-073ddee51261,Legziel Family,company,simonlegziel@gmail.com,Legziel Famliy,simonlegziel@gmail.com,https://www.linkedin.com/in/simonlegziel/,https://www.linkedin.com/in/simonlegziel/,,,"Herzliya, Tel Aviv, Israel","Herzliya, Tel Aviv, Israel",All Asian Family Offices,2,49,46
a4db2b83-25ad-4739-968e-e9ccf940ed29,Leicester Wealth Management,company,office@leicesterlw.com,Wealth Management Firm and Investment Advisory,office@leicesterlw.com,https://www.leicesterwm.com/,https://www.leicesterwm.com/,,,"Ramat Gan, Tel Aviv, Israel","Ramat Gan, Tel Aviv, Israel",All Asian Family Offices,,,
c62bf1ba-a0f6-4b05-9382-e450cbce38e6,Le Mercier’s Capital,company,,Le Mercier’s Capital is a single family office which invests both strategically and opportunistically in growth capital situations.,,https://www.lemerciers.com/,https://www.lemerciers.com/,,,"Singapore, Central Region, Singapore","Singapore, Central Region, Singapore",All Asian Family Offices,,1,1
24bd444c-303c-4f9a-8984-65eb2ab26d5e,LHT Capital,company,,LHT Capital is a private investment company in Hong Kong.,,https://www.linkedin.com/company/lhtcapital/about/,https://www.linkedin.com/company/lhtcapital/about/,,,"Wan Chai, Hong Kong Island, Hong Kong","Wan Chai, Hong Kong Island, Hong Kong",All Asian Family Offices,,,
bbbb0419-b296-492b-ac04-b1d24b9cddd9,Li Family Office,company,info@lifamilyoffice.com,"Family office, focused on investing our own and partner funds in projects worldwide",info@lifamilyoffice.com,http://www.lifamilyoffice.com,http://www.lifamilyoffice.com,,,"Hong Kong, Hong Kong Island, Hong Kong","Hong Kong, Hong Kong Island, Hong Kong",All Asian Family Offices,,1,1
f93c782a-b241-4f09-89cc-07592d708213,Lighthouse Canton,company,info@lighthouse-canton.com,Lighthouse Canton is a global investment institution offering wealth and asset management services.,info@lighthouse-canton.com,https://www.lighthouse-canton.com/,https://www.lighthouse-canton.com/,,,"Singapore, Central Region, Singapore","Singapore, Central Region, Singapore",All Asian Family Offices,,4,4
13cab1f1-0ca6-4f91-8315-d0fb030a5054,LINK ASSET MANAGEMENT,company,,"LINK is a hedge fund based in Seoul, Korea.",,https://www.linkasset.kr,https://www.linkasset.kr,,,"Seoul, Seoul-t'ukpyolsi, South Korea","Seoul, Seoul-t'ukpyolsi, South Korea",All Asian Family Offices,1,3,3
7b9714fa-9688-42a4-9b4f-7e4ba0cb2cb9,LionRock Capital,company,info@lionrock.com,LionRock Capital is a family investment office based in Singapore.,info@lionrock.com,http://www.lionrockcapitalhk.com/,http://www.lionrockcapitalhk.com/,,,"Singapore, Central Region, Singapore","Singapore, Central Region, Singapore",All Asian Family Offices,4,19,11
0749b6e7-a2fb-4d62-871a-efce0214154c,Lonsdale Capital,company,,Lonsdale Capital is a family investment office that funds social enterprises to bring them to the next level.,,https://www.lonsdale.com.sg/,https://www.lonsdale.com.sg/,,,"Singapore, Central Region, Singapore","Singapore, Central Region, Singapore",All Asian Family Offices,1,3,2
4d50e907-9cfa-4584-833f-0e0ed1f44bcb,Luminor Capital,company,info@luminorcapital.com.sg,Luminor Capital is a Private Equity group headquarted in Singapore. Their objective is to create value and achieve investment returns from,info@luminorcapital.com.sg,http://www.luminorcapital.com.sg,http://www.luminorcapital.com.sg,,,"Singapore, Central Region, Singapore","Singapore, Central Region, Singapore",All Asian Family Offices,,4,3
52c2dbe1-adfb-4b90-9405-dc19d73830f2,Lunar Capital Investments,company,contact@lunarcapitalinvest.com,Investments,contact@lunarcapitalinvest.com,https://lunarcapitalinvest.com,https://lunarcapitalinvest.com,,,"Jakarta, Jakarta Raya, Indonesia","Jakarta, Jakarta Raya, Indonesia",All Asian Family Offices,,1,1
0c1dd0a1-310b-4d97-ba21-6353bc3f36d8,Lunar One Capital,company,info@lunaronecapital.com,Private investment company that invests in multi-stage companies across different sectors and alternative assets,info@lunaronecapital.com,http://www.lunaronecapital.com,http://www.lunaronecapital.com,,,"Hong Kong, Hong Kong Island, Hong Kong","Hong Kong, Hong Kong Island, Hong Kong",All Asian Family Offices,,2,2
cc2dcbba-fc42-4f43-9edd-835d9f5b6d8b,Lunch Actually Group,company,info@lunchactually.com,"Pioneer dating company in Asia, Lunch Actually was set-up in Singapore in 2004. It has since expanded to MY, HK, ID and TH.",info@lunchactually.com,http://www.lunchactually.com,http://www.lunchactually.com,,,"Singapore, Central Region, Singapore","Singapore, Central Region, Singapore",All Asian Family Offices,,1,1
a6df1910-f5b8-40df-86f3-25aa704e1526,MABS,company,pranav@mabsindia.com,"MABS is the Office of the Shanghvi Family that invests in the Real Estate, Retail & Private Equity space",pranav@mabsindia.com,http://www.mabsindia.com/,http://www.mabsindia.com/,,,"Ahmedabad, Gujarat, India","Ahmedabad, Gujarat, India",All Asian Family Offices,,4,4
a0e96a42-e300-425b-a4f4-5eb5f7c90b97,Madhuram Papers,company,,Madhuram Papers is a family office.,,,,,,"Noida, Uttar Pradesh, India","Noida, Uttar Pradesh, India",All Asian Family Offices,,2,2
3fee8d69-21b7-4027-b460-fb84bd117dc3,Maelstrom,company,info@maelstromglobal.com,Maelstrom invests in cool shit with a focus on crypto and digital assets.,info@maelstromglobal.com,https://maelstrom.fund,https://maelstrom.fund,,,"Hong Kong, Hong Kong Island, Hong Kong","Hong Kong, Hong Kong Island, Hong Kong",All Asian Family Offices,,15,14
d229b50d-f57a-48c8-870f-8878a41b5e6d,Mafatlal family office,company,contact@arvindmafatlalgroup.com,The Mafatlal Family Office primarily invests in early-stage companies with cutting-edge ideas and innovations.,contact@arvindmafatlalgroup.com,https://arvindmafatlalgroup.com/mafatlal-family-office,https://arvindmafatlalgroup.com/mafatlal-family-office,,,"Mumbai, Maharashtra, India","Mumbai, Maharashtra, India",All Asian Family Offices,,1,1
9a5bc6d4-944a-417d-a199-e9dd663d04ee,Mahansaria Family Office,company,,Mahansaria Family operates as an investment office.,,https://mahansariagroup.com,https://mahansariagroup.com,,,"Mumbai, Maharashtra, India","Mumbai, Maharashtra, India",All Asian Family Offices,,2,2
10471818-0d18-4224-a83a-526f871b8315,Maiden Capital,company,hello@maidencap.com,Maiden Capital is a family investment office.,hello@maidencap.com,https://www.maidencap.com,https://www.maidencap.com,,,"Singapore, Central Region, Singapore","Singapore, Central Region, Singapore",All Asian Family Offices,,1,1
835a5cdc-7ffb-4624-b39a-3600b7b4d282,Malpani Ventures,company,pitch@malpaniventures.com,Funding frugal innovation in India,pitch@malpaniventures.com,https://www.malpaniventures.com,https://www.malpaniventures.com,,,"BKC, Mumbai, Maharashtra, India - 400071","BKC, Mumbai, Maharashtra, India - 400071","VC investing in India ,All Asian Family Offices",4,24,20
07ab1b27-2d74-48ba-b4a8-06713ad42143,Mankekar Family Office,company,,Mankekar Family Office is an family investment office.,,,,,,"Mumbai, Maharashtra, India","Mumbai, Maharashtra, India",All Asian Family Offices,,10,8
a8751a2c-5190-4756-89a0-094f8d840a91,Mankind Group Family office,company,,Mankind Group Family office is an investment firm.,,,,,,"Delhi, Delhi, India","Delhi, Delhi, India",All Asian Family Offices,,6,5
704c2c3d-8da5-474c-9d72-b6f3de0ec357,Marwah Steels,company,,"Marwah Steels specializes in commercial leasing, realty advisory, hospitality management, sports consulting, and steel manufacturing.",,https://marwah.in/,https://marwah.in/,,,"Mumbai, Maharashtra, India","Mumbai, Maharashtra, India",All Asian Family Offices,,1,1
1c72bb13-ed51-42f6-988f-5e793b92724b,Mayapada Group,company,,Mayapada Group is an Indonesian-based conglomerate founded by Dato Sri Tahir in 1986,,http://mayapadagroup.com/,http://mayapadagroup.com/,,,"Dki Jakarta, Jakarta Raya, Indonesia","Dki Jakarta, Jakarta Raya, Indonesia",All Asian Family Offices,,1,1
c9dee6e5-b1ba-4b26-a1f1-768bbd0977a3,MEMG Family Office.,company,,MEMG Family Office is a single-family firm that focuses on venture capital investments.,,,,,,"Bengaluru, Karnataka, India","Bengaluru, Karnataka, India",All Asian Family Offices,,7,6
41309cc3-282f-43de-ac1e-5537d15fa916,Menomadin Foundation,company,contact@menomadin.com,Menomadin impact investments,contact@menomadin.com,https://menomadin.com/,https://menomadin.com/,,,"Herzliya, Tel Aviv, Israel","Herzliya, Tel Aviv, Israel",All Asian Family Offices,,4,3
91c15309-7948-43ca-93be-ac6d1646e872,Meta Technology Capital,company,,Meta Technology Capital is a family investment office.,,,,,,"Singapore, Central Region, Singapore","Singapore, Central Region, Singapore",All Asian Family Offices,,1,1
f910b9de-be24-4d2c-935f-cc3f2ed38965,Midas.Investments,company,business@midas.investments,Midas.Investments is a custodial “CeDeFi” crypto-investment platform focusing on producing passive income on crypto assets under management.,business@midas.investments,https://midas.investments,https://midas.investments,,,"Dubai, United Arab Emirates","Dubai, United Arab Emirates",All Asian Family Offices,,,
744a894d-bc2d-4747-9dce-3b1c5a0bc733,Milliard Partners,company,,a Discreet and Socially Conscious Multi-family Office,,http://www.milliardpartners.com,http://www.milliardpartners.com,,,"Hong Kong, Hong Kong Island, Hong Kong","Hong Kong, Hong Kong Island, Hong Kong",All Asian Family Offices,,1,1
bbcec292-4b50-4359-9093-a99ea21b43fa,Mimesis Capital,company,,Mimesis Capital is a multi-strategy family fund with focus on generational wealth transfer.,,https://www.mimesiscapital.com,https://www.mimesiscapital.com,,,"Taipei, T'ai-pei, Taiwan","Taipei, T'ai-pei, Taiwan",All Asian Family Offices,,1,1
9812c037-60e7-4c96-b6cf-9a68a619987f,Minyin International,company,stephen@minyincap.com,Minyin International is a venture capital investment firm.,stephen@minyincap.com,https://www.minyincap.com/en/,https://www.minyincap.com/en/,,,"Daxing, Beijing, China","Daxing, Beijing, China",All Asian Family Offices,1,17,17
90c9b965-9d41-4788-91b9-f7322c71e2c0,Mirabilis Investment Trust,company,,Mirabilis Investment Trust operates as an investment firm.,,https://www.linkedin.com/company/mirabilis-investment-trust/?originalSubdomain=in,https://www.linkedin.com/company/mirabilis-investment-trust/?originalSubdomain=in,,,"Bengaluru, Karnataka, India","Bengaluru, Karnataka, India",All Asian Family Offices,,6,6
f215eee2-d340-4938-a430-a9d36847be82,M&L Healthcare Investments,company,,M&L Healthcare Investments provides and offers financial assistance to businesses from the healthcare industry.,,https://www.mnlhealthcare.com,https://www.mnlhealthcare.com,,,"Singapore, Central Region, Singapore","Singapore, Central Region, Singapore",All Asian Family Offices,,3,3
4362df73-86c7-4840-8d16-fa9b263ee4a5,Mojo Partners,company,,Mojo Partners is the family office fund of Ong Beng Seng's family.,,,,,,"Singapore, Central Region, Singapore","Singapore, Central Region, Singapore",All Asian Family Offices,1,7,6
2f095728-7efb-4b44-a01d-df71e398d9cf,Mongrel Ventures,company,,"Mongrel venture is a private and independent venture capitalist, it is invest many company and startup.",,http://www.mongrelventures.com/,http://www.mongrelventures.com/,,,"Hong Kong, Hong Kong Island, Hong Kong","Hong Kong, Hong Kong Island, Hong Kong",All Asian Family Offices,,,
02548ea7-8682-41dc-8b2d-524d8ea496d5,MOON HOLDING CAPITAL,company,moonholdingcapital@gmail.com,MOON HOLDING CAPITAL is a family investment office that specializes in delivering long-term value to its clients and partners.,moonholdingcapital@gmail.com,https://moonholding.capital/,https://moonholding.capital/,,,"Kuala Lumpur, Kuala Lumpur, Malaysia","Kuala Lumpur, Kuala Lumpur, Malaysia",All Asian Family Offices,,1,1
03addcc8-1fe6-4f83-aff9-c45d9c996c74,Mylktree Family Office,company,,Mylktree Family Office is a family investment office.,,https://www.linkedin.com/company/mylktree-familyoffice/?originalSubdomain=in,https://www.linkedin.com/company/mylktree-familyoffice/?originalSubdomain=in,,,"Hyderabad, Andhra Pradesh, India","Hyderabad, Andhra Pradesh, India",All Asian Family Offices,,1,1
be2cfb84-c79e-461b-aa80-616835516f0f,Nama Invest,company,info@namainvest.sa,Delivering a growing purpose; Enhancing life experience one venture at a time.,info@namainvest.sa,https://namainvest.sa,https://namainvest.sa,,,"Riyadh, Ar Riyad, Saudi Arabia","Riyadh, Ar Riyad, Saudi Arabia",All Asian Family Offices,,,
d4cc0581-eed1-4531-bb63-d62a9daa0007,Narotam Sekhsaria Family Office,company,,Narotam Sekhsaria Family Office is the investment management arm of Narotam Sekhsaria.,,https://www.sekhsaria.com/,https://www.sekhsaria.com/,,,"Mumbai, Maharashtra, India","Mumbai, Maharashtra, India",All Asian Family Offices,1,4,4
e05bec35-90ea-4a7e-a8f2-e48e5f4cf392,Nasir Foundation,company,,"Nasir Foundation supports initiatives in environment, education, world health and population, and community giving.",,https://nasirfoundation.org/,https://nasirfoundation.org/,,,"Dubai, United Arab Emirates","Dubai, United Arab Emirates",All Asian Family Offices,,,
7f480d85-cd1d-46be-94aa-dfaed4d15ba1,NaviCom International Investment,company,info@navicominvestment.com,NaviCom International Investment is an independent provider of alternative investment and comprehensive wealth management solutions.,info@navicominvestment.com,https://www.navicominvestment.com,https://www.navicominvestment.com,,,"Wan Chai, Hong Kong Island, Hong Kong","Wan Chai, Hong Kong Island, Hong Kong",All Asian Family Offices,,,
febb7ceb-493a-4782-9fb4-4582eb298954,NeoStencil,company,info@neostencil.com,NeoStencil is a live-learning Edtech platform in the $20bn Indian test preparation segment.,info@neostencil.com,https://neostencil.com,https://neostencil.com,,,"Gurgaon, Haryana, India","Gurgaon, Haryana, India",All Asian Family Offices,,1,1
f2387acd-975f-4503-ad40-81012aa2e354,Net Capital Ventures,company,orit@netcapitalventures.com%20,Net Capital Ventures is an investment and advisory firm that specializes in innovation industries.,orit@netcapitalventures.com%20,https://www.netcapitalventures.com/,https://www.netcapitalventures.com/,,,"Ramat Gan, Tel Aviv, Israel","Ramat Gan, Tel Aviv, Israel",All Asian Family Offices,1,4,3
258d296a-5303-4edc-81f8-193841769412,NewChic Capital,company,info@newchiccapital.com,"A single-family office with roots in property, technology, and businesses in the US and in Asia.",info@newchiccapital.com,http://newchiccapital.com,http://newchiccapital.com,,,"Hong Kong, Hong Kong Island, Hong Kong","Hong Kong, Hong Kong Island, Hong Kong",All Asian Family Offices,,1,1
92d17fa5-ccc3-4c1b-aa81-9b2d3c47e5b4,NEXEA Venture Capital & Angel Investors,company,,NEXEA is a venture capital VC and accelerator that invests in early stage companies.,,https://www.nexea.co/venture-capital/,https://www.nexea.co/venture-capital/,,,"Selangor, Selangor, Malaysia","Selangor, Selangor, Malaysia",All Asian Family Offices,2,34,27
59ba0b81-7a3b-43c5-9047-b71bd9818326,NFL Investments,company,info@nflinvestments.com,Noble Future Land Investments is a cross-continental financial enterprise deploying capital across multiple sectors.,info@nflinvestments.com,https://nflinvestments.com,https://nflinvestments.com,,,"Dubai, United Arab Emirates","Dubai, United Arab Emirates",All Asian Family Offices,,2,2
59826877-43a2-439d-a3b5-79df90b447ad,NLS Ventures,company,deals@nlsventures.com,NLS Ventures is an early stage investment firm based in HK,deals@nlsventures.com,http://www.nlsventures.com,http://www.nlsventures.com,,,"Hong Kong, Hong Kong Island, Hong Kong","Hong Kong, Hong Kong Island, Hong Kong",All Asian Family Offices,3,15,15
b15a3f2d-1502-41e4-930c-e7b7250f8294,NODWIN Gaming,company,info@nodwingaming.com,NODWIN Gaming is one of the top sports content companies in the world focusing on esports,info@nodwingaming.com,http://nodwingaming.com,http://nodwingaming.com,,,"Gurgaon, Haryana, India","Gurgaon, Haryana, India","Corporate Venture Arms,All Asian Family Offices",,5,3
bd33d0d4-a9fb-4019-a2dc-d53ef07a2c92,Noor Holding,company,info@noorholding.co,"Noor Holding manages a portfolio of investments which are diversified across asset classes, geographies, and industries.",info@noorholding.co,noorholding.co,noorholding.co,,,"Kuwait, Al Kuwayt, Kuwait","Kuwait, Al Kuwayt, Kuwait",All Asian Family Offices,1,1,1
de5b74a9-b04e-4f73-b72d-0013b5f5046b,Noxy Capital,company,,Venture Capital,,,,,,"Hong Kong, Hong Kong Island, Hong Kong","Hong Kong, Hong Kong Island, Hong Kong",All Asian Family Offices,,,
deebb5c5-a4bc-40ba-a646-2b0e4a280e0d,NP Equity Partners,company,contact@npequitypartners.com,NP Equity Partners is a private multi-asset alternative investment firm that invests in technology-driven companies.,contact@npequitypartners.com,http://www.npequitypartners.com,http://www.npequitypartners.com,,,"Seoul, Seoul-t'ukpyolsi, South Korea","Seoul, Seoul-t'ukpyolsi, South Korea",All Asian Family Offices,,1,1
2ea86639-8a3d-43d7-b67e-347f15d04b62,Nullabor,company,,"NULLABOR is a Singapore based investor in seed and growth stage ventures, predominantly focused on Southeast Asian markets.",,http://www.nullabor.vc,http://www.nullabor.vc,,,"Singapore, Central Region, Singapore","Singapore, Central Region, Singapore",All Asian Family Offices,,5,4
c0210dc0-1141-47de-8c5e-fef429ee3cd9,Nusa Ka Satu,company,wawan@nusakasatu.com,Investment Holding Company,wawan@nusakasatu.com,https://nusakasatu.com/,https://nusakasatu.com/,,,"Penang, Pulau Pinang, Malaysia","Penang, Pulau Pinang, Malaysia",All Asian Family Offices,,,
0ea61d34-41a5-4a06-8bfc-a760cd3b6890,NxGen.xyz,company,investment@nxgen.xyz,NxGen.xyz is the social capital collective opening any door in Web3.,investment@nxgen.xyz,https://www.nxgen.xyz/,https://www.nxgen.xyz/,,,"Dubai, Dubai, United Arab Emirates","Dubai, Dubai, United Arab Emirates",All Asian Family Offices,,66,65
0059f3c2-b414-4dc9-bed2-83718333d548,O2 Angels Network,company,rajesh@o2angels.net,O2 Angels Network is an investment firm. It is backed by the ex-iBankers with a sector agnostic focus.,rajesh@o2angels.net,http://www.o2angels.net/,http://www.o2angels.net/,,,"New Delhi, Delhi, India","New Delhi, Delhi, India",All Asian Family Offices,,14,14
20f60b1b-39e1-463f-96de-6c9b33cdcff6,Oak Grove Ventures,company,,Oak Grove Ventures is an investment firm specializing in early-stage investments.,,https://www.oakgrove.vc/,https://www.oakgrove.vc/,,,"Singapore, Central Region, Singapore","Singapore, Central Region, Singapore",All Asian Family Offices,,9,9
913c9205-e7df-4cf0-96c2-f7c534156142,Octava,company,enquiries@octava.sg,"Octava family investment office invests in properties, technology, lifestyle, and venture capital funds.",enquiries@octava.sg,https://www.octava.sg,https://www.octava.sg,,,"Singapore, Central Region, Singapore","Singapore, Central Region, Singapore",All Asian Family Offices,,5,4
470439ee-9aba-4b97-ba3b-c977b74100c0,Olritz Financial Group,company,,Investment Management Firm,,https://olritz.com,https://olritz.com,,,"Hong Kong, Hong Kong Island, Hong Kong","Hong Kong, Hong Kong Island, Hong Kong",All Asian Family Offices,,,
cbc406b1-83a9-42b0-a879-d3b944137ad1,ONeil Capital Management India,company,info@oneilglobaladvisors.com,ONeil Capital Management India is an alternate investment fund.,info@oneilglobaladvisors.com,https://oneilcapital.in,https://oneilcapital.in,,,"Bangalore, Karnataka, India","Bangalore, Karnataka, India",All Asian Family Offices,,,
b7f60483-f582-407a-b320-1f88f0ea0f15,Onlan Capital,company,,Private single family investment firm,,http://www.onlancapital.com,http://www.onlancapital.com,,,"Hong Kong, Hong Kong Island, Hong Kong","Hong Kong, Hong Kong Island, Hong Kong",All Asian Family Offices,1,1,1
1afdb82f-0436-4bb7-82d5-43dce3603c8a,ONYXinv Investments,company,info@onyxinv.com,Family office in KSA investing in shariah compliant assets globally,info@onyxinv.com,https://www.onyxinv.com/,https://www.onyxinv.com/,,,"Jeddah, Makkah, Saudi Arabia","Jeddah, Makkah, Saudi Arabia",All Asian Family Offices,,,
fb1fab21-3eb9-4b94-96d6-693fd2529151,Oporto Delta,company,,Oporto Group is a trading and investment proprietary organization that is active in both local and international capital markets.,,https://www.oportogroup.com,https://www.oportogroup.com,,,"Tel Aviv, Tel Aviv, Israel","Tel Aviv, Tel Aviv, Israel",All Asian Family Offices,,,
69a63af8-a382-4eda-bfc7-1f40b6a86cdc,Otto Ventures,company,info@ottoventures.com,"Otto Ventures is a leading digital health, medical device and technology firm specializing in family office investing and advisory services.",info@ottoventures.com,http://ottoventures.com/,http://ottoventures.com/,,,"Singapore, Central Region, Singapore","Singapore, Central Region, Singapore",All Asian Family Offices,,,
2aebc803-8444-4653-bfa0-3be14a20ed94,Pacific Liberty,company,murray@pacificliberty.com,"Pacific Liberty operates as a private investment group, family office, and corporate advisory firm specializing in mergers and acquisitions.",murray@pacificliberty.com,http://www.pacificliberty.com,http://www.pacificliberty.com,,,"Singapore, Central Region, Singapore","Singapore, Central Region, Singapore",All Asian Family Offices,,,
ba7b1dac-7b08-4db2-9d20-e438a7e3bd67,Pacific Tiger Group,company,,Pacific Tiger Group is an investment fund.,,https://www.linkedin.com/company/pacific-tiger-group-limited/,https://www.linkedin.com/company/pacific-tiger-group-limited/,,,"Hong Kong, Hong Kong Island, Hong Kong","Hong Kong, Hong Kong Island, Hong Kong",All Asian Family Offices,,1,1
ee8710ff-5403-42e6-b4b8-8971b72b3e24,Paipal Ventures,company,,Paipal Ventures is a founders first investment firm that provides capital to founders with scalable ideas.,,https://paipal.vc,https://paipal.vc,,,"Mysore, Karnataka, India","Mysore, Karnataka, India",All Asian Family Offices,2,25,24
ecb652b9-0a61-4418-9a2c-4705773cf0fc,Patni Financial Advisors,company,,"Patni Financial Advisors invests in a wide range of asset classes such as equity, debt, real estate and commodities.",,https://patniadvisors.com/,https://patniadvisors.com/,,,"Mumbai, Maharashtra, India","Mumbai, Maharashtra, India",All Asian Family Offices,,2,2
0f1a038f-e848-4ab1-b9d0-3d063b90e24c,Pivot Ventures,company,,Pivot is focused on InsurTech and things that fundamentally transforming insurance industry.,,https://www.pivot.asia,https://www.pivot.asia,,,"Singapore, Central Region, Singapore","Singapore, Central Region, Singapore",All Asian Family Offices,,4,4
a051a3b2-a0a0-4bda-9bd3-0a1c05fe8c8b,Prasetia Dwidharma,company,investment@prasetia.co.id,"Prasetia Dwidharma is an investment company that invests in early stage technology startups, mostly in Southeast Asia.",investment@prasetia.co.id,http://www.prasetia.co.id/investment,http://www.prasetia.co.id/investment,,,"Jakarta Pusat, Jakarta Raya, Indonesia","Jakarta Pusat, Jakarta Raya, Indonesia","Corporate Venture Arms,All Asian Family Offices",2,48,42
24380a26-4e82-4f7c-ae60-839f522d2702,Pratithi Investments,company,saumya@pratithi.com,"A private equity, venture capital and venture debt investment arm of Mr. Kris Gopalakrishnan (Cofounder, Infosys)",saumya@pratithi.com,https://www.linkedin.com/company/pratithi-investments/,https://www.linkedin.com/company/pratithi-investments/,,,"No. 515, 1st Cross, 12th Main, IV Block, Koramangala, Bangalore 560034","No. 515, 1st Cross, 12th Main, IV Block, Koramangala, Bangalore 560034","VC investing in India ,All Asian Family Offices",1,12,8
ae926ff4-7be2-4ebb-8374-9dbc5026a310,Private Office International,company,adam@privateoffice.hk,Private Office International is a Private Equity focused independent Family Office.,adam@privateoffice.hk,https://www.privateoffice.hk/,https://www.privateoffice.hk/,,,"North Point, Hong Kong Island, Hong Kong","North Point, Hong Kong Island, Hong Kong",All Asian Family Offices,,1,1
1cb0929e-f179-4544-a8e6-042dd4efad37,Prosper global,company,,"Venture capital, M&A, Real-Estate, Pharma",,,,,,"Dubai, United Arab Emirates","Dubai, United Arab Emirates",All Asian Family Offices,,2,1
ca6be725-e0cc-401b-98cd-bfbfeccb781b,"Providence, LLC",company,,Wealth Management,,https://linkedin.com/company/providence-llc,https://linkedin.com/company/providence-llc,,,"Dubai, United Arab Emirates","Dubai, United Arab Emirates",All Asian Family Offices,,,
29825193-aca2-4b9c-8dd8-9b79860baf2c,PS Pai & family,company,,PS Pai & family is a family investment firm.,,,,,,"Chennai, Tamil Nadu, India","Chennai, Tamil Nadu, India",All Asian Family Offices,,3,1
ff3585c9-798f-49be-ac5d-367dacb5ca1e,PT. Buol Investama Indonesia,company,buolinvestamaindonesia@gmail.com,IM Networks Apps,buolinvestamaindonesia@gmail.com,https://www.linkedin.com/company/99073682,https://www.linkedin.com/company/99073682,,,"Jakarta, Jakarta Raya, Indonesia","Jakarta, Jakarta Raya, Indonesia",All Asian Family Offices,,,
bf65df3d-b24c-4d52-8a38-e46223e1dda5,Puthen & Cole,company,,Puthen & Cole presents options that make sense and works for their clients.,,http://puthen.co/,http://puthen.co/,,,"Singapore, Central Region, Singapore","Singapore, Central Region, Singapore",All Asian Family Offices,,1,1
8211fe22-5985-4165-9780-1edccd194f27,QRG Investments and Holdings,company,,QRG Investments and Holdings is an NBFC registered with the RBI and holds investments in several companies.,,https://qrgihl.com/,https://qrgihl.com/,,,"New Delhi, Delhi, India","New Delhi, Delhi, India",All Asian Family Offices,,4,3
e2db6744-4e95-4e3c-8bec-00047c784b05,Quadro Capital Group,company,info@quadrocapital.com,"Quadro Capital (QC Group) is a private investment group focusing on financial and infrastructural CONNECTIVITY in EU, MENA, and SEA regions",info@quadrocapital.com,http://www.quadrocapital.com,http://www.quadrocapital.com,,,"Dubai, Dubai, United Arab Emirates","Dubai, Dubai, United Arab Emirates",All Asian Family Offices,,1,1
b923138d-6f33-44d4-9524-b5bc519e813b,RAAY Global Investments,company,,RAAY Global Investments provides a solution towards asset management and capital preservation for the family.,,http://raayinvestments.com/,http://raayinvestments.com/,,,"Pune, Maharashtra, India","Pune, Maharashtra, India",All Asian Family Offices,,3,3
64784ec2-1653-4715-a798-ac890ad42a15,Radha Rani Holdings Family Office,company,,Radha Rani Holdings Family Office operates as a family investment office.,,,,,,"Singapore, Central Region, Singapore","Singapore, Central Region, Singapore",All Asian Family Offices,,1,1
5c66afe1-1d89-4d80-b44c-6e0c8bc613c5,Raffles Family Office,company,,Raffles Family Office is a multi-family office providing bespoke asset protection and wealth management solutions.,,https://www.rafflesgroup.co,https://www.rafflesgroup.co,,,"Central, Hong Kong Island, Hong Kong","Central, Hong Kong Island, Hong Kong",All Asian Family Offices,,1,1
6969fd12-1ac6-4873-b660-b6614f3ef0dc,Raintree Family Office,company,contactus@theraintree.co.in,"Raintree Family Office operates to invest the promoter family's wealth through public markets, private equity, and alternate assets.",contactus@theraintree.co.in,http://theraintree.co.in/,http://theraintree.co.in/,,,"Pune, Maharashtra, India","Pune, Maharashtra, India",All Asian Family Offices,,3,3
d94a6b2e-6d8e-4286-aacf-843d38194b3b,Randev Ventures,company,connect@randevventures.com,"Private Investment Body of Randev Family Office: Proprietary Capital for CleanTech, Consumer & EnterpriseTech Founders",connect@randevventures.com,https://www.randevventures.com,https://www.randevventures.com,,,"New Delhi, Delhi, India","New Delhi, Delhi, India",All Asian Family Offices,,13,13
f2c6b429-9595-4cee-8c1b-4ba50317b86f,RAPZO CAPITAL,company,info@rapzocap.com,Rapzo Capital was founded in 2018 and has grown into a very successful Family Office and Incubator based in Singapore.,info@rapzocap.com,https://www.rapzo.com/,https://www.rapzo.com/,,,"Singapore, Central Region, Singapore","Singapore, Central Region, Singapore",All Asian Family Offices,1,6,4
7fda3a2f-4d5f-4f84-95c0-98bb17e9f022,Ravi Modi Family Trust,company,,Ravi Modi Family Trust is a Family Investment Office of Ravi Modi.,,,,,,"Kolkata, West Bengal, India","Kolkata, West Bengal, India",All Asian Family Offices,,2,2
d9e75270-9d1b-41bf-a482-41bfb56eb7a9,Readysun Group,company,,Readysun Group is an asset management organization.,,http://www.readysun.net/,http://www.readysun.net/,,,"Shenzhen, Guangdong, China","Shenzhen, Guangdong, China",All Asian Family Offices,1,5,5
2802bec1-33a3-4cf4-a1a1-ca4682d36c9b,Redbrook,company,,Redbrook is a well-established family office and operates as a private venture capital company.,,,,,,"Singapore, Central Region, Singapore","Singapore, Central Region, Singapore",All Asian Family Offices,,1,1
73c81d5b-8059-42d8-b706-a7788876596b,Reddy Futures,company,,"Reddy Futures is a family office based in Hyderabad, India with the purpose to invest and build companies of the future.",,https://www.reddyfutures.com/,https://www.reddyfutures.com/,,,"Hyderabad, Andhra Pradesh, India","Hyderabad, Andhra Pradesh, India",All Asian Family Offices,,5,5
c50ec77d-fda9-487a-992d-e0a76786d17d,Regis and Savoy Capital Privy,company,,RRegis and Savoy Capital Privy is an integrated Investment Management company with both global and local presence.,,https://www.regisandsavoy.com/,https://www.regisandsavoy.com/,,,"Bangalore, Karnataka, India","Bangalore, Karnataka, India",All Asian Family Offices,,1,1
50fc16b6-b54f-4a09-ae23-2e07aeacf18e,Rhodium,company,website@rhodium.co.il,"Rhodium is a private investment firm, our focus areas include Impact, Internet, Climate Tech, Food Tech, Space, and Deep Tech",website@rhodium.co.il,http://www.rhodium.co.il,http://www.rhodium.co.il,,,"Herzliya, Tel Aviv, Israel","Herzliya, Tel Aviv, Israel",All Asian Family Offices,8,45,24
b9bde6fa-cf73-45ae-ad11-53ae3bfe6b1c,RIC Capital Management,company,infor@ric-cap.com,RIC Capital Management is an Asian capital management and family office management company.,infor@ric-cap.com,http://www.ric-cap.com,http://www.ric-cap.com,,,"Shanghai, Shanghai, China","Shanghai, Shanghai, China",All Asian Family Offices,1,7,6
6aec2a05-a0e4-4260-8237-255f901476fa,Richlink Capital,company,service@richlink.com.cn,"Richlink Capital is a professional asset management institution offers asset management, wealth management and investment banking.",service@richlink.com.cn,https://richlink.com.cn/,https://richlink.com.cn/,,,"Beijing, Beijing, China","Beijing, Beijing, China",All Asian Family Offices,,3,3
76700253-6c96-4e4b-ba8d-1a8bea8b431b,Rockpool Capital,company,info@rockpoolcap.com,A multi-family office platform and ecosystem for Asia's next generations,info@rockpoolcap.com,https://rockpoolcap.com/,https://rockpoolcap.com/,,,"Hong Kong, Hong Kong Island, Hong Kong","Hong Kong, Hong Kong Island, Hong Kong",All Asian Family Offices,4,23,20
82f9bf24-6c4e-418a-89b1-657ebfbf58a1,Royal Venture Investments,company,,Royal Venture Investments invests in businesses in order to create market-leading companies in their sector.,,http://www.royalventureinvestments.com,http://www.royalventureinvestments.com,,,"Dubai, United Arab Emirates","Dubai, United Arab Emirates",All Asian Family Offices,,,
a9e25ee0-815d-4d66-8cf7-782e06487021,Rumah Group,company,info@rumahgroup.com,"Rumah Group is a family investment office that makes real estate, equities and environmentally-focused impact investments.",info@rumahgroup.com,https://www.rumahgroup.com/,https://www.rumahgroup.com/,,,"Singapore, Central Region, Singapore","Singapore, Central Region, Singapore",All Asian Family Offices,,3,3
78fca0e8-dff5-420f-b982-d71cd6026040,RYNMS,company,info@rynms.com,"A business group based out of India investing in Technologies, Intellectual Properties, Trademarks and Real Estate",info@rynms.com,https://rynms.com,https://rynms.com,,,"Hyderabad, Andhra Pradesh, India","Hyderabad, Andhra Pradesh, India",All Asian Family Offices,,2,2
4a9b40e0-1dda-43e7-9893-ce7bc3e9efc8,RZM Investments,company,,"RZM Investments manages the shares of various companies that are in the field of health, education, hospitality, and tourism.",,https://rzm.com.sa,https://rzm.com.sa,,,"Riyadh, Ar Riyad, Saudi Arabia","Riyadh, Ar Riyad, Saudi Arabia",All Asian Family Offices,,17,15
e3d0eea9-db09-45a1-98e5-0d2db4d69fba,Sarcha Advisors,company,,Sarcha Advisors provides financial and business advisory services.,,http://www.linkedin.com/company/sarcha-advisors-llp,http://www.linkedin.com/company/sarcha-advisors-llp,,,"Gurgaon, Haryana, India","Gurgaon, Haryana, India",All Asian Family Offices,,5,5
37f44951-7f19-4462-ac84-1451309882bc,Sarona Ventures,company,,"Sarona Ventures is the investment arm of the largest startup ecosystem in Israel, investing in seed and series-a Israeli talent globally",,https://sarona.vc/,https://sarona.vc/,,,🇮🇱 Israel,🇮🇱 Israel,"Top European VCs,All Asian Family Offices",1,18,16
a090f6d0-b558-4f89-a8c3-b479f58e8069,Satori Venture,company,info@satorivc.com,"Satori Venture focuses on early stage token investments in efficient, problem solving and scalable blockchain projects",info@satorivc.com,https://www.satorivc.com/,https://www.satorivc.com/,,,"Hong Kong, Hong Kong Island, Hong Kong","Hong Kong, Hong Kong Island, Hong Kong",All Asian Family Offices,,,
4a56c4ad-9827-4478-9f92-7ebd00dc984f,Sattva Family Office,company,,Sattva Family Office operates as a family office.,,,,,,"Bangalore, Karnataka, India","Bangalore, Karnataka, India",All Asian Family Offices,,3,3
eb7330cc-7a85-4ad4-8c5f-2354dd496d15,SATVIK INVESTMENT PTE LTD,company,sandagarwal76@gmail.com,An Investment Holding Company from Singapore with angel & seed investments in South East Asia Focus.,sandagarwal76@gmail.com,,,,,"Singapore, Central Region, Singapore","Singapore, Central Region, Singapore",All Asian Family Offices,,4,3
416822a0-9497-4e0b-9cf1-ba6d46be0956,SCARAB GROUP,company,andrew@scarab-group.com,SCARAB Group is a family office investment company that operates with portfolio companies globally.,andrew@scarab-group.com,http://www.scarab-group.com,http://www.scarab-group.com,,,"Abu Dhabi, Abu Dhabi, United Arab Emirates","Abu Dhabi, Abu Dhabi, United Arab Emirates",All Asian Family Offices,,,
768f5b06-4eec-4f6c-9377-52dd2251882f,SeedersClub,company,andy@seedersclub.com,"Family & friends advisory office based in Bangkok, Thailand",andy@seedersclub.com,http://www.seedersclub.com,http://www.seedersclub.com,,,"Bangkok, Krung Thep, Thailand","Bangkok, Krung Thep, Thailand",All Asian Family Offices,1,2,2
3f7d0314-254e-4078-b7d1-6c584b79f26c,Shatter Tech Venture Holdings,company,info@shattertech.ph,"FinTech, Security, Drones, Cryptofinance, B2B, Artificial Intelligence, WiFi, and Mobility",info@shattertech.ph,https://www.shattertech.ph/,https://www.shattertech.ph/,,,"Makati, Manila, Philippines","Makati, Manila, Philippines",All Asian Family Offices,1,9,9
b8a846af-f9bc-4761-a5bb-6e09528cad3d,Shivanssh,company,,Shivanssh is a family investment office.,,https://www.shivanssh.com/,https://www.shivanssh.com/,,,"Bangalore, Karnataka, India","Bangalore, Karnataka, India",All Asian Family Offices,,1,1
e86b64cb-8de3-4484-bca9-80e1d535942f,Sigma Private Office,company,,"Sigma Private Office provide holistic wealth management solutions for high-net-worth individuals and their families, corporates, and trusts.",,https://sigmaprivate.com/,https://sigmaprivate.com/,,,"Dubai, United Arab Emirates","Dubai, United Arab Emirates",All Asian Family Offices,,1,1
4cbfe1e9-b72e-4de8-9add-d43309cd05eb,Silverstrand Capital,company,,Silverstrand is a singapore-based family office investing in regenerative agriculture,,https://www.silverstrand.capital/,https://www.silverstrand.capital/,,,"Singapore, Central Region, Singapore","Singapore, Central Region, Singapore",All Asian Family Offices,,9,8
ab8a8712-d491-483d-af76-68ea4e74fd11,SinoAm Capital,company,jimmy.leong@sinoamcapital.com,"SinoAm Capital is an investment company that invests in early-stage, VC, private equity, real estate, and public markets.",jimmy.leong@sinoamcapital.com,https://www.sinoamcapital.com,https://www.sinoamcapital.com,,,"Singapore, Central Region, Singapore","Singapore, Central Region, Singapore",All Asian Family Offices,,,
aa34bb48-2200-4e33-b859-27ce3dbd5100,SinoVest Capital,company,,SinoVest Capital is an Investment firm.,,http://www.sinovestcap.com/,http://www.sinovestcap.com/,,,"Hong Kong, Hong Kong Island, Hong Kong","Hong Kong, Hong Kong Island, Hong Kong",All Asian Family Offices,,1,1
7896ca39-6375-418a-9974-2346518cad3a,Skelmore Holdings,company,,"Skelmore Holdings is a Family Office headquartered in Dubai which specialises in investments in Automotive, Retail Fashion and F&B.",,,,,,"Dubai, Dubai, United Arab Emirates","Dubai, Dubai, United Arab Emirates",All Asian Family Offices,,1,1
15d971ef-8129-4476-8189-6d059ed6dc68,SkyVision Capital,company,contact@skyvisioncapital.com,SkyVision Capital promotes new decentralized technology and its development.,contact@skyvisioncapital.com,https://www.skyvisioncapital.com,https://www.skyvisioncapital.com,,,"Hong Kong, Hong Kong Island, Hong Kong","Hong Kong, Hong Kong Island, Hong Kong",All Asian Family Offices,2,78,76
6fc14519-8d49-4447-99fc-daa2f6114e3d,Smiti Holding & Trading Co.,company,,Smiti Holding & Trading Co. operates as a family office.,,,,,,"Mumbai, Maharashtra, India","Mumbai, Maharashtra, India",All Asian Family Offices,,2,2
6dbdea51-19e5-4c45-96e7-faa4afb677ed,SourceN,company,sales@sourcen.com,SourceN was India's Leading Mobile Venture Studio launching many of India's Top Mobile Consumer Startups between 2004-2015,sales@sourcen.com,http://www.sourcen.com,http://www.sourcen.com,,,"Bangalore, Karnataka, India","Bangalore, Karnataka, India",All Asian Family Offices,,1,1
2c6d4a73-0f8b-4837-9504-f801b8fc3ba7,Spectrum Impact,company,connect@spectrum-impact.org,Spectrum Impact is a family office committed to solving large-scale societal problems with novel solutions.,connect@spectrum-impact.org,https://spectrum-impact.com/,https://spectrum-impact.com/,,,"Copenhagen, Denmark","Copenhagen, Denmark",All Asian Family Offices,,9,8
f8b46c49-c102-46ef-b578-0b6ea8397c6b,Spondulix,company,contact@spondulix.com,Enabling the Future of Technology by Investing in Pathbreaking Entrepreneurs,contact@spondulix.com,http://www.spondulix.com,http://www.spondulix.com,,,"Singapore, Central Region, Singapore","Singapore, Central Region, Singapore",All Asian Family Offices,,2,1
da28aaa6-217b-496f-bea5-e62a494d8593,SRF Limited,company,info@srf.com,SRF is a chemical engineering company that produces commercial and industrial chemicals.,info@srf.com,https://www.srf.com,https://www.srf.com,,,"Haryana, Haryana, India","Haryana, Haryana, India",All Asian Family Offices,,1,1
825fa191-4538-46c2-8a11-f86c0cea5744,Starling Group,company,,Starling Group is an investor that invests primarily through interests in limited partnership positions.,,http://www.starlinggroup.com/,http://www.starlinggroup.com/,,,"Dubai, Dubai, United Arab Emirates","Dubai, Dubai, United Arab Emirates",All Asian Family Offices,,4,2
885bc39e-29e9-4ed8-bfd5-100cc6a59e8a,STN Holdings,company,help@stn.com,Investment holding based in Vietnam,help@stn.com,,,,,"Hanoi, NA - Vietnam, Vietnam","Hanoi, NA - Vietnam, Vietnam",All Asian Family Offices,,,
1250beb8-b517-429c-809a-dea971798ebe,Subhkam Ventures,company,info@subhkam.com,"‘Subhkam Ventures' was established in the year 1999 by Rakesh S Kathotia, a first generation entrepreneur, whose experience spans over 20",info@subhkam.com,http://www.subhkam.com,http://www.subhkam.com,,,"Mumbai, Maharashtra, India","Mumbai, Maharashtra, India",All Asian Family Offices,,14,14
6465feb0-37cd-41dd-b6be-838c86bda167,Supersonic Capital,company,info@supersonicapital.com,Micro VC & Tech Scouting Firm,info@supersonicapital.com,https://www.supersonicapital.com/,https://www.supersonicapital.com/,,,"Tel Aviv, Tel Aviv, Israel","Tel Aviv, Tel Aviv, Israel",All Asian Family Offices,,,
9f953cc9-9778-478c-81c5-5722f8deb83b,Survam Partners,company,,Survam Partners is an investment firm.,,,,,,"New Delhi, Delhi, India","New Delhi, Delhi, India",All Asian Family Offices,,18,9
3d893b0e-3ee6-4592-a875-be3f235b3240,Swadharma Source Ventures,company,,"Family office for investing in startups, cryptocurrencies and public markets.",,https://www.ssv.fund/,https://www.ssv.fund/,,,"Lucknow, Uttar Pradesh, India","Lucknow, Uttar Pradesh, India",All Asian Family Offices,,1,1
3443028c-b174-4d6c-af12-d7aa4d3b5879,Swettenham Blue,company,,Swettenham Blue is a family investment office.,,,,,,"Singapore, Central Region, Singapore","Singapore, Central Region, Singapore",All Asian Family Offices,1,1,1
15858fcd-30e6-4a0d-8045-1e60a35c445f,Swiss Investors Corporation,company,info@swiss-investors.com,Swiss Investors Corporation is a company that provides metal trading services.,info@swiss-investors.com,http://www.swiss-investors.com,http://www.swiss-investors.com,,,"Sheung Wan, Hong Kong Island, Hong Kong","Sheung Wan, Hong Kong Island, Hong Kong",All Asian Family Offices,,3,3
e039095b-3b0e-455a-9668-4219eb605138,Tabor Electronics,company,info@tabor.co.il,Tabor Electronics is a leader in the test and measurement industry,info@tabor.co.il,http://www.taborelec.com,http://www.taborelec.com,,,"Nesher, Hefa, Israel","Nesher, Hefa, Israel",All Asian Family Offices,,1,1
3f7b5c3e-4c8c-4c05-badd-51126bef56c3,Tainwala Group,company,,"The group has interests in fast moving consumer goods, consumer durables, industrial products, packaging and real estate.",,http://www.tainwala.in/about_us.html,http://www.tainwala.in/about_us.html,,,"Mumbai, Maharashtra, India","Mumbai, Maharashtra, India","Corporate Venture Arms,All Asian Family Offices",1,2,1
d48c9fea-0210-4985-8e59-825c591e83bb,Tajir Al Youm,company,info@rynms.com,"Private Investment firm investing in Startups, Business Equities, Trade Equities and IPs",info@rynms.com,https://rynms.com,https://rynms.com,,,"Dubai, United Arab Emirates","Dubai, United Arab Emirates",All Asian Family Offices,3,4,4
363aa74b-f554-4914-9a53-82f526320a86,Tandem Venture Capital,company,,Tandem VC is an early stage European and ASEAN venture capital fund,,https://www.tandempartners.fr,https://www.tandempartners.fr,,,"Hong Kong, Hong Kong Island, Hong Kong","Hong Kong, Hong Kong Island, Hong Kong",All Asian Family Offices,1,4,4
dc899719-425d-42e3-b26d-c6d7b7f82037,TASNIM Group,company,info@tasnim-group.com,Investment Company (Group Holding),info@tasnim-group.com,http://www.tasnim-group.com,http://www.tasnim-group.com,,,"Jakarta, Jakarta Raya, Indonesia","Jakarta, Jakarta Raya, Indonesia",All Asian Family Offices,,,
0ef8a925-03c1-47e8-8233-10536f4d8d09,Taurus Wealth,company,,"Taurus Wealth is a wealth management powerhouse founded in 2008 with offices in Singapore, Dubai & Zurich.",,http://www.tauruswealth.com/,http://www.tauruswealth.com/,,,"Singapore, Central Region, Singapore","Singapore, Central Region, Singapore",All Asian Family Offices,,3,3
fd0e4b69-0184-45ea-8aa1-3050c12cacc3,T Choithrams BVI,company,,T Choithrams BVI is an Indian family now based overseas.,,,,,,"Mumbai, Maharashtra, India","Mumbai, Maharashtra, India",All Asian Family Offices,,1,1
52b090ea-1628-44a4-88c7-3e11645fe9cd,Tensai Holding Company,company,contact@tensai-holding.com,Tensai Holding Company is a private family office managing a large portfolio of assets globally.,contact@tensai-holding.com,https://tensai-holding.com/,https://tensai-holding.com/,,,"Abu Dhabi, United Arab Emirates","Abu Dhabi, United Arab Emirates",All Asian Family Offices,,1,1
9105f7d3-88c0-4ffb-9239-b5a9c3d0e1b9,The Aria Group,company,info@ariagp.com,ARIA provides seed to early stage funding to entreprenuers with visionary ideas that have the ability to transform entire industries.,info@ariagp.com,theariagroup.co,theariagroup.co,,,Newport Beach,Newport Beach,All Asian Family Offices,,10,9
e6c6571b-07c4-417b-bcbf-5808be70d47a,The Bhogilal Family Office,company,,The Bhogilal Family is a famly office.,,,,,,"Ahmedabad, Gujarat, India","Ahmedabad, Gujarat, India",All Asian Family Offices,,1,1
8a1936d3-0dc2-4784-ac5e-83152c3c30a8,The Cheng family,company,,It is one of Hong Kong's most established tycoon dynasties and the company.,,,,,,"Shanghai, Shanghai, China","Shanghai, Shanghai, China",All Asian Family Offices,,2,2
98d4fe21-254b-454a-8fec-93ef99346f8a,TIBCORP,company,,Private Investment Firm based in Singapore,,,,,,"Singapore, Central Region, Singapore","Singapore, Central Region, Singapore",All Asian Family Offices,,1,1
d0ca5b9c-eab9-4feb-90e9-c7a8d13d0065,Tisana Ventures,company,,Tisana Ventures is an investment firm.,,,,,,"Selangor, Selangor, Malaysia","Selangor, Selangor, Malaysia",All Asian Family Offices,,1,1
130b7534-bd8f-40f0-878d-d91fe55b4852,Titanium Birch,company,,Titanium Birch is a single family office based in Singapore.,,https://www.titaniumbirch.com,https://www.titaniumbirch.com,,,"Singapore, Central Region, Singapore","Singapore, Central Region, Singapore",All Asian Family Offices,,,
da3c2b20-023e-4e63-b231-fe691641820e,TPN Investments,company,hello@tpninvestments.ae,TPN Investments is a family office investment firm that focuses on early stage venture capital opportunities across industries.,hello@tpninvestments.ae,https://tpninvestments.ae,https://tpninvestments.ae,,,"Abu Dhabi, United Arab Emirates","Abu Dhabi, United Arab Emirates",All Asian Family Offices,,1,1
d124fb99-7a59-4c28-aaef-7d28a90b5d00,Tree Capital,company,,Family Office. Pre-Seed to Series-D only.,,,,,,"Singapore, Central Region, Singapore","Singapore, Central Region, Singapore",All Asian Family Offices,,,
1c29e000-0c79-4a36-a2ea-879dd7ab14e3,Tsangs Group,company,,Tsangs Group provides financial services.,,http://www.tsangsgroup.co,http://www.tsangsgroup.co,,,"Central and Western, Hong Kong Island, Hong Kong","Central and Western, Hong Kong Island, Hong Kong",All Asian Family Offices,,2,2
2961a493-b62c-4d47-9fdb-c95b3ce0d10b,Tsao Group,company,connect@tsao.com,"Tsao Group is a financial firm that offers investment solutions, asset management, private equity, and impact investing.",connect@tsao.com,https://tsao.com/,https://tsao.com/,,,"Singapore, Central Region, Singapore","Singapore, Central Region, Singapore",All Asian Family Offices,,1,1
bf13d311-2b1f-411f-a5bb-f8d94cb8bd57,TSG Capital,company,business@tsg.capital,TSG Capital specializes in the fields of business development support and SME loans and financing.,business@tsg.capital,https://www.tsg.capital/,https://www.tsg.capital/,,,"Singapore, Central Region, Singapore","Singapore, Central Region, Singapore",All Asian Family Offices,,1,1
e75fcb5a-92e3-4b43-9cc8-653694220c19,Tushi Concept,company,hello@tushiconcept.co,Tushi Concept Investment,hello@tushiconcept.co,https://www.tushiconcept.co/,https://www.tushiconcept.co/,,,"Tbilisi, Dushet'is Raioni, Georgia","Tbilisi, Dushet'is Raioni, Georgia",All Asian Family Offices,,2,2
15116939-3b8c-4ca2-bacf-51fa6b6a5d3b,Udyat,company,info@udyat.com,"Udyat is to make public utility services smarter, more efficient, and sustainable.",info@udyat.com,https://udyat.com/,https://udyat.com/,,,"Noida, Uttar Pradesh, India","Noida, Uttar Pradesh, India",All Asian Family Offices,,1,1
d423a135-5bf5-48ab-92c4-277b5ce389c7,Udyat Ventures,company,,"Udyat Ventures is a venture arm of udyat group, invests in early stages.",,https://www.linkedin.com/company/udyat-ventures/?originalSubdomain=in,https://www.linkedin.com/company/udyat-ventures/?originalSubdomain=in,,,"Noida, Uttar Pradesh, India","Noida, Uttar Pradesh, India",All Asian Family Offices,,1,1
777ead6a-0094-478e-b73e-5fdb0b3cf48f,UHT Investments,company,projects@uht-in.com,"Our Vision is to improve the life through science, scholarship and innovation",projects@uht-in.com,http://tathqeef-dubai.com/index.html,http://tathqeef-dubai.com/index.html,,,"Dubai, United Arab Emirates","Dubai, United Arab Emirates",All Asian Family Offices,,1,1
c29cc46a-4688-4ed7-9474-eda856d03bd9,UnityVC,company,contact@unityvc.com,Unity Ventures is an Chinese angel investment fund that invests in one hundred early start-up companies.,contact@unityvc.com,http://www.unityvc.com/en.html?12h10c#page1,http://www.unityvc.com/en.html?12h10c#page1,,,China,China,All Asian Family Offices,6,134,115
1c6b4894-57ae-4f43-9a57-6fedac5ae44d,Unnati Labs,company,dreamers@unnatilabs.com,Unnati Labs is a family office focused on venture capital investments.,dreamers@unnatilabs.com,https://www.unnatilabs.com,https://www.unnatilabs.com,,,"Haryana, Haryana, India","Haryana, Haryana, India",All Asian Family Offices,,2,2
ad97805c-0c42-4e6b-92a1-5797373474f6,Unruly Rebels Pte Ltd,company,,Family Office,,,,,,"Singapore, Central Region, Singapore","Singapore, Central Region, Singapore",All Asian Family Offices,,2,1
9e3d9525-726d-40fd-8fdc-3b5de49babfa,Uphill Capital Limited,company,,Uphill Capital is a single family office that act as sponsors and strategic advisers to the traditional core business holdings.,,https://www.linkedin.com/company/uphill-capital-limited/,https://www.linkedin.com/company/uphill-capital-limited/,,,"Hong Kong, Hong Kong Island, Hong Kong","Hong Kong, Hong Kong Island, Hong Kong",All Asian Family Offices,,2,1
a262ac45-7664-4a25-ac17-b6a32644e148,Value Strategy Ventures Private Limited,company,info@valueventures.co,Family Office & Boutique Investment Banking Firm,info@valueventures.co,https://www.valueventures.co,https://www.valueventures.co,,,"Mumbai, Maharashtra, India","Mumbai, Maharashtra, India",All Asian Family Offices,,,
339f8d94-ca54-4520-b816-d522b5447d3f,VANS Investments,company,,"VANS Investments is focused on investments in pre-IPO, new age internet consumer, and fintech companies.",,https://www.linkedin.com/in/vans-investments-part-of-vans-group-6457821ba/?originalSubdomain=in,https://www.linkedin.com/in/vans-investments-part-of-vans-group-6457821ba/?originalSubdomain=in,,,"Mumbai, Maharashtra, India","Mumbai, Maharashtra, India",All Asian Family Offices,,2,2
f30fa06d-2780-404f-9654-0f3150dd009e,Vermont Investment International Limited,company,lorenz@vermontcap.com,"Longterm, Permanent Capital For Founders",lorenz@vermontcap.com,https://vermontcap.com/,https://vermontcap.com/,,,"Hong Kong, Hong Kong Island, Hong Kong","Hong Kong, Hong Kong Island, Hong Kong",All Asian Family Offices,,1,1
d8631b67-f77d-4e94-a5be-30e62e136e91,Vernalis Capital,company,,Vernalis Capital is a family-owned investment company that helps entrepreneurs pursue their vision and goals.,,https://www.vernaliscapital.com/,https://www.vernaliscapital.com/,,,"Chennai, Tamil Nadu, India","Chennai, Tamil Nadu, India",All Asian Family Offices,,1,1
e862db82-2d5c-4a3e-8935-65cbc6b963c1,VM Salgaocar family office,company,,VM Salgaocar family office is an investment firm.,,https://vmsbgoa.com,https://vmsbgoa.com,,,"Goa, Goa, India","Goa, Goa, India",All Asian Family Offices,,3,2
480cf705-7993-4578-b483-522d7cb34f04,W3 Partners,company,chris@w3partners.net,We like to invest in founders at an early stage who are energetic and visionary and are capable of making a difference in the world.,chris@w3partners.net,w3partners.com,w3partners.com,,,"Dubai, United Arab Emirates","Dubai, United Arab Emirates",All Asian Family Offices,,2,2
b404df85-89e4-4541-8813-c8ece123b898,Waao Partners,company,,Waao Partners operates as an investment firm.,,,,,,"Ahmedabad, Gujarat, India","Ahmedabad, Gujarat, India",All Asian Family Offices,,4,3
d06ca07a-7e70-4196-b9fd-6d056722b448,Wah Hin & Co.,company,,Wah Hin & Co. operates as an investment company.,,https://www.wah-hin.com/,https://www.wah-hin.com/,,,"Singapore, Central Region, Singapore","Singapore, Central Region, Singapore",All Asian Family Offices,,1,1
be581ca1-08b5-4365-8f0a-2319ad81a52f,Walled City Co.,company,email@walledcity.co,Investment syndicates for seed and early-stage start-ups & entrepreneurs,email@walledcity.co,https://walledcity.co,https://walledcity.co,,,"Lahore, Punjab, Pakistan","Lahore, Punjab, Pakistan",All Asian Family Offices,,17,13
1dc665b2-6ba3-433d-a432-975e71bf33ee,Walnut Holdings,company,,Investment Holding Company,,,,,,"Singapore, Central Region, Singapore","Singapore, Central Region, Singapore",All Asian Family Offices,,1,1
ab5ac7e4-a8e9-483f-b6ac-154583aeb645,Wami Capital,company,,"Wami Capital is a single-family fund, focuses on supply chain activities of the Transworld Group.",,wamicapital.com,wamicapital.com,,,"Dubai, United Arab Emirates","Dubai, United Arab Emirates",All Asian Family Offices,,9,9
a85cc766-2cb0-45f4-83d1-bdb6a50c7f4d,Watar Partners,company,,Watar Partners is a financial services firm that provides financial advisory services to private investment offices.,,https://www.watarpartners.com,https://www.watarpartners.com,,,"Riyadh, Ar Riyad, Saudi Arabia","Riyadh, Ar Riyad, Saudi Arabia",All Asian Family Offices,,5,3
cad28343-9d46-46e1-826f-e34867bfa9ff,Waterfield Advisors,company,info@waterfieldadvisors.com,Waterfield Advisors is a Multi-Family Office and Wealth Advisory Firm.,info@waterfieldadvisors.com,http://www.waterfieldadvisors.com/,http://www.waterfieldadvisors.com/,,,"Mumbai, Maharashtra, India","Mumbai, Maharashtra, India",All Asian Family Offices,,1,1
2f4394d4-013b-42bf-970d-e2bd4c45c5ea,Welkin Capital Management,company,contact@welkincapital.com,"Welkin is a growth equity firm that provides substantial value-added support and capital to fast growing, mid-market companies in China.",contact@welkincapital.com,http://www.welkincapital.com,http://www.welkincapital.com,,,"Hong Kong, Hong Kong Island, Hong Kong","Hong Kong, Hong Kong Island, Hong Kong",All Asian Family Offices,5,15,13
210b31bc-7330-42d1-b6ba-b8ddd7d0f402,West 22nd Capital Advisers,company,,West 22nd Capital is a boutique single family office and PE firm which serves the financial advisory needs of a ultra-high net worth family.,,http://www.west22capital.com,http://www.west22capital.com,,,"Hong Kong, Hong Kong Island, Hong Kong","Hong Kong, Hong Kong Island, Hong Kong",All Asian Family Offices,,,
e099f8ce-8562-43bb-9aae-953a63e91ec5,Widjaja Family,company,,Widjaja Family operates as a Family Investment Office.,,,,,,"Bekasi, Jawa Barat, Indonesia","Bekasi, Jawa Barat, Indonesia",All Asian Family Offices,,2,2
10c9b6eb-4af2-4b21-8693-8102036cfc6f,Wildex Investment,company,info@wildexinvestment.com,Independent provider of wealth management and alternative investment solutions.,info@wildexinvestment.com,https://www.wildexinvestment.com,https://www.wildexinvestment.com,,,"Central, Hong Kong Island, Hong Kong","Central, Hong Kong Island, Hong Kong",All Asian Family Offices,,,
18a156b7-73a6-469f-8d6f-815681754465,Winvestment,company,admin@winvestment.co.th,Winvestment is a commercial investment holding company owned by Phataraprasit family,admin@winvestment.co.th,http://www.winvestment.co.th/,http://www.winvestment.co.th/,,,"Bangkok, Krung Thep, Thailand","Bangkok, Krung Thep, Thailand",All Asian Family Offices,,1,1
f095900a-965e-48d8-ad1a-f46236a683d4,WONDERWALL CAPITAL,company,pr@ww.ae,"Wonderwall Capital is a single family office focused on private equity, venture capital and real estate investments.",pr@ww.ae,https://ww.ae,https://ww.ae,,,"Dubai, United Arab Emirates","Dubai, United Arab Emirates",All Asian Family Offices,,1,1
30c90ed5-2053-4551-a752-6a488e091d69,Wu Capital,company,bp@wu-capital.com,"Wu Capital focuses on investments in healthcare, consumer, high-tech, and education.",bp@wu-capital.com,wu-capital.com,wu-capital.com,,,"Beijing, Beijing, China","Beijing, Beijing, China",All Asian Family Offices,6,41,33
64b0c273-a73c-48ec-a52f-3efb136ad9a8,Wychwood Capital Investments Ltd,company,,Wychwood Capital Investments identifies investments with superior risk-adjusted returns that are uncorrelated to major asset classes.,,http://www.wychwoodcapital.com/,http://www.wychwoodcapital.com/,,,"Wan Chai, Hong Kong Island, Hong Kong","Wan Chai, Hong Kong Island, Hong Kong",All Asian Family Offices,,,
48ae6c7e-bc1c-401c-8c91-11e4f7a8ade6,XIN Family,company,,XIN Family is an investment firm.,,,,,,"Singapore, Central Region, Singapore","Singapore, Central Region, Singapore",All Asian Family Offices,,,
cd364131-6785-429b-a02c-49358cec222d,Yamauchi-No.10 Family Office,company,,Yamauchi-No.10 Family Office is an investment firm.,,https://y-n10.com/,https://y-n10.com/,,,"Tokyo, Tokyo, Japan","Tokyo, Tokyo, Japan",All Asian Family Offices,,8,8
29e23f1d-1561-4a1f-aa0c-4bd5e5f9d412,Yukti Securities,company,,Yukti Securities is the family office of the Chand family and is involved in helping innovative startups reach their full potential.,,http://www.yukti.in/,http://www.yukti.in/,,,"New Delhi, Delhi, India","New Delhi, Delhi, India",All Asian Family Offices,1,9,7
87f03b73-512a-4722-a70b-40e4c6bceb9b,Zebra Global Capital,company,,Zebra Global Capital is the investment fund of Chenchao Zhuang,,,,,,"Beijing, Beijing, China","Beijing, Beijing, China",All Asian Family Offices,,2,2
d9c9c2a4-12ef-4f28-b16f-d50d1869061c,ZEMU Venture Capital,company,talent@zemuvc.co,Backing global entrepreneurs through our various funding programs.,talent@zemuvc.co,http://www.zemuvc.co,http://www.zemuvc.co,,,"Pudong, Shandong, China","Pudong, Shandong, China",All Asian Family Offices,,19,17
48a357ed-929a-40e3-8ab4-c5a82a62bf26,Zettadesk Pvt Limited,company,,Zettadesk is an angel investing firm,,https://www.zettadesk.com/,https://www.zettadesk.com/,,,"Bangalore, Karnataka, India","Bangalore, Karnataka, India",All Asian Family Offices,,,
99b360b8-33b3-4cca-8070-ae1ccc3cabac,ZF Holdings,company,,Family office managing a global venture capital and private equity portfolio.,,http://www.zfhold.com,http://www.zfhold.com,,,"Hong Kong, Hong Kong Island, Hong Kong","Hong Kong, Hong Kong Island, Hong Kong",All Asian Family Offices,,,
